<?xml version="1.0"?>
<gpx xmlns="http://www.topografix.com/GPX/1/1" xmlns:xsi="http://www.w3.org/2001/XMLSchema-instance" version="1.1" creator="AllTrails.com" xsi:schemaLocation="http://www.topografix.com/GPX/1/1 http://www.topografix.com/GPX/1/1/gpx.xsd">
  <metadata>
    <name><![CDATA[Bukit Tabur Extreme via Tiara Kemensah]]></name>
    <desc><![CDATA[]]></desc>
    <link href="http://www.alltrails.com">
      <text>AllTrails, LLC</text>
    </link>
    <bounds minlat="3.21972" minlon="101.76585" maxlat="3.22933" maxlon="101.77598"/>
  </metadata>
  <trk>
    <name><![CDATA[Bukit Tabur Extreme via Tiara Kemensah]]></name>
    <src>AllTrails</src>
    <trkseg>
      <trkpt lat="3.21972" lon="101.7671">
        <ele>158.26</ele>
      </trkpt>
      <trkpt lat="3.21973" lon="101.7671">
        <ele>158.54</ele>
      </trkpt>
      <trkpt lat="3.21974" lon="101.76703">
        <ele>157.3</ele>
      </trkpt>
      <trkpt lat="3.21974" lon="101.76703">
        <ele>157.3</ele>
      </trkpt>
      <trkpt lat="3.21979" lon="101.7668">
        <ele>152.13</ele>
      </trkpt>
      <trkpt lat="3.21982" lon="101.76675">
        <ele>151.56</ele>
      </trkpt>
      <trkpt lat="3.21986" lon="101.76673">
        <ele>152.4</ele>
      </trkpt>
      <trkpt lat="3.21991" lon="101.76674">
        <ele>154.54</ele>
      </trkpt>
      <trkpt lat="3.21993" lon="101.76676">
        <ele>155.83</ele>
      </trkpt>
      <trkpt lat="3.21995" lon="101.76678">
        <ele>157.1</ele>
      </trkpt>
      <trkpt lat="3.21996" lon="101.7668">
        <ele>157.98</ele>
      </trkpt>
      <trkpt lat="3.21996" lon="101.76683">
        <ele>158.79</ele>
      </trkpt>
      <trkpt lat="3.21996" lon="101.76685">
        <ele>159.32</ele>
      </trkpt>
      <trkpt lat="3.21996" lon="101.76689">
        <ele>160.39</ele>
      </trkpt>
      <trkpt lat="3.21997" lon="101.76696">
        <ele>162.32</ele>
      </trkpt>
      <trkpt lat="3.21997" lon="101.76699">
        <ele>162.68</ele>
      </trkpt>
      <trkpt lat="3.21998" lon="101.76702">
        <ele>163.3</ele>
      </trkpt>
      <trkpt lat="3.21998" lon="101.76704">
        <ele>163.53</ele>
      </trkpt>
      <trkpt lat="3.21999" lon="101.76707">
        <ele>164.12</ele>
      </trkpt>
      <trkpt lat="3.21999" lon="101.76709">
        <ele>164.34</ele>
      </trkpt>
      <trkpt lat="3.22" lon="101.76711">
        <ele>164.79</ele>
      </trkpt>
      <trkpt lat="3.22001" lon="101.76713">
        <ele>165.53</ele>
      </trkpt>
      <trkpt lat="3.22002" lon="101.76715">
        <ele>166.25</ele>
      </trkpt>
      <trkpt lat="3.22002" lon="101.76717">
        <ele>166.44</ele>
      </trkpt>
      <trkpt lat="3.22005" lon="101.76722">
        <ele>168.32</ele>
      </trkpt>
      <trkpt lat="3.22006" lon="101.76725">
        <ele>168.34</ele>
      </trkpt>
      <trkpt lat="3.22011" lon="101.76729">
        <ele>169.88</ele>
      </trkpt>
      <trkpt lat="3.22013" lon="101.76733">
        <ele>169.99</ele>
      </trkpt>
      <trkpt lat="3.22018" lon="101.76739">
        <ele>170.83</ele>
      </trkpt>
      <trkpt lat="3.22024" lon="101.76749">
        <ele>170.88</ele>
      </trkpt>
      <trkpt lat="3.22028" lon="101.76756">
        <ele>170.05</ele>
      </trkpt>
      <trkpt lat="3.22033" lon="101.76767">
        <ele>166.76</ele>
      </trkpt>
      <trkpt lat="3.22038" lon="101.76779">
        <ele>163.75</ele>
      </trkpt>
      <trkpt lat="3.22043" lon="101.76795">
        <ele>159.28</ele>
      </trkpt>
      <trkpt lat="3.22043" lon="101.768">
        <ele>157.73</ele>
      </trkpt>
      <trkpt lat="3.22046" lon="101.7681">
        <ele>156.19</ele>
      </trkpt>
      <trkpt lat="3.22049" lon="101.76816">
        <ele>156.9</ele>
      </trkpt>
      <trkpt lat="3.22052" lon="101.7682">
        <ele>157.87</ele>
      </trkpt>
      <trkpt lat="3.22061" lon="101.76824">
        <ele>159.72</ele>
      </trkpt>
      <trkpt lat="3.22067" lon="101.76827">
        <ele>160.42</ele>
      </trkpt>
      <trkpt lat="3.22072" lon="101.76828">
        <ele>160.72</ele>
      </trkpt>
      <trkpt lat="3.22076" lon="101.7683">
        <ele>160.93</ele>
      </trkpt>
      <trkpt lat="3.22087" lon="101.76834">
        <ele>160.1</ele>
      </trkpt>
      <trkpt lat="3.22108" lon="101.76841">
        <ele>156.99</ele>
      </trkpt>
      <trkpt lat="3.2212" lon="101.76844">
        <ele>158.17</ele>
      </trkpt>
      <trkpt lat="3.22134" lon="101.7685">
        <ele>160.88</ele>
      </trkpt>
      <trkpt lat="3.22149" lon="101.76856">
        <ele>160.69</ele>
      </trkpt>
      <trkpt lat="3.22154" lon="101.76857">
        <ele>160.0</ele>
      </trkpt>
      <trkpt lat="3.22158" lon="101.76857">
        <ele>159.22</ele>
      </trkpt>
      <trkpt lat="3.22162" lon="101.76858">
        <ele>158.78</ele>
      </trkpt>
      <trkpt lat="3.22162" lon="101.76858">
        <ele>158.78</ele>
      </trkpt>
      <trkpt lat="3.22166" lon="101.76858">
        <ele>158.01</ele>
      </trkpt>
      <trkpt lat="3.22169" lon="101.76859">
        <ele>158.01</ele>
      </trkpt>
      <trkpt lat="3.22172" lon="101.76859">
        <ele>157.71</ele>
      </trkpt>
      <trkpt lat="3.22187" lon="101.76863">
        <ele>157.06</ele>
      </trkpt>
      <trkpt lat="3.22189" lon="101.76863">
        <ele>156.85</ele>
      </trkpt>
      <trkpt lat="3.22194" lon="101.76865">
        <ele>156.61</ele>
      </trkpt>
      <trkpt lat="3.22198" lon="101.76866">
        <ele>156.87</ele>
      </trkpt>
      <trkpt lat="3.22201" lon="101.76866">
        <ele>157.01</ele>
      </trkpt>
      <trkpt lat="3.22204" lon="101.76867">
        <ele>157.24</ele>
      </trkpt>
      <trkpt lat="3.2221" lon="101.76868">
        <ele>157.56</ele>
      </trkpt>
      <trkpt lat="3.22214" lon="101.7687">
        <ele>157.79</ele>
      </trkpt>
      <trkpt lat="3.22224" lon="101.76871">
        <ele>157.89</ele>
      </trkpt>
      <trkpt lat="3.22231" lon="101.76871">
        <ele>157.46</ele>
      </trkpt>
      <trkpt lat="3.22239" lon="101.76873">
        <ele>156.88</ele>
      </trkpt>
      <trkpt lat="3.22243" lon="101.76874">
        <ele>156.56</ele>
      </trkpt>
      <trkpt lat="3.22246" lon="101.76875">
        <ele>156.29</ele>
      </trkpt>
      <trkpt lat="3.22248" lon="101.76876">
        <ele>156.08</ele>
      </trkpt>
      <trkpt lat="3.2225" lon="101.76876">
        <ele>155.93</ele>
      </trkpt>
      <trkpt lat="3.22253" lon="101.76877">
        <ele>156.32</ele>
      </trkpt>
      <trkpt lat="3.22258" lon="101.76878">
        <ele>156.99</ele>
      </trkpt>
      <trkpt lat="3.22264" lon="101.76881">
        <ele>157.51</ele>
      </trkpt>
      <trkpt lat="3.2227" lon="101.76882">
        <ele>158.19</ele>
      </trkpt>
      <trkpt lat="3.22277" lon="101.76885">
        <ele>158.6</ele>
      </trkpt>
      <trkpt lat="3.2228" lon="101.76885">
        <ele>159.72</ele>
      </trkpt>
      <trkpt lat="3.22288" lon="101.76888">
        <ele>162.92</ele>
      </trkpt>
      <trkpt lat="3.22295" lon="101.76889">
        <ele>166.07</ele>
      </trkpt>
      <trkpt lat="3.223" lon="101.76892">
        <ele>168.47</ele>
      </trkpt>
      <trkpt lat="3.22305" lon="101.76893">
        <ele>170.62</ele>
      </trkpt>
      <trkpt lat="3.22313" lon="101.76893">
        <ele>174.6</ele>
      </trkpt>
      <trkpt lat="3.22324" lon="101.7689">
        <ele>180.26</ele>
      </trkpt>
      <trkpt lat="3.22328" lon="101.7689">
        <ele>182.27</ele>
      </trkpt>
      <trkpt lat="3.2233" lon="101.76891">
        <ele>183.24</ele>
      </trkpt>
      <trkpt lat="3.22333" lon="101.76893">
        <ele>184.68</ele>
      </trkpt>
      <trkpt lat="3.22335" lon="101.76894">
        <ele>184.9</ele>
      </trkpt>
      <trkpt lat="3.22338" lon="101.76896">
        <ele>185.09</ele>
      </trkpt>
      <trkpt lat="3.22342" lon="101.769">
        <ele>185.6</ele>
      </trkpt>
      <trkpt lat="3.22347" lon="101.76903">
        <ele>186.49</ele>
      </trkpt>
      <trkpt lat="3.22351" lon="101.76905">
        <ele>187.37</ele>
      </trkpt>
      <trkpt lat="3.22359" lon="101.76908">
        <ele>189.4</ele>
      </trkpt>
      <trkpt lat="3.2239" lon="101.76925">
        <ele>200.08</ele>
      </trkpt>
      <trkpt lat="3.22402" lon="101.7693">
        <ele>206.23</ele>
      </trkpt>
      <trkpt lat="3.22409" lon="101.76931">
        <ele>209.3</ele>
      </trkpt>
      <trkpt lat="3.22414" lon="101.76931">
        <ele>211.21</ele>
      </trkpt>
      <trkpt lat="3.22419" lon="101.76932">
        <ele>213.6</ele>
      </trkpt>
      <trkpt lat="3.22424" lon="101.76933">
        <ele>215.93</ele>
      </trkpt>
      <trkpt lat="3.22429" lon="101.76933">
        <ele>217.78</ele>
      </trkpt>
      <trkpt lat="3.2243" lon="101.76935">
        <ele>219.05</ele>
      </trkpt>
      <trkpt lat="3.22433" lon="101.76939">
        <ele>221.89</ele>
      </trkpt>
      <trkpt lat="3.22438" lon="101.76949">
        <ele>227.2</ele>
      </trkpt>
      <trkpt lat="3.2244" lon="101.76959">
        <ele>230.37</ele>
      </trkpt>
      <trkpt lat="3.2244" lon="101.76972">
        <ele>233.78</ele>
      </trkpt>
      <trkpt lat="3.22439" lon="101.76983">
        <ele>237.24</ele>
      </trkpt>
      <trkpt lat="3.22438" lon="101.76985">
        <ele>237.65</ele>
      </trkpt>
      <trkpt lat="3.22436" lon="101.76988">
        <ele>238.04</ele>
      </trkpt>
      <trkpt lat="3.22429" lon="101.76989">
        <ele>236.39</ele>
      </trkpt>
      <trkpt lat="3.22423" lon="101.76991">
        <ele>234.92</ele>
      </trkpt>
      <trkpt lat="3.22416" lon="101.76992">
        <ele>232.75</ele>
      </trkpt>
      <trkpt lat="3.22411" lon="101.76994">
        <ele>230.97</ele>
      </trkpt>
      <trkpt lat="3.22405" lon="101.76997">
        <ele>229.23</ele>
      </trkpt>
      <trkpt lat="3.22404" lon="101.76999">
        <ele>229.2</ele>
      </trkpt>
      <trkpt lat="3.22399" lon="101.77007">
        <ele>227.57</ele>
      </trkpt>
      <trkpt lat="3.22397" lon="101.77012">
        <ele>226.78</ele>
      </trkpt>
      <trkpt lat="3.22395" lon="101.77015">
        <ele>226.1</ele>
      </trkpt>
      <trkpt lat="3.22393" lon="101.7702">
        <ele>225.36</ele>
      </trkpt>
      <trkpt lat="3.22392" lon="101.77023">
        <ele>224.98</ele>
      </trkpt>
      <trkpt lat="3.22389" lon="101.7703">
        <ele>223.71</ele>
      </trkpt>
      <trkpt lat="3.22388" lon="101.77034">
        <ele>222.77</ele>
      </trkpt>
      <trkpt lat="3.2239" lon="101.77039">
        <ele>222.74</ele>
      </trkpt>
      <trkpt lat="3.22391" lon="101.77041">
        <ele>222.81</ele>
      </trkpt>
      <trkpt lat="3.22394" lon="101.77043">
        <ele>223.6</ele>
      </trkpt>
      <trkpt lat="3.22403" lon="101.77047">
        <ele>226.55</ele>
      </trkpt>
      <trkpt lat="3.22408" lon="101.77051">
        <ele>228.35</ele>
      </trkpt>
      <trkpt lat="3.22411" lon="101.77054">
        <ele>229.55</ele>
      </trkpt>
      <trkpt lat="3.22414" lon="101.77056">
        <ele>230.78</ele>
      </trkpt>
      <trkpt lat="3.22416" lon="101.77058">
        <ele>231.35</ele>
      </trkpt>
      <trkpt lat="3.22419" lon="101.7706">
        <ele>232.0</ele>
      </trkpt>
      <trkpt lat="3.22425" lon="101.77064">
        <ele>233.25</ele>
      </trkpt>
      <trkpt lat="3.22432" lon="101.77069">
        <ele>235.0</ele>
      </trkpt>
      <trkpt lat="3.22443" lon="101.77078">
        <ele>238.47</ele>
      </trkpt>
      <trkpt lat="3.22449" lon="101.77083">
        <ele>239.98</ele>
      </trkpt>
      <trkpt lat="3.2245" lon="101.77084">
        <ele>240.09</ele>
      </trkpt>
      <trkpt lat="3.22456" lon="101.77088">
        <ele>240.98</ele>
      </trkpt>
      <trkpt lat="3.22467" lon="101.77096">
        <ele>243.73</ele>
      </trkpt>
      <trkpt lat="3.22475" lon="101.771">
        <ele>246.82</ele>
      </trkpt>
      <trkpt lat="3.22483" lon="101.77111">
        <ele>251.81</ele>
      </trkpt>
      <trkpt lat="3.22484" lon="101.77111">
        <ele>252.34</ele>
      </trkpt>
      <trkpt lat="3.2249" lon="101.77119">
        <ele>256.3</ele>
      </trkpt>
      <trkpt lat="3.22493" lon="101.77125">
        <ele>258.84</ele>
      </trkpt>
      <trkpt lat="3.22496" lon="101.77133">
        <ele>261.99</ele>
      </trkpt>
      <trkpt lat="3.22498" lon="101.77146">
        <ele>263.96</ele>
      </trkpt>
      <trkpt lat="3.22498" lon="101.77151">
        <ele>263.64</ele>
      </trkpt>
      <trkpt lat="3.22497" lon="101.77153">
        <ele>262.77</ele>
      </trkpt>
      <trkpt lat="3.22494" lon="101.77159">
        <ele>260.27</ele>
      </trkpt>
      <trkpt lat="3.2249" lon="101.77169">
        <ele>257.72</ele>
      </trkpt>
      <trkpt lat="3.22489" lon="101.77173">
        <ele>258.02</ele>
      </trkpt>
      <trkpt lat="3.22489" lon="101.77182">
        <ele>260.23</ele>
      </trkpt>
      <trkpt lat="3.22486" lon="101.77188">
        <ele>259.81</ele>
      </trkpt>
      <trkpt lat="3.22484" lon="101.77192">
        <ele>259.58</ele>
      </trkpt>
      <trkpt lat="3.22483" lon="101.77194">
        <ele>259.48</ele>
      </trkpt>
      <trkpt lat="3.22481" lon="101.77197">
        <ele>258.41</ele>
      </trkpt>
      <trkpt lat="3.22479" lon="101.772">
        <ele>257.3</ele>
      </trkpt>
      <trkpt lat="3.22475" lon="101.77203">
        <ele>255.16</ele>
      </trkpt>
      <trkpt lat="3.22472" lon="101.77206">
        <ele>253.64</ele>
      </trkpt>
      <trkpt lat="3.22467" lon="101.77213">
        <ele>250.01</ele>
      </trkpt>
      <trkpt lat="3.22464" lon="101.77219">
        <ele>248.15</ele>
      </trkpt>
      <trkpt lat="3.22463" lon="101.77224">
        <ele>247.89</ele>
      </trkpt>
      <trkpt lat="3.22463" lon="101.7723">
        <ele>248.54</ele>
      </trkpt>
      <trkpt lat="3.22464" lon="101.77233">
        <ele>249.65</ele>
      </trkpt>
      <trkpt lat="3.22464" lon="101.77236">
        <ele>249.98</ele>
      </trkpt>
      <trkpt lat="3.22465" lon="101.77239">
        <ele>251.09</ele>
      </trkpt>
      <trkpt lat="3.22465" lon="101.77242">
        <ele>251.42</ele>
      </trkpt>
      <trkpt lat="3.22466" lon="101.77246">
        <ele>252.64</ele>
      </trkpt>
      <trkpt lat="3.22466" lon="101.77248">
        <ele>252.86</ele>
      </trkpt>
      <trkpt lat="3.22469" lon="101.77256">
        <ele>254.81</ele>
      </trkpt>
      <trkpt lat="3.2247" lon="101.77264">
        <ele>254.59</ele>
      </trkpt>
      <trkpt lat="3.22471" lon="101.77271">
        <ele>254.31</ele>
      </trkpt>
      <trkpt lat="3.22471" lon="101.77277">
        <ele>253.53</ele>
      </trkpt>
      <trkpt lat="3.2247" lon="101.77282">
        <ele>253.58</ele>
      </trkpt>
      <trkpt lat="3.22469" lon="101.7729">
        <ele>254.3</ele>
      </trkpt>
      <trkpt lat="3.22469" lon="101.77303">
        <ele>256.23</ele>
      </trkpt>
      <trkpt lat="3.2247" lon="101.77303">
        <ele>256.66</ele>
      </trkpt>
      <trkpt lat="3.22469" lon="101.77308">
        <ele>256.57</ele>
      </trkpt>
      <trkpt lat="3.22468" lon="101.77312">
        <ele>256.12</ele>
      </trkpt>
      <trkpt lat="3.22468" lon="101.77319">
        <ele>256.06</ele>
      </trkpt>
      <trkpt lat="3.22468" lon="101.77323">
        <ele>256.03</ele>
      </trkpt>
      <trkpt lat="3.22468" lon="101.77324">
        <ele>256.02</ele>
      </trkpt>
      <trkpt lat="3.22468" lon="101.77327">
        <ele>255.99</ele>
      </trkpt>
      <trkpt lat="3.22467" lon="101.77331">
        <ele>255.69</ele>
      </trkpt>
      <trkpt lat="3.22467" lon="101.77347">
        <ele>256.51</ele>
      </trkpt>
      <trkpt lat="3.22466" lon="101.77354">
        <ele>256.5</ele>
      </trkpt>
      <trkpt lat="3.22465" lon="101.77361">
        <ele>256.36</ele>
      </trkpt>
      <trkpt lat="3.22463" lon="101.77369">
        <ele>252.61</ele>
      </trkpt>
      <trkpt lat="3.22462" lon="101.77375">
        <ele>250.03</ele>
      </trkpt>
      <trkpt lat="3.22461" lon="101.77384">
        <ele>246.44</ele>
      </trkpt>
      <trkpt lat="3.2246" lon="101.77387">
        <ele>244.93</ele>
      </trkpt>
      <trkpt lat="3.2246" lon="101.77395">
        <ele>242.18</ele>
      </trkpt>
      <trkpt lat="3.22461" lon="101.77398">
        <ele>241.6</ele>
      </trkpt>
      <trkpt lat="3.2246" lon="101.774">
        <ele>240.46</ele>
      </trkpt>
      <trkpt lat="3.22461" lon="101.77404">
        <ele>239.53</ele>
      </trkpt>
      <trkpt lat="3.2246" lon="101.77409">
        <ele>237.36</ele>
      </trkpt>
      <trkpt lat="3.2246" lon="101.77422">
        <ele>231.97</ele>
      </trkpt>
      <trkpt lat="3.22458" lon="101.77427">
        <ele>228.45</ele>
      </trkpt>
      <trkpt lat="3.22459" lon="101.77427">
        <ele>228.92</ele>
      </trkpt>
      <trkpt lat="3.22459" lon="101.77428">
        <ele>228.4</ele>
      </trkpt>
      <trkpt lat="3.22459" lon="101.77429">
        <ele>227.88</ele>
      </trkpt>
      <trkpt lat="3.22458" lon="101.77429">
        <ele>227.4</ele>
      </trkpt>
      <trkpt lat="3.22458" lon="101.7743">
        <ele>226.88</ele>
      </trkpt>
      <trkpt lat="3.22459" lon="101.77434">
        <ele>225.28</ele>
      </trkpt>
      <trkpt lat="3.22464" lon="101.77438">
        <ele>225.78</ele>
      </trkpt>
      <trkpt lat="3.22467" lon="101.77442">
        <ele>225.37</ele>
      </trkpt>
      <trkpt lat="3.22469" lon="101.77445">
        <ele>225.0</ele>
      </trkpt>
      <trkpt lat="3.22471" lon="101.77448">
        <ele>224.69</ele>
      </trkpt>
      <trkpt lat="3.22472" lon="101.77449">
        <ele>224.75</ele>
      </trkpt>
      <trkpt lat="3.22472" lon="101.77452">
        <ele>223.35</ele>
      </trkpt>
      <trkpt lat="3.22473" lon="101.77455">
        <ele>222.71</ele>
      </trkpt>
      <trkpt lat="3.22474" lon="101.7746">
        <ele>221.29</ele>
      </trkpt>
      <trkpt lat="3.22476" lon="101.77465">
        <ele>220.91</ele>
      </trkpt>
      <trkpt lat="3.22477" lon="101.7747">
        <ele>219.75</ele>
      </trkpt>
      <trkpt lat="3.2248" lon="101.77476">
        <ele>221.87</ele>
      </trkpt>
      <trkpt lat="3.22487" lon="101.77487">
        <ele>227.66</ele>
      </trkpt>
      <trkpt lat="3.22493" lon="101.77497">
        <ele>230.95</ele>
      </trkpt>
      <trkpt lat="3.22497" lon="101.77507">
        <ele>231.43</ele>
      </trkpt>
      <trkpt lat="3.22501" lon="101.77514">
        <ele>231.42</ele>
      </trkpt>
      <trkpt lat="3.22501" lon="101.77522">
        <ele>229.31</ele>
      </trkpt>
      <trkpt lat="3.22501" lon="101.77525">
        <ele>228.52</ele>
      </trkpt>
      <trkpt lat="3.22501" lon="101.7753">
        <ele>227.01</ele>
      </trkpt>
      <trkpt lat="3.225" lon="101.77533">
        <ele>226.12</ele>
      </trkpt>
      <trkpt lat="3.225" lon="101.77533">
        <ele>226.12</ele>
      </trkpt>
      <trkpt lat="3.22501" lon="101.77535">
        <ele>225.28</ele>
      </trkpt>
      <trkpt lat="3.225" lon="101.77538">
        <ele>224.32</ele>
      </trkpt>
      <trkpt lat="3.225" lon="101.77548">
        <ele>220.72</ele>
      </trkpt>
      <trkpt lat="3.22501" lon="101.77553">
        <ele>219.03</ele>
      </trkpt>
      <trkpt lat="3.22501" lon="101.77556">
        <ele>217.99</ele>
      </trkpt>
      <trkpt lat="3.22501" lon="101.77561">
        <ele>216.22</ele>
      </trkpt>
      <trkpt lat="3.22503" lon="101.77569">
        <ele>213.85</ele>
      </trkpt>
      <trkpt lat="3.22506" lon="101.77574">
        <ele>212.94</ele>
      </trkpt>
      <trkpt lat="3.22508" lon="101.77578">
        <ele>212.24</ele>
      </trkpt>
      <trkpt lat="3.22511" lon="101.77583">
        <ele>211.66</ele>
      </trkpt>
      <trkpt lat="3.22513" lon="101.77589">
        <ele>210.78</ele>
      </trkpt>
      <trkpt lat="3.22515" lon="101.77595">
        <ele>209.92</ele>
      </trkpt>
      <trkpt lat="3.22515" lon="101.77597">
        <ele>209.42</ele>
      </trkpt>
      <trkpt lat="3.22517" lon="101.77598">
        <ele>209.81</ele>
      </trkpt>
      <trkpt lat="3.22519" lon="101.77598">
        <ele>210.46</ele>
      </trkpt>
      <trkpt lat="3.22523" lon="101.77597">
        <ele>212.01</ele>
      </trkpt>
      <trkpt lat="3.22527" lon="101.77595">
        <ele>213.81</ele>
      </trkpt>
      <trkpt lat="3.22529" lon="101.77593">
        <ele>214.64</ele>
      </trkpt>
      <trkpt lat="3.22531" lon="101.77591">
        <ele>215.25</ele>
      </trkpt>
      <trkpt lat="3.22534" lon="101.77587">
        <ele>216.36</ele>
      </trkpt>
      <trkpt lat="3.22538" lon="101.77582">
        <ele>217.61</ele>
      </trkpt>
      <trkpt lat="3.22539" lon="101.7758">
        <ele>218.0</ele>
      </trkpt>
      <trkpt lat="3.22542" lon="101.77575">
        <ele>219.01</ele>
      </trkpt>
      <trkpt lat="3.22544" lon="101.77573">
        <ele>219.44</ele>
      </trkpt>
      <trkpt lat="3.22548" lon="101.77566">
        <ele>220.85</ele>
      </trkpt>
      <trkpt lat="3.22553" lon="101.7756">
        <ele>222.11</ele>
      </trkpt>
      <trkpt lat="3.22563" lon="101.77537">
        <ele>228.88</ele>
      </trkpt>
      <trkpt lat="3.22567" lon="101.7753">
        <ele>231.81</ele>
      </trkpt>
      <trkpt lat="3.22571" lon="101.77527">
        <ele>233.44</ele>
      </trkpt>
      <trkpt lat="3.22575" lon="101.77523">
        <ele>235.11</ele>
      </trkpt>
      <trkpt lat="3.2258" lon="101.77517">
        <ele>237.33</ele>
      </trkpt>
      <trkpt lat="3.22584" lon="101.77513">
        <ele>238.47</ele>
      </trkpt>
      <trkpt lat="3.22585" lon="101.77512">
        <ele>238.35</ele>
      </trkpt>
      <trkpt lat="3.22587" lon="101.77509">
        <ele>238.37</ele>
      </trkpt>
      <trkpt lat="3.2259" lon="101.77505">
        <ele>238.3</ele>
      </trkpt>
      <trkpt lat="3.22593" lon="101.77501">
        <ele>238.26</ele>
      </trkpt>
      <trkpt lat="3.22599" lon="101.77491">
        <ele>237.56</ele>
      </trkpt>
      <trkpt lat="3.22608" lon="101.77482">
        <ele>236.14</ele>
      </trkpt>
      <trkpt lat="3.2261" lon="101.77479">
        <ele>236.09</ele>
      </trkpt>
      <trkpt lat="3.22616" lon="101.77472">
        <ele>235.24</ele>
      </trkpt>
      <trkpt lat="3.2262" lon="101.77466">
        <ele>233.81</ele>
      </trkpt>
      <trkpt lat="3.22626" lon="101.77459">
        <ele>231.35</ele>
      </trkpt>
      <trkpt lat="3.22634" lon="101.77453">
        <ele>227.74</ele>
      </trkpt>
      <trkpt lat="3.22642" lon="101.77445">
        <ele>223.91</ele>
      </trkpt>
      <trkpt lat="3.22646" lon="101.77441">
        <ele>222.54</ele>
      </trkpt>
      <trkpt lat="3.22657" lon="101.77432">
        <ele>219.36</ele>
      </trkpt>
      <trkpt lat="3.22661" lon="101.77427">
        <ele>218.54</ele>
      </trkpt>
      <trkpt lat="3.22664" lon="101.77422">
        <ele>218.15</ele>
      </trkpt>
      <trkpt lat="3.22666" lon="101.77416">
        <ele>218.48</ele>
      </trkpt>
      <trkpt lat="3.22668" lon="101.77412">
        <ele>220.14</ele>
      </trkpt>
      <trkpt lat="3.22669" lon="101.77409">
        <ele>221.47</ele>
      </trkpt>
      <trkpt lat="3.2267" lon="101.77408">
        <ele>221.87</ele>
      </trkpt>
      <trkpt lat="3.22671" lon="101.77405">
        <ele>223.13</ele>
      </trkpt>
      <trkpt lat="3.22673" lon="101.774">
        <ele>225.12</ele>
      </trkpt>
      <trkpt lat="3.22678" lon="101.77393">
        <ele>227.34</ele>
      </trkpt>
      <trkpt lat="3.22681" lon="101.77388">
        <ele>228.98</ele>
      </trkpt>
      <trkpt lat="3.22685" lon="101.77379">
        <ele>233.99</ele>
      </trkpt>
      <trkpt lat="3.22686" lon="101.77375">
        <ele>236.37</ele>
      </trkpt>
      <trkpt lat="3.22686" lon="101.77372">
        <ele>238.28</ele>
      </trkpt>
      <trkpt lat="3.22687" lon="101.7737">
        <ele>239.4</ele>
      </trkpt>
      <trkpt lat="3.22688" lon="101.77368">
        <ele>240.52</ele>
      </trkpt>
      <trkpt lat="3.22689" lon="101.77364">
        <ele>242.93</ele>
      </trkpt>
      <trkpt lat="3.2269" lon="101.7736">
        <ele>245.4</ele>
      </trkpt>
      <trkpt lat="3.22693" lon="101.7735">
        <ele>252.08</ele>
      </trkpt>
      <trkpt lat="3.227" lon="101.77337">
        <ele>258.61</ele>
      </trkpt>
      <trkpt lat="3.22704" lon="101.77333">
        <ele>259.36</ele>
      </trkpt>
      <trkpt lat="3.22706" lon="101.77329">
        <ele>260.48</ele>
      </trkpt>
      <trkpt lat="3.22714" lon="101.77322">
        <ele>259.81</ele>
      </trkpt>
      <trkpt lat="3.22718" lon="101.77315">
        <ele>261.01</ele>
      </trkpt>
      <trkpt lat="3.22718" lon="101.7731">
        <ele>263.43</ele>
      </trkpt>
      <trkpt lat="3.22719" lon="101.77305">
        <ele>265.15</ele>
      </trkpt>
      <trkpt lat="3.22719" lon="101.77302">
        <ele>266.09</ele>
      </trkpt>
      <trkpt lat="3.2272" lon="101.77298">
        <ele>266.84</ele>
      </trkpt>
      <trkpt lat="3.22721" lon="101.77293">
        <ele>268.05</ele>
      </trkpt>
      <trkpt lat="3.22721" lon="101.77289">
        <ele>269.42</ele>
      </trkpt>
      <trkpt lat="3.22721" lon="101.77286">
        <ele>270.45</ele>
      </trkpt>
      <trkpt lat="3.22721" lon="101.77284">
        <ele>271.13</ele>
      </trkpt>
      <trkpt lat="3.22721" lon="101.77281">
        <ele>272.16</ele>
      </trkpt>
      <trkpt lat="3.2272" lon="101.77277">
        <ele>273.75</ele>
      </trkpt>
      <trkpt lat="3.2272" lon="101.77272">
        <ele>275.46</ele>
      </trkpt>
      <trkpt lat="3.2272" lon="101.7727">
        <ele>276.15</ele>
      </trkpt>
      <trkpt lat="3.22721" lon="101.77266">
        <ele>277.39</ele>
      </trkpt>
      <trkpt lat="3.22724" lon="101.77263">
        <ele>277.66</ele>
      </trkpt>
      <trkpt lat="3.22727" lon="101.77261">
        <ele>277.32</ele>
      </trkpt>
      <trkpt lat="3.2273" lon="101.77257">
        <ele>277.89</ele>
      </trkpt>
      <trkpt lat="3.22732" lon="101.77252">
        <ele>279.34</ele>
      </trkpt>
      <trkpt lat="3.22738" lon="101.77244">
        <ele>280.31</ele>
      </trkpt>
      <trkpt lat="3.2274" lon="101.77239">
        <ele>281.3</ele>
      </trkpt>
      <trkpt lat="3.22742" lon="101.77236">
        <ele>281.69</ele>
      </trkpt>
      <trkpt lat="3.22748" lon="101.77227">
        <ele>282.97</ele>
      </trkpt>
      <trkpt lat="3.2275" lon="101.77222">
        <ele>284.0</ele>
      </trkpt>
      <trkpt lat="3.2275" lon="101.77219">
        <ele>284.0</ele>
      </trkpt>
      <trkpt lat="3.22752" lon="101.77215">
        <ele>282.87</ele>
      </trkpt>
      <trkpt lat="3.22754" lon="101.77213">
        <ele>281.84</ele>
      </trkpt>
      <trkpt lat="3.22757" lon="101.77211">
        <ele>280.38</ele>
      </trkpt>
      <trkpt lat="3.22761" lon="101.77208">
        <ele>278.7</ele>
      </trkpt>
      <trkpt lat="3.22765" lon="101.77206">
        <ele>277.12</ele>
      </trkpt>
      <trkpt lat="3.22769" lon="101.77203">
        <ele>275.95</ele>
      </trkpt>
      <trkpt lat="3.22773" lon="101.77201">
        <ele>274.79</ele>
      </trkpt>
      <trkpt lat="3.22781" lon="101.77194">
        <ele>274.67</ele>
      </trkpt>
      <trkpt lat="3.22787" lon="101.77187">
        <ele>277.36</ele>
      </trkpt>
      <trkpt lat="3.22792" lon="101.77183">
        <ele>278.4</ele>
      </trkpt>
      <trkpt lat="3.22795" lon="101.7718">
        <ele>279.25</ele>
      </trkpt>
      <trkpt lat="3.22797" lon="101.77178">
        <ele>279.78</ele>
      </trkpt>
      <trkpt lat="3.22799" lon="101.77176">
        <ele>280.28</ele>
      </trkpt>
      <trkpt lat="3.22812" lon="101.77163">
        <ele>285.33</ele>
      </trkpt>
      <trkpt lat="3.22813" lon="101.77161">
        <ele>286.8</ele>
      </trkpt>
      <trkpt lat="3.22816" lon="101.77154">
        <ele>291.73</ele>
      </trkpt>
      <trkpt lat="3.22818" lon="101.77147">
        <ele>296.5</ele>
      </trkpt>
      <trkpt lat="3.22818" lon="101.77146">
        <ele>297.26</ele>
      </trkpt>
      <trkpt lat="3.22818" lon="101.77138">
        <ele>302.83</ele>
      </trkpt>
      <trkpt lat="3.22819" lon="101.77132">
        <ele>303.88</ele>
      </trkpt>
      <trkpt lat="3.22821" lon="101.77129">
        <ele>304.06</ele>
      </trkpt>
      <trkpt lat="3.22822" lon="101.77123">
        <ele>305.53</ele>
      </trkpt>
      <trkpt lat="3.22822" lon="101.77119">
        <ele>306.7</ele>
      </trkpt>
      <trkpt lat="3.22824" lon="101.77113">
        <ele>308.39</ele>
      </trkpt>
      <trkpt lat="3.22825" lon="101.77104">
        <ele>312.35</ele>
      </trkpt>
      <trkpt lat="3.22828" lon="101.77099">
        <ele>314.38</ele>
      </trkpt>
      <trkpt lat="3.22831" lon="101.77096">
        <ele>315.3</ele>
      </trkpt>
      <trkpt lat="3.22834" lon="101.77095">
        <ele>315.23</ele>
      </trkpt>
      <trkpt lat="3.22842" lon="101.77095">
        <ele>313.4</ele>
      </trkpt>
      <trkpt lat="3.2285" lon="101.77097">
        <ele>310.43</ele>
      </trkpt>
      <trkpt lat="3.2286" lon="101.77097">
        <ele>307.93</ele>
      </trkpt>
      <trkpt lat="3.22864" lon="101.77095">
        <ele>308.64</ele>
      </trkpt>
      <trkpt lat="3.22865" lon="101.77094">
        <ele>309.15</ele>
      </trkpt>
      <trkpt lat="3.22867" lon="101.77093">
        <ele>309.49</ele>
      </trkpt>
      <trkpt lat="3.22869" lon="101.77091">
        <ele>310.4</ele>
      </trkpt>
      <trkpt lat="3.22871" lon="101.7709">
        <ele>310.63</ele>
      </trkpt>
      <trkpt lat="3.22875" lon="101.77089">
        <ele>310.44</ele>
      </trkpt>
      <trkpt lat="3.2288" lon="101.77084">
        <ele>311.91</ele>
      </trkpt>
      <trkpt lat="3.22886" lon="101.77083">
        <ele>310.86</ele>
      </trkpt>
      <trkpt lat="3.22891" lon="101.77081">
        <ele>309.8</ele>
      </trkpt>
      <trkpt lat="3.22897" lon="101.7708">
        <ele>307.01</ele>
      </trkpt>
      <trkpt lat="3.22903" lon="101.77078">
        <ele>304.69</ele>
      </trkpt>
      <trkpt lat="3.22909" lon="101.77077">
        <ele>301.98</ele>
      </trkpt>
      <trkpt lat="3.22915" lon="101.77075">
        <ele>299.76</ele>
      </trkpt>
      <trkpt lat="3.22921" lon="101.77074">
        <ele>297.39</ele>
      </trkpt>
      <trkpt lat="3.22926" lon="101.77071">
        <ele>296.44</ele>
      </trkpt>
      <trkpt lat="3.22929" lon="101.77066">
        <ele>297.23</ele>
      </trkpt>
      <trkpt lat="3.22933" lon="101.77059">
        <ele>298.3</ele>
      </trkpt>
      <trkpt lat="3.22932" lon="101.77054">
        <ele>300.09</ele>
      </trkpt>
      <trkpt lat="3.22929" lon="101.7705">
        <ele>301.25</ele>
      </trkpt>
      <trkpt lat="3.22929" lon="101.7705">
        <ele>301.25</ele>
      </trkpt>
      <trkpt lat="3.22926" lon="101.77047">
        <ele>302.68</ele>
      </trkpt>
      <trkpt lat="3.22924" lon="101.77047">
        <ele>303.82</ele>
      </trkpt>
      <trkpt lat="3.2291" lon="101.77048">
        <ele>311.77</ele>
      </trkpt>
      <trkpt lat="3.22908" lon="101.77048">
        <ele>312.9</ele>
      </trkpt>
      <trkpt lat="3.22901" lon="101.77047">
        <ele>317.07</ele>
      </trkpt>
      <trkpt lat="3.22901" lon="101.77047">
        <ele>317.07</ele>
      </trkpt>
      <trkpt lat="3.22896" lon="101.77051">
        <ele>318.89</ele>
      </trkpt>
      <trkpt lat="3.22891" lon="101.77053">
        <ele>320.86</ele>
      </trkpt>
      <trkpt lat="3.22887" lon="101.77056">
        <ele>321.5</ele>
      </trkpt>
      <trkpt lat="3.22885" lon="101.77058">
        <ele>321.4</ele>
      </trkpt>
      <trkpt lat="3.22883" lon="101.77058">
        <ele>322.1</ele>
      </trkpt>
      <trkpt lat="3.2288" lon="101.77058">
        <ele>323.15</ele>
      </trkpt>
      <trkpt lat="3.22876" lon="101.77058">
        <ele>324.55</ele>
      </trkpt>
      <trkpt lat="3.2287" lon="101.77058">
        <ele>326.65</ele>
      </trkpt>
      <trkpt lat="3.22865" lon="101.7706">
        <ele>327.43</ele>
      </trkpt>
      <trkpt lat="3.22861" lon="101.7706">
        <ele>328.77</ele>
      </trkpt>
      <trkpt lat="3.22855" lon="101.77062">
        <ele>328.24</ele>
      </trkpt>
      <trkpt lat="3.22852" lon="101.77062">
        <ele>328.48</ele>
      </trkpt>
      <trkpt lat="3.22847" lon="101.7706">
        <ele>329.86</ele>
      </trkpt>
      <trkpt lat="3.22845" lon="101.7706">
        <ele>330.01</ele>
      </trkpt>
      <trkpt lat="3.22843" lon="101.77058">
        <ele>331.13</ele>
      </trkpt>
      <trkpt lat="3.2284" lon="101.77056">
        <ele>332.31</ele>
      </trkpt>
      <trkpt lat="3.22836" lon="101.77053">
        <ele>333.84</ele>
      </trkpt>
      <trkpt lat="3.22834" lon="101.77051">
        <ele>334.89</ele>
      </trkpt>
      <trkpt lat="3.22832" lon="101.77051">
        <ele>335.11</ele>
      </trkpt>
      <trkpt lat="3.22828" lon="101.77048">
        <ele>336.72</ele>
      </trkpt>
      <trkpt lat="3.22824" lon="101.77048">
        <ele>337.06</ele>
      </trkpt>
      <trkpt lat="3.22822" lon="101.77047">
        <ele>337.57</ele>
      </trkpt>
      <trkpt lat="3.22815" lon="101.77046">
        <ele>338.41</ele>
      </trkpt>
      <trkpt lat="3.22808" lon="101.77046">
        <ele>338.89</ele>
      </trkpt>
      <trkpt lat="3.22803" lon="101.77047">
        <ele>339.27</ele>
      </trkpt>
      <trkpt lat="3.22799" lon="101.77049">
        <ele>339.47</ele>
      </trkpt>
      <trkpt lat="3.22796" lon="101.77049">
        <ele>339.95</ele>
      </trkpt>
      <trkpt lat="3.22794" lon="101.7705">
        <ele>340.03</ele>
      </trkpt>
      <trkpt lat="3.22779" lon="101.7705">
        <ele>342.41</ele>
      </trkpt>
      <trkpt lat="3.22775" lon="101.77051">
        <ele>342.55</ele>
      </trkpt>
      <trkpt lat="3.22772" lon="101.77051">
        <ele>342.8</ele>
      </trkpt>
      <trkpt lat="3.22766" lon="101.77053">
        <ele>342.85</ele>
      </trkpt>
      <trkpt lat="3.22762" lon="101.77056">
        <ele>342.58</ele>
      </trkpt>
      <trkpt lat="3.22759" lon="101.77058">
        <ele>342.35</ele>
      </trkpt>
      <trkpt lat="3.22757" lon="101.77058">
        <ele>342.56</ele>
      </trkpt>
      <trkpt lat="3.22756" lon="101.77059">
        <ele>342.39</ele>
      </trkpt>
      <trkpt lat="3.22753" lon="101.77061">
        <ele>342.13</ele>
      </trkpt>
      <trkpt lat="3.22751" lon="101.77062">
        <ele>342.04</ele>
      </trkpt>
      <trkpt lat="3.22742" lon="101.77071">
        <ele>336.45</ele>
      </trkpt>
      <trkpt lat="3.2274" lon="101.77074">
        <ele>334.96</ele>
      </trkpt>
      <trkpt lat="3.22736" lon="101.77077">
        <ele>332.83</ele>
      </trkpt>
      <trkpt lat="3.22735" lon="101.77079">
        <ele>332.05</ele>
      </trkpt>
      <trkpt lat="3.22728" lon="101.77084">
        <ele>328.85</ele>
      </trkpt>
      <trkpt lat="3.22725" lon="101.77086">
        <ele>327.9</ele>
      </trkpt>
      <trkpt lat="3.22722" lon="101.77088">
        <ele>327.08</ele>
      </trkpt>
      <trkpt lat="3.22718" lon="101.77087">
        <ele>325.36</ele>
      </trkpt>
      <trkpt lat="3.22716" lon="101.77088">
        <ele>324.63</ele>
      </trkpt>
      <trkpt lat="3.22714" lon="101.77088">
        <ele>323.82</ele>
      </trkpt>
      <trkpt lat="3.22711" lon="101.77087">
        <ele>322.41</ele>
      </trkpt>
      <trkpt lat="3.22712" lon="101.7708">
        <ele>322.56</ele>
      </trkpt>
      <trkpt lat="3.22712" lon="101.7708">
        <ele>322.56</ele>
      </trkpt>
      <trkpt lat="3.22718" lon="101.77069">
        <ele>326.85</ele>
      </trkpt>
      <trkpt lat="3.22719" lon="101.77064">
        <ele>328.03</ele>
      </trkpt>
      <trkpt lat="3.22717" lon="101.77059">
        <ele>327.57</ele>
      </trkpt>
      <trkpt lat="3.22718" lon="101.77056">
        <ele>328.51</ele>
      </trkpt>
      <trkpt lat="3.22726" lon="101.77041">
        <ele>340.3</ele>
      </trkpt>
      <trkpt lat="3.22726" lon="101.77041">
        <ele>340.3</ele>
      </trkpt>
      <trkpt lat="3.22726" lon="101.77039">
        <ele>341.33</ele>
      </trkpt>
      <trkpt lat="3.22726" lon="101.77037">
        <ele>342.37</ele>
      </trkpt>
      <trkpt lat="3.22729" lon="101.77035">
        <ele>343.85</ele>
      </trkpt>
      <trkpt lat="3.22732" lon="101.77033">
        <ele>345.14</ele>
      </trkpt>
      <trkpt lat="3.22733" lon="101.77032">
        <ele>345.66</ele>
      </trkpt>
      <trkpt lat="3.22734" lon="101.77029">
        <ele>346.94</ele>
      </trkpt>
      <trkpt lat="3.22736" lon="101.77025">
        <ele>347.25</ele>
      </trkpt>
      <trkpt lat="3.22736" lon="101.77023">
        <ele>347.07</ele>
      </trkpt>
      <trkpt lat="3.22737" lon="101.77018">
        <ele>346.66</ele>
      </trkpt>
      <trkpt lat="3.22739" lon="101.77014">
        <ele>346.42</ele>
      </trkpt>
      <trkpt lat="3.22741" lon="101.77012">
        <ele>346.36</ele>
      </trkpt>
      <trkpt lat="3.22744" lon="101.77007">
        <ele>346.13</ele>
      </trkpt>
      <trkpt lat="3.22745" lon="101.77003">
        <ele>345.88</ele>
      </trkpt>
      <trkpt lat="3.22746" lon="101.76995">
        <ele>345.1</ele>
      </trkpt>
      <trkpt lat="3.22749" lon="101.76991">
        <ele>344.68</ele>
      </trkpt>
      <trkpt lat="3.22753" lon="101.76987">
        <ele>344.34</ele>
      </trkpt>
      <trkpt lat="3.22757" lon="101.76986">
        <ele>344.49</ele>
      </trkpt>
      <trkpt lat="3.22762" lon="101.76985">
        <ele>344.7</ele>
      </trkpt>
      <trkpt lat="3.22765" lon="101.76983">
        <ele>344.63</ele>
      </trkpt>
      <trkpt lat="3.22768" lon="101.76979">
        <ele>344.27</ele>
      </trkpt>
      <trkpt lat="3.22768" lon="101.76978">
        <ele>344.13</ele>
      </trkpt>
      <trkpt lat="3.22786" lon="101.76945">
        <ele>346.05</ele>
      </trkpt>
      <trkpt lat="3.22786" lon="101.76945">
        <ele>346.05</ele>
      </trkpt>
      <trkpt lat="3.22795" lon="101.76928">
        <ele>349.96</ele>
      </trkpt>
      <trkpt lat="3.22797" lon="101.76923">
        <ele>351.04</ele>
      </trkpt>
      <trkpt lat="3.22798" lon="101.76918">
        <ele>352.26</ele>
      </trkpt>
      <trkpt lat="3.22799" lon="101.76914">
        <ele>352.74</ele>
      </trkpt>
      <trkpt lat="3.22811" lon="101.76887">
        <ele>355.25</ele>
      </trkpt>
      <trkpt lat="3.22811" lon="101.76887">
        <ele>355.25</ele>
      </trkpt>
      <trkpt lat="3.22818" lon="101.7687">
        <ele>357.25</ele>
      </trkpt>
      <trkpt lat="3.22821" lon="101.76866">
        <ele>358.08</ele>
      </trkpt>
      <trkpt lat="3.22823" lon="101.76861">
        <ele>359.24</ele>
      </trkpt>
      <trkpt lat="3.22823" lon="101.76857">
        <ele>358.83</ele>
      </trkpt>
      <trkpt lat="3.22823" lon="101.76855">
        <ele>358.63</ele>
      </trkpt>
      <trkpt lat="3.22822" lon="101.76845">
        <ele>357.42</ele>
      </trkpt>
      <trkpt lat="3.2282" lon="101.76841">
        <ele>356.58</ele>
      </trkpt>
      <trkpt lat="3.22817" lon="101.76838">
        <ele>355.55</ele>
      </trkpt>
      <trkpt lat="3.22815" lon="101.76833">
        <ele>354.12</ele>
      </trkpt>
      <trkpt lat="3.22815" lon="101.76829">
        <ele>350.96</ele>
      </trkpt>
      <trkpt lat="3.22816" lon="101.76824">
        <ele>347.41</ele>
      </trkpt>
      <trkpt lat="3.22823" lon="101.76809">
        <ele>340.22</ele>
      </trkpt>
      <trkpt lat="3.22823" lon="101.76804">
        <ele>337.24</ele>
      </trkpt>
      <trkpt lat="3.22822" lon="101.76799">
        <ele>334.43</ele>
      </trkpt>
      <trkpt lat="3.22822" lon="101.76797">
        <ele>333.58</ele>
      </trkpt>
      <trkpt lat="3.22823" lon="101.76785">
        <ele>328.84</ele>
      </trkpt>
      <trkpt lat="3.22826" lon="101.76781">
        <ele>328.17</ele>
      </trkpt>
      <trkpt lat="3.22826" lon="101.76781">
        <ele>328.17</ele>
      </trkpt>
      <trkpt lat="3.22828" lon="101.7678">
        <ele>328.4</ele>
      </trkpt>
      <trkpt lat="3.2283" lon="101.76776">
        <ele>328.18</ele>
      </trkpt>
      <trkpt lat="3.2283" lon="101.76771">
        <ele>328.93</ele>
      </trkpt>
      <trkpt lat="3.22829" lon="101.7677">
        <ele>328.76</ele>
      </trkpt>
      <trkpt lat="3.22825" lon="101.7676">
        <ele>329.05</ele>
      </trkpt>
      <trkpt lat="3.22825" lon="101.76756">
        <ele>329.67</ele>
      </trkpt>
      <trkpt lat="3.22825" lon="101.76753">
        <ele>330.14</ele>
      </trkpt>
      <trkpt lat="3.22836" lon="101.76729">
        <ele>346.23</ele>
      </trkpt>
      <trkpt lat="3.22836" lon="101.76729">
        <ele>346.23</ele>
      </trkpt>
      <trkpt lat="3.22845" lon="101.76692">
        <ele>372.81</ele>
      </trkpt>
      <trkpt lat="3.22845" lon="101.76692">
        <ele>372.81</ele>
      </trkpt>
      <trkpt lat="3.22852" lon="101.76655">
        <ele>360.45</ele>
      </trkpt>
      <trkpt lat="3.22852" lon="101.76655">
        <ele>360.45</ele>
      </trkpt>
      <trkpt lat="3.22862" lon="101.76631">
        <ele>354.45</ele>
      </trkpt>
      <trkpt lat="3.22862" lon="101.76631">
        <ele>354.45</ele>
      </trkpt>
      <trkpt lat="3.22866" lon="101.76621">
        <ele>354.16</ele>
      </trkpt>
      <trkpt lat="3.22869" lon="101.76616">
        <ele>353.83</ele>
      </trkpt>
      <trkpt lat="3.22871" lon="101.76611">
        <ele>353.03</ele>
      </trkpt>
      <trkpt lat="3.22872" lon="101.76607">
        <ele>351.64</ele>
      </trkpt>
      <trkpt lat="3.22872" lon="101.76602">
        <ele>349.77</ele>
      </trkpt>
      <trkpt lat="3.22872" lon="101.76597">
        <ele>347.9</ele>
      </trkpt>
      <trkpt lat="3.22874" lon="101.76592">
        <ele>346.19</ele>
      </trkpt>
      <trkpt lat="3.22877" lon="101.76588">
        <ele>344.92</ele>
      </trkpt>
      <trkpt lat="3.2288" lon="101.76585">
        <ele>344.0</ele>
      </trkpt>
      <trkpt lat="3.22877" lon="101.76588">
        <ele>344.92</ele>
      </trkpt>
      <trkpt lat="3.22874" lon="101.76592">
        <ele>346.19</ele>
      </trkpt>
      <trkpt lat="3.22872" lon="101.76597">
        <ele>347.9</ele>
      </trkpt>
      <trkpt lat="3.22872" lon="101.76602">
        <ele>349.77</ele>
      </trkpt>
      <trkpt lat="3.22872" lon="101.76607">
        <ele>351.64</ele>
      </trkpt>
      <trkpt lat="3.22871" lon="101.76611">
        <ele>353.03</ele>
      </trkpt>
      <trkpt lat="3.22869" lon="101.76616">
        <ele>353.83</ele>
      </trkpt>
      <trkpt lat="3.22866" lon="101.76621">
        <ele>354.16</ele>
      </trkpt>
      <trkpt lat="3.22862" lon="101.76631">
        <ele>354.45</ele>
      </trkpt>
      <trkpt lat="3.22862" lon="101.76631">
        <ele>354.45</ele>
      </trkpt>
      <trkpt lat="3.22852" lon="101.76655">
        <ele>360.45</ele>
      </trkpt>
      <trkpt lat="3.22852" lon="101.76655">
        <ele>360.45</ele>
      </trkpt>
      <trkpt lat="3.22845" lon="101.76692">
        <ele>372.81</ele>
      </trkpt>
      <trkpt lat="3.22845" lon="101.76692">
        <ele>372.81</ele>
      </trkpt>
      <trkpt lat="3.22836" lon="101.76729">
        <ele>346.23</ele>
      </trkpt>
      <trkpt lat="3.22836" lon="101.76729">
        <ele>346.23</ele>
      </trkpt>
      <trkpt lat="3.22825" lon="101.76753">
        <ele>330.14</ele>
      </trkpt>
      <trkpt lat="3.22825" lon="101.76756">
        <ele>329.67</ele>
      </trkpt>
      <trkpt lat="3.22825" lon="101.7676">
        <ele>329.05</ele>
      </trkpt>
      <trkpt lat="3.22829" lon="101.7677">
        <ele>328.76</ele>
      </trkpt>
      <trkpt lat="3.2283" lon="101.76771">
        <ele>328.93</ele>
      </trkpt>
      <trkpt lat="3.2283" lon="101.76776">
        <ele>328.18</ele>
      </trkpt>
      <trkpt lat="3.22828" lon="101.7678">
        <ele>328.4</ele>
      </trkpt>
      <trkpt lat="3.22826" lon="101.76781">
        <ele>328.17</ele>
      </trkpt>
      <trkpt lat="3.22826" lon="101.76781">
        <ele>328.17</ele>
      </trkpt>
      <trkpt lat="3.22823" lon="101.76785">
        <ele>328.84</ele>
      </trkpt>
      <trkpt lat="3.22822" lon="101.76797">
        <ele>333.58</ele>
      </trkpt>
      <trkpt lat="3.22822" lon="101.76799">
        <ele>334.43</ele>
      </trkpt>
      <trkpt lat="3.22823" lon="101.76804">
        <ele>337.24</ele>
      </trkpt>
      <trkpt lat="3.22823" lon="101.76809">
        <ele>340.22</ele>
      </trkpt>
      <trkpt lat="3.22816" lon="101.76824">
        <ele>347.41</ele>
      </trkpt>
      <trkpt lat="3.22815" lon="101.76829">
        <ele>350.96</ele>
      </trkpt>
      <trkpt lat="3.22815" lon="101.76833">
        <ele>354.12</ele>
      </trkpt>
      <trkpt lat="3.22817" lon="101.76838">
        <ele>355.55</ele>
      </trkpt>
      <trkpt lat="3.2282" lon="101.76841">
        <ele>356.58</ele>
      </trkpt>
      <trkpt lat="3.22822" lon="101.76845">
        <ele>357.42</ele>
      </trkpt>
      <trkpt lat="3.22823" lon="101.76855">
        <ele>358.63</ele>
      </trkpt>
      <trkpt lat="3.22823" lon="101.76857">
        <ele>358.83</ele>
      </trkpt>
      <trkpt lat="3.22823" lon="101.76861">
        <ele>359.24</ele>
      </trkpt>
      <trkpt lat="3.22821" lon="101.76866">
        <ele>358.08</ele>
      </trkpt>
      <trkpt lat="3.22818" lon="101.7687">
        <ele>357.25</ele>
      </trkpt>
      <trkpt lat="3.22811" lon="101.76887">
        <ele>355.25</ele>
      </trkpt>
      <trkpt lat="3.22811" lon="101.76887">
        <ele>355.25</ele>
      </trkpt>
      <trkpt lat="3.22799" lon="101.76914">
        <ele>352.74</ele>
      </trkpt>
      <trkpt lat="3.22798" lon="101.76918">
        <ele>352.26</ele>
      </trkpt>
      <trkpt lat="3.22797" lon="101.76923">
        <ele>351.04</ele>
      </trkpt>
      <trkpt lat="3.22795" lon="101.76928">
        <ele>349.96</ele>
      </trkpt>
      <trkpt lat="3.22786" lon="101.76945">
        <ele>346.05</ele>
      </trkpt>
      <trkpt lat="3.22786" lon="101.76945">
        <ele>346.05</ele>
      </trkpt>
      <trkpt lat="3.22768" lon="101.76978">
        <ele>344.13</ele>
      </trkpt>
      <trkpt lat="3.22768" lon="101.76979">
        <ele>344.27</ele>
      </trkpt>
      <trkpt lat="3.22765" lon="101.76983">
        <ele>344.63</ele>
      </trkpt>
      <trkpt lat="3.22762" lon="101.76985">
        <ele>344.7</ele>
      </trkpt>
      <trkpt lat="3.22757" lon="101.76986">
        <ele>344.49</ele>
      </trkpt>
      <trkpt lat="3.22753" lon="101.76987">
        <ele>344.34</ele>
      </trkpt>
      <trkpt lat="3.22749" lon="101.76991">
        <ele>344.68</ele>
      </trkpt>
      <trkpt lat="3.22746" lon="101.76995">
        <ele>345.1</ele>
      </trkpt>
      <trkpt lat="3.22745" lon="101.77003">
        <ele>345.88</ele>
      </trkpt>
      <trkpt lat="3.22744" lon="101.77007">
        <ele>346.13</ele>
      </trkpt>
      <trkpt lat="3.22741" lon="101.77012">
        <ele>346.36</ele>
      </trkpt>
      <trkpt lat="3.22739" lon="101.77014">
        <ele>346.42</ele>
      </trkpt>
      <trkpt lat="3.22737" lon="101.77018">
        <ele>346.66</ele>
      </trkpt>
      <trkpt lat="3.22736" lon="101.77023">
        <ele>347.07</ele>
      </trkpt>
      <trkpt lat="3.22736" lon="101.77025">
        <ele>347.25</ele>
      </trkpt>
      <trkpt lat="3.22734" lon="101.77029">
        <ele>346.94</ele>
      </trkpt>
      <trkpt lat="3.22733" lon="101.77032">
        <ele>345.66</ele>
      </trkpt>
      <trkpt lat="3.22732" lon="101.77033">
        <ele>345.14</ele>
      </trkpt>
      <trkpt lat="3.22729" lon="101.77035">
        <ele>343.85</ele>
      </trkpt>
      <trkpt lat="3.22726" lon="101.77037">
        <ele>342.37</ele>
      </trkpt>
      <trkpt lat="3.22726" lon="101.77039">
        <ele>341.33</ele>
      </trkpt>
      <trkpt lat="3.22726" lon="101.77041">
        <ele>340.3</ele>
      </trkpt>
      <trkpt lat="3.22726" lon="101.77041">
        <ele>340.3</ele>
      </trkpt>
      <trkpt lat="3.22718" lon="101.77056">
        <ele>328.51</ele>
      </trkpt>
      <trkpt lat="3.22717" lon="101.77059">
        <ele>327.57</ele>
      </trkpt>
      <trkpt lat="3.22719" lon="101.77064">
        <ele>328.03</ele>
      </trkpt>
      <trkpt lat="3.22718" lon="101.77069">
        <ele>326.85</ele>
      </trkpt>
      <trkpt lat="3.22712" lon="101.7708">
        <ele>322.56</ele>
      </trkpt>
      <trkpt lat="3.22712" lon="101.7708">
        <ele>322.56</ele>
      </trkpt>
      <trkpt lat="3.22711" lon="101.77087">
        <ele>322.41</ele>
      </trkpt>
      <trkpt lat="3.22714" lon="101.77088">
        <ele>323.82</ele>
      </trkpt>
      <trkpt lat="3.22716" lon="101.77088">
        <ele>324.63</ele>
      </trkpt>
      <trkpt lat="3.22718" lon="101.77087">
        <ele>325.36</ele>
      </trkpt>
      <trkpt lat="3.22722" lon="101.77088">
        <ele>327.08</ele>
      </trkpt>
      <trkpt lat="3.22725" lon="101.77086">
        <ele>327.9</ele>
      </trkpt>
      <trkpt lat="3.22728" lon="101.77084">
        <ele>328.85</ele>
      </trkpt>
      <trkpt lat="3.22735" lon="101.77079">
        <ele>332.05</ele>
      </trkpt>
      <trkpt lat="3.22736" lon="101.77077">
        <ele>332.83</ele>
      </trkpt>
      <trkpt lat="3.2274" lon="101.77074">
        <ele>334.96</ele>
      </trkpt>
      <trkpt lat="3.22742" lon="101.77071">
        <ele>336.45</ele>
      </trkpt>
      <trkpt lat="3.22751" lon="101.77062">
        <ele>342.04</ele>
      </trkpt>
      <trkpt lat="3.22753" lon="101.77061">
        <ele>342.13</ele>
      </trkpt>
      <trkpt lat="3.22756" lon="101.77059">
        <ele>342.39</ele>
      </trkpt>
      <trkpt lat="3.22757" lon="101.77058">
        <ele>342.56</ele>
      </trkpt>
      <trkpt lat="3.22759" lon="101.77058">
        <ele>342.35</ele>
      </trkpt>
      <trkpt lat="3.22762" lon="101.77056">
        <ele>342.58</ele>
      </trkpt>
      <trkpt lat="3.22766" lon="101.77053">
        <ele>342.85</ele>
      </trkpt>
      <trkpt lat="3.22772" lon="101.77051">
        <ele>342.8</ele>
      </trkpt>
      <trkpt lat="3.22775" lon="101.77051">
        <ele>342.55</ele>
      </trkpt>
      <trkpt lat="3.22779" lon="101.7705">
        <ele>342.41</ele>
      </trkpt>
      <trkpt lat="3.22794" lon="101.7705">
        <ele>340.03</ele>
      </trkpt>
      <trkpt lat="3.22796" lon="101.77049">
        <ele>339.95</ele>
      </trkpt>
      <trkpt lat="3.22799" lon="101.77049">
        <ele>339.47</ele>
      </trkpt>
      <trkpt lat="3.22803" lon="101.77047">
        <ele>339.27</ele>
      </trkpt>
      <trkpt lat="3.22808" lon="101.77046">
        <ele>338.89</ele>
      </trkpt>
      <trkpt lat="3.22815" lon="101.77046">
        <ele>338.41</ele>
      </trkpt>
      <trkpt lat="3.22822" lon="101.77047">
        <ele>337.57</ele>
      </trkpt>
      <trkpt lat="3.22824" lon="101.77048">
        <ele>337.06</ele>
      </trkpt>
      <trkpt lat="3.22828" lon="101.77048">
        <ele>336.72</ele>
      </trkpt>
      <trkpt lat="3.22832" lon="101.77051">
        <ele>335.11</ele>
      </trkpt>
      <trkpt lat="3.22834" lon="101.77051">
        <ele>334.89</ele>
      </trkpt>
      <trkpt lat="3.22836" lon="101.77053">
        <ele>333.84</ele>
      </trkpt>
      <trkpt lat="3.2284" lon="101.77056">
        <ele>332.31</ele>
      </trkpt>
      <trkpt lat="3.22843" lon="101.77058">
        <ele>331.13</ele>
      </trkpt>
      <trkpt lat="3.22845" lon="101.7706">
        <ele>330.01</ele>
      </trkpt>
      <trkpt lat="3.22847" lon="101.7706">
        <ele>329.86</ele>
      </trkpt>
      <trkpt lat="3.22852" lon="101.77062">
        <ele>328.48</ele>
      </trkpt>
      <trkpt lat="3.22855" lon="101.77062">
        <ele>328.24</ele>
      </trkpt>
      <trkpt lat="3.22861" lon="101.7706">
        <ele>328.77</ele>
      </trkpt>
      <trkpt lat="3.22865" lon="101.7706">
        <ele>327.43</ele>
      </trkpt>
      <trkpt lat="3.2287" lon="101.77058">
        <ele>326.65</ele>
      </trkpt>
      <trkpt lat="3.22876" lon="101.77058">
        <ele>324.55</ele>
      </trkpt>
      <trkpt lat="3.2288" lon="101.77058">
        <ele>323.15</ele>
      </trkpt>
      <trkpt lat="3.22883" lon="101.77058">
        <ele>322.1</ele>
      </trkpt>
      <trkpt lat="3.22885" lon="101.77058">
        <ele>321.4</ele>
      </trkpt>
      <trkpt lat="3.22887" lon="101.77056">
        <ele>321.5</ele>
      </trkpt>
      <trkpt lat="3.22891" lon="101.77053">
        <ele>320.86</ele>
      </trkpt>
      <trkpt lat="3.22896" lon="101.77051">
        <ele>318.89</ele>
      </trkpt>
      <trkpt lat="3.22901" lon="101.77047">
        <ele>317.07</ele>
      </trkpt>
      <trkpt lat="3.22901" lon="101.77047">
        <ele>317.07</ele>
      </trkpt>
      <trkpt lat="3.22908" lon="101.77048">
        <ele>312.9</ele>
      </trkpt>
      <trkpt lat="3.2291" lon="101.77048">
        <ele>311.77</ele>
      </trkpt>
      <trkpt lat="3.22924" lon="101.77047">
        <ele>303.82</ele>
      </trkpt>
      <trkpt lat="3.22926" lon="101.77047">
        <ele>302.68</ele>
      </trkpt>
      <trkpt lat="3.22929" lon="101.7705">
        <ele>301.25</ele>
      </trkpt>
      <trkpt lat="3.22929" lon="101.7705">
        <ele>301.25</ele>
      </trkpt>
      <trkpt lat="3.22932" lon="101.77054">
        <ele>300.09</ele>
      </trkpt>
      <trkpt lat="3.22933" lon="101.77059">
        <ele>298.3</ele>
      </trkpt>
      <trkpt lat="3.22929" lon="101.77066">
        <ele>297.23</ele>
      </trkpt>
      <trkpt lat="3.22926" lon="101.77071">
        <ele>296.44</ele>
      </trkpt>
      <trkpt lat="3.22921" lon="101.77074">
        <ele>297.39</ele>
      </trkpt>
      <trkpt lat="3.22915" lon="101.77075">
        <ele>299.76</ele>
      </trkpt>
      <trkpt lat="3.22909" lon="101.77077">
        <ele>301.98</ele>
      </trkpt>
      <trkpt lat="3.22903" lon="101.77078">
        <ele>304.69</ele>
      </trkpt>
      <trkpt lat="3.22897" lon="101.7708">
        <ele>307.01</ele>
      </trkpt>
      <trkpt lat="3.22891" lon="101.77081">
        <ele>309.8</ele>
      </trkpt>
      <trkpt lat="3.22886" lon="101.77083">
        <ele>310.86</ele>
      </trkpt>
      <trkpt lat="3.2288" lon="101.77084">
        <ele>311.91</ele>
      </trkpt>
      <trkpt lat="3.22875" lon="101.77089">
        <ele>310.44</ele>
      </trkpt>
      <trkpt lat="3.22871" lon="101.7709">
        <ele>310.63</ele>
      </trkpt>
      <trkpt lat="3.22869" lon="101.77091">
        <ele>310.4</ele>
      </trkpt>
      <trkpt lat="3.22867" lon="101.77093">
        <ele>309.49</ele>
      </trkpt>
      <trkpt lat="3.22865" lon="101.77094">
        <ele>309.15</ele>
      </trkpt>
      <trkpt lat="3.22864" lon="101.77095">
        <ele>308.64</ele>
      </trkpt>
      <trkpt lat="3.2286" lon="101.77097">
        <ele>307.93</ele>
      </trkpt>
      <trkpt lat="3.2285" lon="101.77097">
        <ele>310.43</ele>
      </trkpt>
      <trkpt lat="3.22842" lon="101.77095">
        <ele>313.4</ele>
      </trkpt>
      <trkpt lat="3.22834" lon="101.77095">
        <ele>315.23</ele>
      </trkpt>
      <trkpt lat="3.22831" lon="101.77096">
        <ele>315.3</ele>
      </trkpt>
      <trkpt lat="3.22828" lon="101.77099">
        <ele>314.38</ele>
      </trkpt>
      <trkpt lat="3.22825" lon="101.77104">
        <ele>312.35</ele>
      </trkpt>
      <trkpt lat="3.22824" lon="101.77113">
        <ele>308.39</ele>
      </trkpt>
      <trkpt lat="3.22822" lon="101.77119">
        <ele>306.7</ele>
      </trkpt>
      <trkpt lat="3.22822" lon="101.77123">
        <ele>305.53</ele>
      </trkpt>
      <trkpt lat="3.22821" lon="101.77129">
        <ele>304.06</ele>
      </trkpt>
      <trkpt lat="3.22819" lon="101.77132">
        <ele>303.88</ele>
      </trkpt>
      <trkpt lat="3.22818" lon="101.77138">
        <ele>302.83</ele>
      </trkpt>
      <trkpt lat="3.22818" lon="101.77146">
        <ele>297.26</ele>
      </trkpt>
      <trkpt lat="3.22818" lon="101.77147">
        <ele>296.5</ele>
      </trkpt>
      <trkpt lat="3.22816" lon="101.77154">
        <ele>291.73</ele>
      </trkpt>
      <trkpt lat="3.22813" lon="101.77161">
        <ele>286.8</ele>
      </trkpt>
      <trkpt lat="3.22812" lon="101.77163">
        <ele>285.33</ele>
      </trkpt>
      <trkpt lat="3.22799" lon="101.77176">
        <ele>280.28</ele>
      </trkpt>
      <trkpt lat="3.22797" lon="101.77178">
        <ele>279.78</ele>
      </trkpt>
      <trkpt lat="3.22795" lon="101.7718">
        <ele>279.25</ele>
      </trkpt>
      <trkpt lat="3.22792" lon="101.77183">
        <ele>278.4</ele>
      </trkpt>
      <trkpt lat="3.22787" lon="101.77187">
        <ele>277.36</ele>
      </trkpt>
      <trkpt lat="3.22781" lon="101.77194">
        <ele>274.67</ele>
      </trkpt>
      <trkpt lat="3.22773" lon="101.77201">
        <ele>274.79</ele>
      </trkpt>
      <trkpt lat="3.22769" lon="101.77203">
        <ele>275.95</ele>
      </trkpt>
      <trkpt lat="3.22765" lon="101.77206">
        <ele>277.12</ele>
      </trkpt>
      <trkpt lat="3.22761" lon="101.77208">
        <ele>278.7</ele>
      </trkpt>
      <trkpt lat="3.22757" lon="101.77211">
        <ele>280.38</ele>
      </trkpt>
      <trkpt lat="3.22754" lon="101.77213">
        <ele>281.84</ele>
      </trkpt>
      <trkpt lat="3.22752" lon="101.77215">
        <ele>282.87</ele>
      </trkpt>
      <trkpt lat="3.2275" lon="101.77219">
        <ele>284.0</ele>
      </trkpt>
      <trkpt lat="3.2275" lon="101.77222">
        <ele>284.0</ele>
      </trkpt>
      <trkpt lat="3.22748" lon="101.77227">
        <ele>282.97</ele>
      </trkpt>
      <trkpt lat="3.22742" lon="101.77236">
        <ele>281.69</ele>
      </trkpt>
      <trkpt lat="3.2274" lon="101.77239">
        <ele>281.3</ele>
      </trkpt>
      <trkpt lat="3.22738" lon="101.77244">
        <ele>280.31</ele>
      </trkpt>
      <trkpt lat="3.22732" lon="101.77252">
        <ele>279.34</ele>
      </trkpt>
      <trkpt lat="3.2273" lon="101.77257">
        <ele>277.89</ele>
      </trkpt>
      <trkpt lat="3.22727" lon="101.77261">
        <ele>277.32</ele>
      </trkpt>
      <trkpt lat="3.22724" lon="101.77263">
        <ele>277.66</ele>
      </trkpt>
      <trkpt lat="3.22721" lon="101.77266">
        <ele>277.39</ele>
      </trkpt>
      <trkpt lat="3.2272" lon="101.7727">
        <ele>276.15</ele>
      </trkpt>
      <trkpt lat="3.2272" lon="101.77272">
        <ele>275.46</ele>
      </trkpt>
      <trkpt lat="3.2272" lon="101.77277">
        <ele>273.75</ele>
      </trkpt>
      <trkpt lat="3.22721" lon="101.77281">
        <ele>272.16</ele>
      </trkpt>
      <trkpt lat="3.22721" lon="101.77284">
        <ele>271.13</ele>
      </trkpt>
      <trkpt lat="3.22721" lon="101.77286">
        <ele>270.45</ele>
      </trkpt>
      <trkpt lat="3.22721" lon="101.77289">
        <ele>269.42</ele>
      </trkpt>
      <trkpt lat="3.22721" lon="101.77293">
        <ele>268.05</ele>
      </trkpt>
      <trkpt lat="3.2272" lon="101.77298">
        <ele>266.84</ele>
      </trkpt>
      <trkpt lat="3.22719" lon="101.77302">
        <ele>266.09</ele>
      </trkpt>
      <trkpt lat="3.22719" lon="101.77305">
        <ele>265.15</ele>
      </trkpt>
      <trkpt lat="3.22718" lon="101.7731">
        <ele>263.43</ele>
      </trkpt>
      <trkpt lat="3.22718" lon="101.77315">
        <ele>261.01</ele>
      </trkpt>
      <trkpt lat="3.22714" lon="101.77322">
        <ele>259.81</ele>
      </trkpt>
      <trkpt lat="3.22706" lon="101.77329">
        <ele>260.48</ele>
      </trkpt>
      <trkpt lat="3.22704" lon="101.77333">
        <ele>259.36</ele>
      </trkpt>
      <trkpt lat="3.227" lon="101.77337">
        <ele>258.61</ele>
      </trkpt>
      <trkpt lat="3.22693" lon="101.7735">
        <ele>252.08</ele>
      </trkpt>
      <trkpt lat="3.2269" lon="101.7736">
        <ele>245.4</ele>
      </trkpt>
      <trkpt lat="3.22689" lon="101.77364">
        <ele>242.93</ele>
      </trkpt>
      <trkpt lat="3.22688" lon="101.77368">
        <ele>240.52</ele>
      </trkpt>
      <trkpt lat="3.22687" lon="101.7737">
        <ele>239.4</ele>
      </trkpt>
      <trkpt lat="3.22686" lon="101.77372">
        <ele>238.28</ele>
      </trkpt>
      <trkpt lat="3.22686" lon="101.77375">
        <ele>236.37</ele>
      </trkpt>
      <trkpt lat="3.22685" lon="101.77379">
        <ele>233.99</ele>
      </trkpt>
      <trkpt lat="3.22681" lon="101.77388">
        <ele>228.98</ele>
      </trkpt>
      <trkpt lat="3.22678" lon="101.77393">
        <ele>227.34</ele>
      </trkpt>
      <trkpt lat="3.22673" lon="101.774">
        <ele>225.12</ele>
      </trkpt>
      <trkpt lat="3.22671" lon="101.77405">
        <ele>223.13</ele>
      </trkpt>
      <trkpt lat="3.2267" lon="101.77408">
        <ele>221.87</ele>
      </trkpt>
      <trkpt lat="3.22669" lon="101.77409">
        <ele>221.47</ele>
      </trkpt>
      <trkpt lat="3.22668" lon="101.77412">
        <ele>220.14</ele>
      </trkpt>
      <trkpt lat="3.22666" lon="101.77416">
        <ele>218.48</ele>
      </trkpt>
      <trkpt lat="3.22664" lon="101.77422">
        <ele>218.15</ele>
      </trkpt>
      <trkpt lat="3.22661" lon="101.77427">
        <ele>218.54</ele>
      </trkpt>
      <trkpt lat="3.22657" lon="101.77432">
        <ele>219.36</ele>
      </trkpt>
      <trkpt lat="3.22646" lon="101.77441">
        <ele>222.54</ele>
      </trkpt>
      <trkpt lat="3.22642" lon="101.77445">
        <ele>223.91</ele>
      </trkpt>
      <trkpt lat="3.22634" lon="101.77453">
        <ele>227.74</ele>
      </trkpt>
      <trkpt lat="3.22626" lon="101.77459">
        <ele>231.35</ele>
      </trkpt>
      <trkpt lat="3.2262" lon="101.77466">
        <ele>233.81</ele>
      </trkpt>
      <trkpt lat="3.22616" lon="101.77472">
        <ele>235.24</ele>
      </trkpt>
      <trkpt lat="3.2261" lon="101.77479">
        <ele>236.09</ele>
      </trkpt>
      <trkpt lat="3.22608" lon="101.77482">
        <ele>236.14</ele>
      </trkpt>
      <trkpt lat="3.22599" lon="101.77491">
        <ele>237.56</ele>
      </trkpt>
      <trkpt lat="3.22593" lon="101.77501">
        <ele>238.26</ele>
      </trkpt>
      <trkpt lat="3.2259" lon="101.77505">
        <ele>238.3</ele>
      </trkpt>
      <trkpt lat="3.22587" lon="101.77509">
        <ele>238.37</ele>
      </trkpt>
      <trkpt lat="3.22585" lon="101.77512">
        <ele>238.35</ele>
      </trkpt>
      <trkpt lat="3.22584" lon="101.77513">
        <ele>238.47</ele>
      </trkpt>
      <trkpt lat="3.2258" lon="101.77517">
        <ele>237.33</ele>
      </trkpt>
      <trkpt lat="3.22575" lon="101.77523">
        <ele>235.11</ele>
      </trkpt>
      <trkpt lat="3.22571" lon="101.77527">
        <ele>233.44</ele>
      </trkpt>
      <trkpt lat="3.22567" lon="101.7753">
        <ele>231.81</ele>
      </trkpt>
      <trkpt lat="3.22563" lon="101.77537">
        <ele>228.88</ele>
      </trkpt>
      <trkpt lat="3.22553" lon="101.7756">
        <ele>222.11</ele>
      </trkpt>
      <trkpt lat="3.22548" lon="101.77566">
        <ele>220.85</ele>
      </trkpt>
      <trkpt lat="3.22544" lon="101.77573">
        <ele>219.44</ele>
      </trkpt>
      <trkpt lat="3.22542" lon="101.77575">
        <ele>219.01</ele>
      </trkpt>
      <trkpt lat="3.22539" lon="101.7758">
        <ele>218.0</ele>
      </trkpt>
      <trkpt lat="3.22538" lon="101.77582">
        <ele>217.61</ele>
      </trkpt>
      <trkpt lat="3.22534" lon="101.77587">
        <ele>216.36</ele>
      </trkpt>
      <trkpt lat="3.22531" lon="101.77591">
        <ele>215.25</ele>
      </trkpt>
      <trkpt lat="3.22529" lon="101.77593">
        <ele>214.64</ele>
      </trkpt>
      <trkpt lat="3.22527" lon="101.77595">
        <ele>213.81</ele>
      </trkpt>
      <trkpt lat="3.22523" lon="101.77597">
        <ele>212.01</ele>
      </trkpt>
      <trkpt lat="3.22519" lon="101.77598">
        <ele>210.46</ele>
      </trkpt>
      <trkpt lat="3.22517" lon="101.77598">
        <ele>209.81</ele>
      </trkpt>
      <trkpt lat="3.22515" lon="101.77597">
        <ele>209.42</ele>
      </trkpt>
      <trkpt lat="3.22515" lon="101.77595">
        <ele>209.92</ele>
      </trkpt>
      <trkpt lat="3.22513" lon="101.77589">
        <ele>210.78</ele>
      </trkpt>
      <trkpt lat="3.22511" lon="101.77583">
        <ele>211.66</ele>
      </trkpt>
      <trkpt lat="3.22508" lon="101.77578">
        <ele>212.24</ele>
      </trkpt>
      <trkpt lat="3.22506" lon="101.77574">
        <ele>212.94</ele>
      </trkpt>
      <trkpt lat="3.22503" lon="101.77569">
        <ele>213.85</ele>
      </trkpt>
      <trkpt lat="3.22501" lon="101.77561">
        <ele>216.22</ele>
      </trkpt>
      <trkpt lat="3.22501" lon="101.77556">
        <ele>217.99</ele>
      </trkpt>
      <trkpt lat="3.22501" lon="101.77553">
        <ele>219.03</ele>
      </trkpt>
      <trkpt lat="3.225" lon="101.77548">
        <ele>220.72</ele>
      </trkpt>
      <trkpt lat="3.225" lon="101.77538">
        <ele>224.32</ele>
      </trkpt>
      <trkpt lat="3.22501" lon="101.77535">
        <ele>225.28</ele>
      </trkpt>
      <trkpt lat="3.225" lon="101.77533">
        <ele>226.12</ele>
      </trkpt>
      <trkpt lat="3.225" lon="101.77533">
        <ele>226.12</ele>
      </trkpt>
      <trkpt lat="3.22501" lon="101.7753">
        <ele>227.01</ele>
      </trkpt>
      <trkpt lat="3.22501" lon="101.77525">
        <ele>228.52</ele>
      </trkpt>
      <trkpt lat="3.22501" lon="101.77522">
        <ele>229.31</ele>
      </trkpt>
      <trkpt lat="3.22501" lon="101.77514">
        <ele>231.42</ele>
      </trkpt>
      <trkpt lat="3.22497" lon="101.77507">
        <ele>231.43</ele>
      </trkpt>
      <trkpt lat="3.22493" lon="101.77497">
        <ele>230.95</ele>
      </trkpt>
      <trkpt lat="3.22487" lon="101.77487">
        <ele>227.66</ele>
      </trkpt>
      <trkpt lat="3.2248" lon="101.77476">
        <ele>221.87</ele>
      </trkpt>
      <trkpt lat="3.22477" lon="101.7747">
        <ele>219.75</ele>
      </trkpt>
      <trkpt lat="3.22476" lon="101.77465">
        <ele>220.91</ele>
      </trkpt>
      <trkpt lat="3.22474" lon="101.7746">
        <ele>221.29</ele>
      </trkpt>
      <trkpt lat="3.22473" lon="101.77455">
        <ele>222.71</ele>
      </trkpt>
      <trkpt lat="3.22472" lon="101.77452">
        <ele>223.35</ele>
      </trkpt>
      <trkpt lat="3.22472" lon="101.77449">
        <ele>224.75</ele>
      </trkpt>
      <trkpt lat="3.22471" lon="101.77448">
        <ele>224.69</ele>
      </trkpt>
      <trkpt lat="3.22469" lon="101.77445">
        <ele>225.0</ele>
      </trkpt>
      <trkpt lat="3.22467" lon="101.77442">
        <ele>225.37</ele>
      </trkpt>
      <trkpt lat="3.22464" lon="101.77438">
        <ele>225.78</ele>
      </trkpt>
      <trkpt lat="3.22459" lon="101.77434">
        <ele>225.28</ele>
      </trkpt>
      <trkpt lat="3.22458" lon="101.7743">
        <ele>226.88</ele>
      </trkpt>
      <trkpt lat="3.22458" lon="101.77429">
        <ele>227.4</ele>
      </trkpt>
      <trkpt lat="3.22459" lon="101.77429">
        <ele>227.88</ele>
      </trkpt>
      <trkpt lat="3.22459" lon="101.77428">
        <ele>228.4</ele>
      </trkpt>
      <trkpt lat="3.22459" lon="101.77427">
        <ele>228.92</ele>
      </trkpt>
      <trkpt lat="3.22458" lon="101.77427">
        <ele>228.45</ele>
      </trkpt>
      <trkpt lat="3.2246" lon="101.77422">
        <ele>231.97</ele>
      </trkpt>
      <trkpt lat="3.2246" lon="101.77409">
        <ele>237.36</ele>
      </trkpt>
      <trkpt lat="3.22461" lon="101.77404">
        <ele>239.53</ele>
      </trkpt>
      <trkpt lat="3.2246" lon="101.774">
        <ele>240.46</ele>
      </trkpt>
      <trkpt lat="3.22461" lon="101.77398">
        <ele>241.6</ele>
      </trkpt>
      <trkpt lat="3.2246" lon="101.77395">
        <ele>242.18</ele>
      </trkpt>
      <trkpt lat="3.2246" lon="101.77387">
        <ele>244.93</ele>
      </trkpt>
      <trkpt lat="3.22461" lon="101.77384">
        <ele>246.44</ele>
      </trkpt>
      <trkpt lat="3.22462" lon="101.77375">
        <ele>250.03</ele>
      </trkpt>
      <trkpt lat="3.22463" lon="101.77369">
        <ele>252.61</ele>
      </trkpt>
      <trkpt lat="3.22465" lon="101.77361">
        <ele>256.36</ele>
      </trkpt>
      <trkpt lat="3.22466" lon="101.77354">
        <ele>256.5</ele>
      </trkpt>
      <trkpt lat="3.22467" lon="101.77347">
        <ele>256.51</ele>
      </trkpt>
      <trkpt lat="3.22467" lon="101.77331">
        <ele>255.69</ele>
      </trkpt>
      <trkpt lat="3.22468" lon="101.77327">
        <ele>255.99</ele>
      </trkpt>
      <trkpt lat="3.22468" lon="101.77324">
        <ele>256.02</ele>
      </trkpt>
      <trkpt lat="3.22468" lon="101.77323">
        <ele>256.03</ele>
      </trkpt>
      <trkpt lat="3.22468" lon="101.77319">
        <ele>256.06</ele>
      </trkpt>
      <trkpt lat="3.22468" lon="101.77312">
        <ele>256.12</ele>
      </trkpt>
      <trkpt lat="3.22469" lon="101.77308">
        <ele>256.57</ele>
      </trkpt>
      <trkpt lat="3.2247" lon="101.77303">
        <ele>256.66</ele>
      </trkpt>
      <trkpt lat="3.22469" lon="101.77303">
        <ele>256.23</ele>
      </trkpt>
      <trkpt lat="3.22469" lon="101.7729">
        <ele>254.3</ele>
      </trkpt>
      <trkpt lat="3.2247" lon="101.77282">
        <ele>253.58</ele>
      </trkpt>
      <trkpt lat="3.22471" lon="101.77277">
        <ele>253.53</ele>
      </trkpt>
      <trkpt lat="3.22471" lon="101.77271">
        <ele>254.31</ele>
      </trkpt>
      <trkpt lat="3.2247" lon="101.77264">
        <ele>254.59</ele>
      </trkpt>
      <trkpt lat="3.22469" lon="101.77256">
        <ele>254.81</ele>
      </trkpt>
      <trkpt lat="3.22466" lon="101.77248">
        <ele>252.86</ele>
      </trkpt>
      <trkpt lat="3.22466" lon="101.77246">
        <ele>252.64</ele>
      </trkpt>
      <trkpt lat="3.22465" lon="101.77242">
        <ele>251.42</ele>
      </trkpt>
      <trkpt lat="3.22465" lon="101.77239">
        <ele>251.09</ele>
      </trkpt>
      <trkpt lat="3.22464" lon="101.77236">
        <ele>249.98</ele>
      </trkpt>
      <trkpt lat="3.22464" lon="101.77233">
        <ele>249.65</ele>
      </trkpt>
      <trkpt lat="3.22463" lon="101.7723">
        <ele>248.54</ele>
      </trkpt>
      <trkpt lat="3.22463" lon="101.77224">
        <ele>247.89</ele>
      </trkpt>
      <trkpt lat="3.22464" lon="101.77219">
        <ele>248.15</ele>
      </trkpt>
      <trkpt lat="3.22467" lon="101.77213">
        <ele>250.01</ele>
      </trkpt>
      <trkpt lat="3.22472" lon="101.77206">
        <ele>253.64</ele>
      </trkpt>
      <trkpt lat="3.22475" lon="101.77203">
        <ele>255.16</ele>
      </trkpt>
      <trkpt lat="3.22479" lon="101.772">
        <ele>257.3</ele>
      </trkpt>
      <trkpt lat="3.22481" lon="101.77197">
        <ele>258.41</ele>
      </trkpt>
      <trkpt lat="3.22483" lon="101.77194">
        <ele>259.48</ele>
      </trkpt>
      <trkpt lat="3.22484" lon="101.77192">
        <ele>259.58</ele>
      </trkpt>
      <trkpt lat="3.22486" lon="101.77188">
        <ele>259.81</ele>
      </trkpt>
      <trkpt lat="3.22489" lon="101.77182">
        <ele>260.23</ele>
      </trkpt>
      <trkpt lat="3.22489" lon="101.77173">
        <ele>258.02</ele>
      </trkpt>
      <trkpt lat="3.2249" lon="101.77169">
        <ele>257.72</ele>
      </trkpt>
      <trkpt lat="3.22494" lon="101.77159">
        <ele>260.27</ele>
      </trkpt>
      <trkpt lat="3.22497" lon="101.77153">
        <ele>262.77</ele>
      </trkpt>
      <trkpt lat="3.22498" lon="101.77151">
        <ele>263.64</ele>
      </trkpt>
      <trkpt lat="3.22498" lon="101.77146">
        <ele>263.96</ele>
      </trkpt>
      <trkpt lat="3.22496" lon="101.77133">
        <ele>261.99</ele>
      </trkpt>
      <trkpt lat="3.22493" lon="101.77125">
        <ele>258.84</ele>
      </trkpt>
      <trkpt lat="3.2249" lon="101.77119">
        <ele>256.3</ele>
      </trkpt>
      <trkpt lat="3.22484" lon="101.77111">
        <ele>252.34</ele>
      </trkpt>
      <trkpt lat="3.22483" lon="101.77111">
        <ele>251.81</ele>
      </trkpt>
      <trkpt lat="3.22475" lon="101.771">
        <ele>246.82</ele>
      </trkpt>
      <trkpt lat="3.22467" lon="101.77096">
        <ele>243.73</ele>
      </trkpt>
      <trkpt lat="3.22456" lon="101.77088">
        <ele>240.98</ele>
      </trkpt>
      <trkpt lat="3.2245" lon="101.77084">
        <ele>240.09</ele>
      </trkpt>
      <trkpt lat="3.22449" lon="101.77083">
        <ele>239.98</ele>
      </trkpt>
      <trkpt lat="3.22443" lon="101.77078">
        <ele>238.47</ele>
      </trkpt>
      <trkpt lat="3.22432" lon="101.77069">
        <ele>235.0</ele>
      </trkpt>
      <trkpt lat="3.22425" lon="101.77064">
        <ele>233.25</ele>
      </trkpt>
      <trkpt lat="3.22419" lon="101.7706">
        <ele>232.0</ele>
      </trkpt>
      <trkpt lat="3.22416" lon="101.77058">
        <ele>231.35</ele>
      </trkpt>
      <trkpt lat="3.22414" lon="101.77056">
        <ele>230.78</ele>
      </trkpt>
      <trkpt lat="3.22411" lon="101.77054">
        <ele>229.55</ele>
      </trkpt>
      <trkpt lat="3.22408" lon="101.77051">
        <ele>228.35</ele>
      </trkpt>
      <trkpt lat="3.22403" lon="101.77047">
        <ele>226.55</ele>
      </trkpt>
      <trkpt lat="3.22394" lon="101.77043">
        <ele>223.6</ele>
      </trkpt>
      <trkpt lat="3.22391" lon="101.77041">
        <ele>222.81</ele>
      </trkpt>
      <trkpt lat="3.2239" lon="101.77039">
        <ele>222.74</ele>
      </trkpt>
      <trkpt lat="3.22388" lon="101.77034">
        <ele>222.77</ele>
      </trkpt>
      <trkpt lat="3.22389" lon="101.7703">
        <ele>223.71</ele>
      </trkpt>
      <trkpt lat="3.22392" lon="101.77023">
        <ele>224.98</ele>
      </trkpt>
      <trkpt lat="3.22393" lon="101.7702">
        <ele>225.36</ele>
      </trkpt>
      <trkpt lat="3.22395" lon="101.77015">
        <ele>226.1</ele>
      </trkpt>
      <trkpt lat="3.22397" lon="101.77012">
        <ele>226.78</ele>
      </trkpt>
      <trkpt lat="3.22399" lon="101.77007">
        <ele>227.57</ele>
      </trkpt>
      <trkpt lat="3.22404" lon="101.76999">
        <ele>229.2</ele>
      </trkpt>
      <trkpt lat="3.22405" lon="101.76997">
        <ele>229.23</ele>
      </trkpt>
      <trkpt lat="3.22411" lon="101.76994">
        <ele>230.97</ele>
      </trkpt>
      <trkpt lat="3.22416" lon="101.76992">
        <ele>232.75</ele>
      </trkpt>
      <trkpt lat="3.22423" lon="101.76991">
        <ele>234.92</ele>
      </trkpt>
      <trkpt lat="3.22429" lon="101.76989">
        <ele>236.39</ele>
      </trkpt>
      <trkpt lat="3.22436" lon="101.76988">
        <ele>238.04</ele>
      </trkpt>
      <trkpt lat="3.22438" lon="101.76985">
        <ele>237.65</ele>
      </trkpt>
      <trkpt lat="3.22439" lon="101.76983">
        <ele>237.24</ele>
      </trkpt>
      <trkpt lat="3.2244" lon="101.76972">
        <ele>233.78</ele>
      </trkpt>
      <trkpt lat="3.2244" lon="101.76959">
        <ele>230.37</ele>
      </trkpt>
      <trkpt lat="3.22438" lon="101.76949">
        <ele>227.2</ele>
      </trkpt>
      <trkpt lat="3.22433" lon="101.76939">
        <ele>221.89</ele>
      </trkpt>
      <trkpt lat="3.2243" lon="101.76935">
        <ele>219.05</ele>
      </trkpt>
      <trkpt lat="3.22429" lon="101.76933">
        <ele>217.78</ele>
      </trkpt>
      <trkpt lat="3.22424" lon="101.76933">
        <ele>215.93</ele>
      </trkpt>
      <trkpt lat="3.22419" lon="101.76932">
        <ele>213.6</ele>
      </trkpt>
      <trkpt lat="3.22414" lon="101.76931">
        <ele>211.21</ele>
      </trkpt>
      <trkpt lat="3.22409" lon="101.76931">
        <ele>209.3</ele>
      </trkpt>
      <trkpt lat="3.22402" lon="101.7693">
        <ele>206.23</ele>
      </trkpt>
      <trkpt lat="3.2239" lon="101.76925">
        <ele>200.08</ele>
      </trkpt>
      <trkpt lat="3.22359" lon="101.76908">
        <ele>189.4</ele>
      </trkpt>
      <trkpt lat="3.22351" lon="101.76905">
        <ele>187.37</ele>
      </trkpt>
      <trkpt lat="3.22347" lon="101.76903">
        <ele>186.49</ele>
      </trkpt>
      <trkpt lat="3.22342" lon="101.769">
        <ele>185.6</ele>
      </trkpt>
      <trkpt lat="3.22338" lon="101.76896">
        <ele>185.09</ele>
      </trkpt>
      <trkpt lat="3.22335" lon="101.76894">
        <ele>184.9</ele>
      </trkpt>
      <trkpt lat="3.22333" lon="101.76893">
        <ele>184.68</ele>
      </trkpt>
      <trkpt lat="3.2233" lon="101.76891">
        <ele>183.24</ele>
      </trkpt>
      <trkpt lat="3.22328" lon="101.7689">
        <ele>182.27</ele>
      </trkpt>
      <trkpt lat="3.22324" lon="101.7689">
        <ele>180.26</ele>
      </trkpt>
      <trkpt lat="3.22313" lon="101.76893">
        <ele>174.6</ele>
      </trkpt>
      <trkpt lat="3.22305" lon="101.76893">
        <ele>170.62</ele>
      </trkpt>
      <trkpt lat="3.223" lon="101.76892">
        <ele>168.47</ele>
      </trkpt>
      <trkpt lat="3.22295" lon="101.76889">
        <ele>166.07</ele>
      </trkpt>
      <trkpt lat="3.22288" lon="101.76888">
        <ele>162.92</ele>
      </trkpt>
      <trkpt lat="3.2228" lon="101.76885">
        <ele>159.72</ele>
      </trkpt>
      <trkpt lat="3.22277" lon="101.76885">
        <ele>158.6</ele>
      </trkpt>
      <trkpt lat="3.2227" lon="101.76882">
        <ele>158.19</ele>
      </trkpt>
      <trkpt lat="3.22264" lon="101.76881">
        <ele>157.51</ele>
      </trkpt>
      <trkpt lat="3.22258" lon="101.76878">
        <ele>156.99</ele>
      </trkpt>
      <trkpt lat="3.22253" lon="101.76877">
        <ele>156.32</ele>
      </trkpt>
      <trkpt lat="3.2225" lon="101.76876">
        <ele>155.93</ele>
      </trkpt>
      <trkpt lat="3.22248" lon="101.76876">
        <ele>156.08</ele>
      </trkpt>
      <trkpt lat="3.22246" lon="101.76875">
        <ele>156.29</ele>
      </trkpt>
      <trkpt lat="3.22243" lon="101.76874">
        <ele>156.56</ele>
      </trkpt>
      <trkpt lat="3.22239" lon="101.76873">
        <ele>156.88</ele>
      </trkpt>
      <trkpt lat="3.22231" lon="101.76871">
        <ele>157.46</ele>
      </trkpt>
      <trkpt lat="3.22224" lon="101.76871">
        <ele>157.89</ele>
      </trkpt>
      <trkpt lat="3.22214" lon="101.7687">
        <ele>157.79</ele>
      </trkpt>
      <trkpt lat="3.2221" lon="101.76868">
        <ele>157.56</ele>
      </trkpt>
      <trkpt lat="3.22204" lon="101.76867">
        <ele>157.24</ele>
      </trkpt>
      <trkpt lat="3.22201" lon="101.76866">
        <ele>157.01</ele>
      </trkpt>
      <trkpt lat="3.22198" lon="101.76866">
        <ele>156.87</ele>
      </trkpt>
      <trkpt lat="3.22194" lon="101.76865">
        <ele>156.61</ele>
      </trkpt>
      <trkpt lat="3.22189" lon="101.76863">
        <ele>156.85</ele>
      </trkpt>
      <trkpt lat="3.22187" lon="101.76863">
        <ele>157.06</ele>
      </trkpt>
      <trkpt lat="3.22172" lon="101.76859">
        <ele>157.71</ele>
      </trkpt>
      <trkpt lat="3.22169" lon="101.76859">
        <ele>158.01</ele>
      </trkpt>
      <trkpt lat="3.22166" lon="101.76858">
        <ele>158.01</ele>
      </trkpt>
      <trkpt lat="3.22162" lon="101.76858">
        <ele>158.78</ele>
      </trkpt>
      <trkpt lat="3.22162" lon="101.76858">
        <ele>158.78</ele>
      </trkpt>
      <trkpt lat="3.22158" lon="101.76857">
        <ele>159.22</ele>
      </trkpt>
      <trkpt lat="3.22154" lon="101.76857">
        <ele>160.0</ele>
      </trkpt>
      <trkpt lat="3.22149" lon="101.76856">
        <ele>160.69</ele>
      </trkpt>
      <trkpt lat="3.22134" lon="101.7685">
        <ele>160.88</ele>
      </trkpt>
      <trkpt lat="3.2212" lon="101.76844">
        <ele>158.17</ele>
      </trkpt>
      <trkpt lat="3.22108" lon="101.76841">
        <ele>156.99</ele>
      </trkpt>
      <trkpt lat="3.22087" lon="101.76834">
        <ele>160.1</ele>
      </trkpt>
      <trkpt lat="3.22076" lon="101.7683">
        <ele>160.93</ele>
      </trkpt>
      <trkpt lat="3.22072" lon="101.76828">
        <ele>160.72</ele>
      </trkpt>
      <trkpt lat="3.22067" lon="101.76827">
        <ele>160.42</ele>
      </trkpt>
      <trkpt lat="3.22061" lon="101.76824">
        <ele>159.72</ele>
      </trkpt>
      <trkpt lat="3.22052" lon="101.7682">
        <ele>157.87</ele>
      </trkpt>
      <trkpt lat="3.22049" lon="101.76816">
        <ele>156.9</ele>
      </trkpt>
      <trkpt lat="3.22046" lon="101.7681">
        <ele>156.19</ele>
      </trkpt>
      <trkpt lat="3.22043" lon="101.768">
        <ele>157.73</ele>
      </trkpt>
      <trkpt lat="3.22043" lon="101.76795">
        <ele>159.28</ele>
      </trkpt>
      <trkpt lat="3.22038" lon="101.76779">
        <ele>163.75</ele>
      </trkpt>
      <trkpt lat="3.22033" lon="101.76767">
        <ele>166.76</ele>
      </trkpt>
      <trkpt lat="3.22028" lon="101.76756">
        <ele>170.05</ele>
      </trkpt>
      <trkpt lat="3.22024" lon="101.76749">
        <ele>170.88</ele>
      </trkpt>
      <trkpt lat="3.22018" lon="101.76739">
        <ele>170.83</ele>
      </trkpt>
      <trkpt lat="3.22013" lon="101.76733">
        <ele>169.99</ele>
      </trkpt>
      <trkpt lat="3.22011" lon="101.76729">
        <ele>169.88</ele>
      </trkpt>
      <trkpt lat="3.22006" lon="101.76725">
        <ele>168.34</ele>
      </trkpt>
      <trkpt lat="3.22005" lon="101.76722">
        <ele>168.32</ele>
      </trkpt>
      <trkpt lat="3.22002" lon="101.76717">
        <ele>166.44</ele>
      </trkpt>
      <trkpt lat="3.22002" lon="101.76715">
        <ele>166.25</ele>
      </trkpt>
      <trkpt lat="3.22001" lon="101.76713">
        <ele>165.53</ele>
      </trkpt>
      <trkpt lat="3.22" lon="101.76711">
        <ele>164.79</ele>
      </trkpt>
      <trkpt lat="3.21999" lon="101.76709">
        <ele>164.34</ele>
      </trkpt>
      <trkpt lat="3.21999" lon="101.76707">
        <ele>164.12</ele>
      </trkpt>
      <trkpt lat="3.21998" lon="101.76704">
        <ele>163.53</ele>
      </trkpt>
      <trkpt lat="3.21998" lon="101.76702">
        <ele>163.3</ele>
      </trkpt>
      <trkpt lat="3.21997" lon="101.76699">
        <ele>162.68</ele>
      </trkpt>
      <trkpt lat="3.21997" lon="101.76696">
        <ele>162.32</ele>
      </trkpt>
      <trkpt lat="3.21996" lon="101.76689">
        <ele>160.39</ele>
      </trkpt>
      <trkpt lat="3.21996" lon="101.76685">
        <ele>159.32</ele>
      </trkpt>
      <trkpt lat="3.21996" lon="101.76683">
        <ele>158.79</ele>
      </trkpt>
      <trkpt lat="3.21996" lon="101.7668">
        <ele>157.98</ele>
      </trkpt>
      <trkpt lat="3.21995" lon="101.76678">
        <ele>157.1</ele>
      </trkpt>
      <trkpt lat="3.21993" lon="101.76676">
        <ele>155.83</ele>
      </trkpt>
      <trkpt lat="3.21991" lon="101.76674">
        <ele>154.54</ele>
      </trkpt>
      <trkpt lat="3.21986" lon="101.76673">
        <ele>152.4</ele>
      </trkpt>
      <trkpt lat="3.21982" lon="101.76675">
        <ele>151.56</ele>
      </trkpt>
      <trkpt lat="3.21979" lon="101.7668">
        <ele>152.13</ele>
      </trkpt>
      <trkpt lat="3.21974" lon="101.76703">
        <ele>157.3</ele>
      </trkpt>
      <trkpt lat="3.21974" lon="101.76703">
        <ele>157.3</ele>
      </trkpt>
      <trkpt lat="3.21973" lon="101.7671">
        <ele>158.54</ele>
      </trkpt>
      <trkpt lat="3.21972" lon="101.7671">
        <ele>158.26</ele>
      </trkpt>
    </trkseg>
  </trk>
</gpx>
