<?xml version="1.0"?>
<gpx xmlns="http://www.topografix.com/GPX/1/1" xmlns:xsi="http://www.w3.org/2001/XMLSchema-instance" version="1.1" creator="AllTrails.com" xsi:schemaLocation="http://www.topografix.com/GPX/1/1 http://www.topografix.com/GPX/1/1/gpx.xsd">
  <metadata>
    <name><![CDATA[Mount Korbu]]></name>
    <desc><![CDATA[]]></desc>
    <link href="http://www.alltrails.com">
      <text>AllTrails, LLC</text>
    </link>
    <bounds minlat="4.64662" minlon="101.2409" maxlat="4.68971" maxlon="101.29723"/>
  </metadata>
  <wpt lat="4.65237" lon="101.26658">
    <name><![CDATA[Air Terjun]]></name>
    <desc><![CDATA[]]></desc>
  </wpt>
  <wpt lat="4.65986" lon="101.27198">
    <name><![CDATA[Kem Seroja]]></name>
    <desc><![CDATA[]]></desc>
  </wpt>
  <trk>
    <name><![CDATA[Mount Korbu]]></name>
    <src>AllTrails</src>
    <trkseg>
      <trkpt lat="4.64963" lon="101.2409">
        <ele>288.22</ele>
      </trkpt>
      <trkpt lat="4.64963" lon="101.2409">
        <ele>288.22</ele>
      </trkpt>
      <trkpt lat="4.6496" lon="101.24097">
        <ele>287.4</ele>
      </trkpt>
      <trkpt lat="4.64948" lon="101.24129">
        <ele>286.78</ele>
      </trkpt>
      <trkpt lat="4.64921" lon="101.24157">
        <ele>289.58</ele>
      </trkpt>
      <trkpt lat="4.64868" lon="101.24191">
        <ele>289.47</ele>
      </trkpt>
      <trkpt lat="4.64839" lon="101.24221">
        <ele>284.97</ele>
      </trkpt>
      <trkpt lat="4.64823" lon="101.2428">
        <ele>293.53</ele>
      </trkpt>
      <trkpt lat="4.64797" lon="101.24312">
        <ele>300.8</ele>
      </trkpt>
      <trkpt lat="4.64797" lon="101.24312">
        <ele>300.8</ele>
      </trkpt>
      <trkpt lat="4.64774" lon="101.2432">
        <ele>300.47</ele>
      </trkpt>
      <trkpt lat="4.64749" lon="101.24343">
        <ele>295.51</ele>
      </trkpt>
      <trkpt lat="4.64716" lon="101.24381">
        <ele>292.6</ele>
      </trkpt>
      <trkpt lat="4.64679" lon="101.24412">
        <ele>287.87</ele>
      </trkpt>
      <trkpt lat="4.64669" lon="101.24423">
        <ele>288.04</ele>
      </trkpt>
      <trkpt lat="4.64671" lon="101.24444">
        <ele>290.94</ele>
      </trkpt>
      <trkpt lat="4.64666" lon="101.24468">
        <ele>296.21</ele>
      </trkpt>
      <trkpt lat="4.64674" lon="101.2449">
        <ele>301.14</ele>
      </trkpt>
      <trkpt lat="4.64665" lon="101.24511">
        <ele>306.5</ele>
      </trkpt>
      <trkpt lat="4.64663" lon="101.24533">
        <ele>313.34</ele>
      </trkpt>
      <trkpt lat="4.64672" lon="101.24539">
        <ele>316.83</ele>
      </trkpt>
      <trkpt lat="4.64692" lon="101.24537">
        <ele>315.65</ele>
      </trkpt>
      <trkpt lat="4.6471" lon="101.24541">
        <ele>315.53</ele>
      </trkpt>
      <trkpt lat="4.64717" lon="101.24553">
        <ele>317.81</ele>
      </trkpt>
      <trkpt lat="4.64715" lon="101.24563">
        <ele>322.1</ele>
      </trkpt>
      <trkpt lat="4.64704" lon="101.24582">
        <ele>333.34</ele>
      </trkpt>
      <trkpt lat="4.64702" lon="101.24608">
        <ele>346.34</ele>
      </trkpt>
      <trkpt lat="4.64703" lon="101.24666">
        <ele>365.07</ele>
      </trkpt>
      <trkpt lat="4.64701" lon="101.24676">
        <ele>367.67</ele>
      </trkpt>
      <trkpt lat="4.64697" lon="101.24687">
        <ele>370.96</ele>
      </trkpt>
      <trkpt lat="4.64672" lon="101.2471">
        <ele>380.83</ele>
      </trkpt>
      <trkpt lat="4.64665" lon="101.24717">
        <ele>383.11</ele>
      </trkpt>
      <trkpt lat="4.64662" lon="101.24728">
        <ele>384.22</ele>
      </trkpt>
      <trkpt lat="4.64666" lon="101.24748">
        <ele>385.75</ele>
      </trkpt>
      <trkpt lat="4.6468" lon="101.24777">
        <ele>387.81</ele>
      </trkpt>
      <trkpt lat="4.64692" lon="101.24786">
        <ele>390.74</ele>
      </trkpt>
      <trkpt lat="4.64708" lon="101.24806">
        <ele>394.54</ele>
      </trkpt>
      <trkpt lat="4.64731" lon="101.24817">
        <ele>393.57</ele>
      </trkpt>
      <trkpt lat="4.64759" lon="101.24831">
        <ele>391.83</ele>
      </trkpt>
      <trkpt lat="4.64777" lon="101.24854">
        <ele>390.04</ele>
      </trkpt>
      <trkpt lat="4.6478" lon="101.24869">
        <ele>390.27</ele>
      </trkpt>
      <trkpt lat="4.64788" lon="101.24884">
        <ele>390.48</ele>
      </trkpt>
      <trkpt lat="4.64794" lon="101.24904">
        <ele>393.92</ele>
      </trkpt>
      <trkpt lat="4.64809" lon="101.24919">
        <ele>397.7</ele>
      </trkpt>
      <trkpt lat="4.64816" lon="101.24934">
        <ele>401.44</ele>
      </trkpt>
      <trkpt lat="4.6483" lon="101.24947">
        <ele>402.09</ele>
      </trkpt>
      <trkpt lat="4.64855" lon="101.24962">
        <ele>405.53</ele>
      </trkpt>
      <trkpt lat="4.64879" lon="101.24967">
        <ele>409.64</ele>
      </trkpt>
      <trkpt lat="4.64904" lon="101.24967">
        <ele>411.53</ele>
      </trkpt>
      <trkpt lat="4.64941" lon="101.24979">
        <ele>412.54</ele>
      </trkpt>
      <trkpt lat="4.64967" lon="101.24986">
        <ele>418.68</ele>
      </trkpt>
      <trkpt lat="4.64985" lon="101.24997">
        <ele>428.69</ele>
      </trkpt>
      <trkpt lat="4.65002" lon="101.25003">
        <ele>439.19</ele>
      </trkpt>
      <trkpt lat="4.65002" lon="101.25003">
        <ele>439.19</ele>
      </trkpt>
      <trkpt lat="4.65015" lon="101.2501">
        <ele>444.9</ele>
      </trkpt>
      <trkpt lat="4.65025" lon="101.25024">
        <ele>451.53</ele>
      </trkpt>
      <trkpt lat="4.65027" lon="101.2504">
        <ele>452.93</ele>
      </trkpt>
      <trkpt lat="4.65024" lon="101.25055">
        <ele>449.89</ele>
      </trkpt>
      <trkpt lat="4.65031" lon="101.25084">
        <ele>459.71</ele>
      </trkpt>
      <trkpt lat="4.65024" lon="101.25101">
        <ele>454.74</ele>
      </trkpt>
      <trkpt lat="4.65026" lon="101.25113">
        <ele>454.96</ele>
      </trkpt>
      <trkpt lat="4.65018" lon="101.25141">
        <ele>447.33</ele>
      </trkpt>
      <trkpt lat="4.65012" lon="101.25157">
        <ele>446.8</ele>
      </trkpt>
      <trkpt lat="4.65013" lon="101.25186">
        <ele>455.82</ele>
      </trkpt>
      <trkpt lat="4.65009" lon="101.25213">
        <ele>458.47</ele>
      </trkpt>
      <trkpt lat="4.65007" lon="101.25233">
        <ele>458.85</ele>
      </trkpt>
      <trkpt lat="4.65003" lon="101.25252">
        <ele>457.81</ele>
      </trkpt>
      <trkpt lat="4.64998" lon="101.25268">
        <ele>457.05</ele>
      </trkpt>
      <trkpt lat="4.64995" lon="101.25347">
        <ele>477.82</ele>
      </trkpt>
      <trkpt lat="4.6501" lon="101.25433">
        <ele>491.02</ele>
      </trkpt>
      <trkpt lat="4.65016" lon="101.25506">
        <ele>496.41</ele>
      </trkpt>
      <trkpt lat="4.65029" lon="101.2569">
        <ele>525.71</ele>
      </trkpt>
      <trkpt lat="4.65058" lon="101.25741">
        <ele>539.16</ele>
      </trkpt>
      <trkpt lat="4.65061" lon="101.25813">
        <ele>543.56</ele>
      </trkpt>
      <trkpt lat="4.65058" lon="101.25918">
        <ele>550.19</ele>
      </trkpt>
      <trkpt lat="4.65071" lon="101.26041">
        <ele>564.11</ele>
      </trkpt>
      <trkpt lat="4.65072" lon="101.26049">
        <ele>565.64</ele>
      </trkpt>
      <trkpt lat="4.65072" lon="101.26049">
        <ele>565.64</ele>
      </trkpt>
      <trkpt lat="4.65089" lon="101.26158">
        <ele>572.01</ele>
      </trkpt>
      <trkpt lat="4.65098" lon="101.26236">
        <ele>582.93</ele>
      </trkpt>
      <trkpt lat="4.65104" lon="101.26352">
        <ele>599.4</ele>
      </trkpt>
      <trkpt lat="4.65094" lon="101.264">
        <ele>603.23</ele>
      </trkpt>
      <trkpt lat="4.65094" lon="101.26425">
        <ele>600.99</ele>
      </trkpt>
      <trkpt lat="4.65122" lon="101.26463">
        <ele>598.75</ele>
      </trkpt>
      <trkpt lat="4.65143" lon="101.26507">
        <ele>591.89</ele>
      </trkpt>
      <trkpt lat="4.65181" lon="101.2659">
        <ele>611.59</ele>
      </trkpt>
      <trkpt lat="4.65208" lon="101.26617">
        <ele>613.6</ele>
      </trkpt>
      <trkpt lat="4.65243" lon="101.26652">
        <ele>615.96</ele>
      </trkpt>
      <trkpt lat="4.6524" lon="101.26681">
        <ele>621.17</ele>
      </trkpt>
      <trkpt lat="4.65211" lon="101.26746">
        <ele>625.79</ele>
      </trkpt>
      <trkpt lat="4.65208" lon="101.26767">
        <ele>633.73</ele>
      </trkpt>
      <trkpt lat="4.65207" lon="101.26785">
        <ele>641.57</ele>
      </trkpt>
      <trkpt lat="4.65202" lon="101.26792">
        <ele>646.24</ele>
      </trkpt>
      <trkpt lat="4.652" lon="101.26823">
        <ele>660.06</ele>
      </trkpt>
      <trkpt lat="4.65186" lon="101.26847">
        <ele>676.56</ele>
      </trkpt>
      <trkpt lat="4.65188" lon="101.26883">
        <ele>693.98</ele>
      </trkpt>
      <trkpt lat="4.65183" lon="101.2692">
        <ele>704.29</ele>
      </trkpt>
      <trkpt lat="4.65188" lon="101.26943">
        <ele>713.61</ele>
      </trkpt>
      <trkpt lat="4.65186" lon="101.26962">
        <ele>717.03</ele>
      </trkpt>
      <trkpt lat="4.65208" lon="101.26981">
        <ele>729.76</ele>
      </trkpt>
      <trkpt lat="4.6521" lon="101.26989">
        <ele>733.04</ele>
      </trkpt>
      <trkpt lat="4.65207" lon="101.26996">
        <ele>734.1</ele>
      </trkpt>
      <trkpt lat="4.65208" lon="101.27006">
        <ele>738.87</ele>
      </trkpt>
      <trkpt lat="4.65248" lon="101.2704">
        <ele>763.57</ele>
      </trkpt>
      <trkpt lat="4.65264" lon="101.27047">
        <ele>766.51</ele>
      </trkpt>
      <trkpt lat="4.65307" lon="101.2705">
        <ele>772.08</ele>
      </trkpt>
      <trkpt lat="4.65334" lon="101.27041">
        <ele>771.32</ele>
      </trkpt>
      <trkpt lat="4.65359" lon="101.2704">
        <ele>770.67</ele>
      </trkpt>
      <trkpt lat="4.65384" lon="101.27031">
        <ele>765.97</ele>
      </trkpt>
      <trkpt lat="4.65414" lon="101.27035">
        <ele>765.08</ele>
      </trkpt>
      <trkpt lat="4.65426" lon="101.27042">
        <ele>765.93</ele>
      </trkpt>
      <trkpt lat="4.65433" lon="101.27054">
        <ele>767.88</ele>
      </trkpt>
      <trkpt lat="4.65436" lon="101.27063">
        <ele>768.71</ele>
      </trkpt>
      <trkpt lat="4.65444" lon="101.27071">
        <ele>768.43</ele>
      </trkpt>
      <trkpt lat="4.6545" lon="101.27078">
        <ele>769.57</ele>
      </trkpt>
      <trkpt lat="4.65451" lon="101.27089">
        <ele>772.52</ele>
      </trkpt>
      <trkpt lat="4.65461" lon="101.27095">
        <ele>775.68</ele>
      </trkpt>
      <trkpt lat="4.6548" lon="101.271">
        <ele>782.44</ele>
      </trkpt>
      <trkpt lat="4.65507" lon="101.27103">
        <ele>789.56</ele>
      </trkpt>
      <trkpt lat="4.65562" lon="101.27106">
        <ele>785.51</ele>
      </trkpt>
      <trkpt lat="4.65575" lon="101.27111">
        <ele>785.74</ele>
      </trkpt>
      <trkpt lat="4.65585" lon="101.27127">
        <ele>788.74</ele>
      </trkpt>
      <trkpt lat="4.65598" lon="101.27143">
        <ele>790.83</ele>
      </trkpt>
      <trkpt lat="4.65619" lon="101.27154">
        <ele>785.06</ele>
      </trkpt>
      <trkpt lat="4.65648" lon="101.27157">
        <ele>776.64</ele>
      </trkpt>
      <trkpt lat="4.65665" lon="101.27169">
        <ele>779.15</ele>
      </trkpt>
      <trkpt lat="4.65672" lon="101.27187">
        <ele>785.81</ele>
      </trkpt>
      <trkpt lat="4.65681" lon="101.27196">
        <ele>788.57</ele>
      </trkpt>
      <trkpt lat="4.6569" lon="101.27197">
        <ele>788.39</ele>
      </trkpt>
      <trkpt lat="4.6571" lon="101.27189">
        <ele>785.43</ele>
      </trkpt>
      <trkpt lat="4.65729" lon="101.2719">
        <ele>786.99</ele>
      </trkpt>
      <trkpt lat="4.65749" lon="101.27187">
        <ele>788.48</ele>
      </trkpt>
      <trkpt lat="4.65758" lon="101.27195">
        <ele>791.24</ele>
      </trkpt>
      <trkpt lat="4.65771" lon="101.27208">
        <ele>790.97</ele>
      </trkpt>
      <trkpt lat="4.65802" lon="101.27222">
        <ele>779.24</ele>
      </trkpt>
      <trkpt lat="4.65829" lon="101.27224">
        <ele>769.43</ele>
      </trkpt>
      <trkpt lat="4.6584" lon="101.27228">
        <ele>767.57</ele>
      </trkpt>
      <trkpt lat="4.6585" lon="101.27222">
        <ele>766.79</ele>
      </trkpt>
      <trkpt lat="4.6588" lon="101.27215">
        <ele>770.65</ele>
      </trkpt>
      <trkpt lat="4.65884" lon="101.2722">
        <ele>772.31</ele>
      </trkpt>
      <trkpt lat="4.659" lon="101.27213">
        <ele>773.6</ele>
      </trkpt>
      <trkpt lat="4.65912" lon="101.27214">
        <ele>774.63</ele>
      </trkpt>
      <trkpt lat="4.65927" lon="101.27211">
        <ele>778.96</ele>
      </trkpt>
      <trkpt lat="4.6594" lon="101.27206">
        <ele>785.3</ele>
      </trkpt>
      <trkpt lat="4.65949" lon="101.272">
        <ele>789.99</ele>
      </trkpt>
      <trkpt lat="4.65958" lon="101.27198">
        <ele>792.23</ele>
      </trkpt>
      <trkpt lat="4.65958" lon="101.27199">
        <ele>791.88</ele>
      </trkpt>
      <trkpt lat="4.65969" lon="101.27201">
        <ele>793.09</ele>
      </trkpt>
      <trkpt lat="4.65978" lon="101.2721">
        <ele>792.57</ele>
      </trkpt>
      <trkpt lat="4.65994" lon="101.27215">
        <ele>796.64</ele>
      </trkpt>
      <trkpt lat="4.66007" lon="101.27224">
        <ele>798.09</ele>
      </trkpt>
      <trkpt lat="4.66025" lon="101.27229">
        <ele>803.59</ele>
      </trkpt>
      <trkpt lat="4.66029" lon="101.27236">
        <ele>803.94</ele>
      </trkpt>
      <trkpt lat="4.66039" lon="101.2724">
        <ele>803.28</ele>
      </trkpt>
      <trkpt lat="4.66053" lon="101.27238">
        <ele>802.69</ele>
      </trkpt>
      <trkpt lat="4.66064" lon="101.2723">
        <ele>803.8</ele>
      </trkpt>
      <trkpt lat="4.66078" lon="101.2723">
        <ele>806.32</ele>
      </trkpt>
      <trkpt lat="4.66092" lon="101.27225">
        <ele>806.38</ele>
      </trkpt>
      <trkpt lat="4.66111" lon="101.27226">
        <ele>804.74</ele>
      </trkpt>
      <trkpt lat="4.66131" lon="101.27218">
        <ele>802.29</ele>
      </trkpt>
      <trkpt lat="4.66142" lon="101.27218">
        <ele>800.91</ele>
      </trkpt>
      <trkpt lat="4.66162" lon="101.27214">
        <ele>799.94</ele>
      </trkpt>
      <trkpt lat="4.66177" lon="101.27213">
        <ele>802.11</ele>
      </trkpt>
      <trkpt lat="4.66187" lon="101.27216">
        <ele>804.38</ele>
      </trkpt>
      <trkpt lat="4.66199" lon="101.27214">
        <ele>806.44</ele>
      </trkpt>
      <trkpt lat="4.66205" lon="101.27216">
        <ele>807.37</ele>
      </trkpt>
      <trkpt lat="4.66212" lon="101.27223">
        <ele>808.1</ele>
      </trkpt>
      <trkpt lat="4.66221" lon="101.27228">
        <ele>808.03</ele>
      </trkpt>
      <trkpt lat="4.66232" lon="101.27236">
        <ele>807.02</ele>
      </trkpt>
      <trkpt lat="4.66241" lon="101.27244">
        <ele>805.86</ele>
      </trkpt>
      <trkpt lat="4.66262" lon="101.27251">
        <ele>804.59</ele>
      </trkpt>
      <trkpt lat="4.66273" lon="101.27256">
        <ele>804.07</ele>
      </trkpt>
      <trkpt lat="4.66287" lon="101.27268">
        <ele>803.24</ele>
      </trkpt>
      <trkpt lat="4.66305" lon="101.27271">
        <ele>803.0</ele>
      </trkpt>
      <trkpt lat="4.66316" lon="101.27278">
        <ele>804.13</ele>
      </trkpt>
      <trkpt lat="4.6632" lon="101.27287">
        <ele>804.91</ele>
      </trkpt>
      <trkpt lat="4.66324" lon="101.27288">
        <ele>805.48</ele>
      </trkpt>
      <trkpt lat="4.66328" lon="101.27287">
        <ele>805.96</ele>
      </trkpt>
      <trkpt lat="4.66333" lon="101.27282">
        <ele>806.26</ele>
      </trkpt>
      <trkpt lat="4.66336" lon="101.27284">
        <ele>806.94</ele>
      </trkpt>
      <trkpt lat="4.66339" lon="101.27293">
        <ele>807.87</ele>
      </trkpt>
      <trkpt lat="4.6636" lon="101.27306">
        <ele>809.86</ele>
      </trkpt>
      <trkpt lat="4.6637" lon="101.27324">
        <ele>807.55</ele>
      </trkpt>
      <trkpt lat="4.66393" lon="101.27336">
        <ele>808.66</ele>
      </trkpt>
      <trkpt lat="4.66404" lon="101.27336">
        <ele>809.64</ele>
      </trkpt>
      <trkpt lat="4.66411" lon="101.27332">
        <ele>809.67</ele>
      </trkpt>
      <trkpt lat="4.66419" lon="101.27329">
        <ele>810.9</ele>
      </trkpt>
      <trkpt lat="4.66427" lon="101.27333">
        <ele>812.63</ele>
      </trkpt>
      <trkpt lat="4.66437" lon="101.27335">
        <ele>815.47</ele>
      </trkpt>
      <trkpt lat="4.66451" lon="101.27333">
        <ele>815.61</ele>
      </trkpt>
      <trkpt lat="4.66461" lon="101.27337">
        <ele>814.32</ele>
      </trkpt>
      <trkpt lat="4.66465" lon="101.27347">
        <ele>816.11</ele>
      </trkpt>
      <trkpt lat="4.66471" lon="101.27357">
        <ele>817.97</ele>
      </trkpt>
      <trkpt lat="4.66473" lon="101.27377">
        <ele>824.13</ele>
      </trkpt>
      <trkpt lat="4.66479" lon="101.27385">
        <ele>826.35</ele>
      </trkpt>
      <trkpt lat="4.66484" lon="101.27411">
        <ele>836.61</ele>
      </trkpt>
      <trkpt lat="4.66492" lon="101.27426">
        <ele>842.92</ele>
      </trkpt>
      <trkpt lat="4.66517" lon="101.27448">
        <ele>851.75</ele>
      </trkpt>
      <trkpt lat="4.66534" lon="101.27464">
        <ele>852.47</ele>
      </trkpt>
      <trkpt lat="4.66543" lon="101.27481">
        <ele>857.43</ele>
      </trkpt>
      <trkpt lat="4.66553" lon="101.27504">
        <ele>863.01</ele>
      </trkpt>
      <trkpt lat="4.66557" lon="101.27529">
        <ele>870.28</ele>
      </trkpt>
      <trkpt lat="4.66561" lon="101.27548">
        <ele>872.06</ele>
      </trkpt>
      <trkpt lat="4.66568" lon="101.27558">
        <ele>872.24</ele>
      </trkpt>
      <trkpt lat="4.66571" lon="101.27573">
        <ele>873.43</ele>
      </trkpt>
      <trkpt lat="4.66593" lon="101.27591">
        <ele>879.06</ele>
      </trkpt>
      <trkpt lat="4.66597" lon="101.27606">
        <ele>879.23</ele>
      </trkpt>
      <trkpt lat="4.66609" lon="101.27616">
        <ele>882.65</ele>
      </trkpt>
      <trkpt lat="4.6662" lon="101.27621">
        <ele>886.22</ele>
      </trkpt>
      <trkpt lat="4.66624" lon="101.27629">
        <ele>887.95</ele>
      </trkpt>
      <trkpt lat="4.66631" lon="101.27635">
        <ele>889.29</ele>
      </trkpt>
      <trkpt lat="4.6663" lon="101.27644">
        <ele>889.24</ele>
      </trkpt>
      <trkpt lat="4.66622" lon="101.27669">
        <ele>888.44</ele>
      </trkpt>
      <trkpt lat="4.66617" lon="101.27693">
        <ele>896.53</ele>
      </trkpt>
      <trkpt lat="4.66618" lon="101.27704">
        <ele>899.13</ele>
      </trkpt>
      <trkpt lat="4.66627" lon="101.2771">
        <ele>901.58</ele>
      </trkpt>
      <trkpt lat="4.6664" lon="101.27713">
        <ele>903.7</ele>
      </trkpt>
      <trkpt lat="4.6665" lon="101.2772">
        <ele>905.35</ele>
      </trkpt>
      <trkpt lat="4.66665" lon="101.2774">
        <ele>909.32</ele>
      </trkpt>
      <trkpt lat="4.667" lon="101.27765">
        <ele>910.66</ele>
      </trkpt>
      <trkpt lat="4.66716" lon="101.27781">
        <ele>907.79</ele>
      </trkpt>
      <trkpt lat="4.66737" lon="101.27803">
        <ele>905.36</ele>
      </trkpt>
      <trkpt lat="4.66786" lon="101.27837">
        <ele>902.33</ele>
      </trkpt>
      <trkpt lat="4.66801" lon="101.27848">
        <ele>904.82</ele>
      </trkpt>
      <trkpt lat="4.66814" lon="101.2786">
        <ele>908.36</ele>
      </trkpt>
      <trkpt lat="4.66839" lon="101.27868">
        <ele>915.62</ele>
      </trkpt>
      <trkpt lat="4.66858" lon="101.27871">
        <ele>922.42</ele>
      </trkpt>
      <trkpt lat="4.66863" lon="101.27875">
        <ele>924.78</ele>
      </trkpt>
      <trkpt lat="4.66863" lon="101.27884">
        <ele>926.1</ele>
      </trkpt>
      <trkpt lat="4.66862" lon="101.2789">
        <ele>926.62</ele>
      </trkpt>
      <trkpt lat="4.66866" lon="101.27896">
        <ele>929.65</ele>
      </trkpt>
      <trkpt lat="4.66878" lon="101.27903">
        <ele>936.34</ele>
      </trkpt>
      <trkpt lat="4.66895" lon="101.27907">
        <ele>944.26</ele>
      </trkpt>
      <trkpt lat="4.66911" lon="101.27919">
        <ele>953.96</ele>
      </trkpt>
      <trkpt lat="4.66951" lon="101.27928">
        <ele>975.26</ele>
      </trkpt>
      <trkpt lat="4.66976" lon="101.27948">
        <ele>1002.92</ele>
      </trkpt>
      <trkpt lat="4.66995" lon="101.2795">
        <ele>1017.02</ele>
      </trkpt>
      <trkpt lat="4.67012" lon="101.27957">
        <ele>1029.54</ele>
      </trkpt>
      <trkpt lat="4.67026" lon="101.27966">
        <ele>1042.69</ele>
      </trkpt>
      <trkpt lat="4.67042" lon="101.27989">
        <ele>1062.91</ele>
      </trkpt>
      <trkpt lat="4.67065" lon="101.28003">
        <ele>1077.29</ele>
      </trkpt>
      <trkpt lat="4.67096" lon="101.28006">
        <ele>1084.07</ele>
      </trkpt>
      <trkpt lat="4.67142" lon="101.28003">
        <ele>1088.98</ele>
      </trkpt>
      <trkpt lat="4.67183" lon="101.28009">
        <ele>1091.9</ele>
      </trkpt>
      <trkpt lat="4.67209" lon="101.28011">
        <ele>1090.51</ele>
      </trkpt>
      <trkpt lat="4.6722" lon="101.28004">
        <ele>1086.28</ele>
      </trkpt>
      <trkpt lat="4.67229" lon="101.27991">
        <ele>1079.54</ele>
      </trkpt>
      <trkpt lat="4.67235" lon="101.2798">
        <ele>1074.5</ele>
      </trkpt>
      <trkpt lat="4.6724" lon="101.27976">
        <ele>1072.16</ele>
      </trkpt>
      <trkpt lat="4.67253" lon="101.27973">
        <ele>1069.37</ele>
      </trkpt>
      <trkpt lat="4.67269" lon="101.27967">
        <ele>1068.04</ele>
      </trkpt>
      <trkpt lat="4.67291" lon="101.2796">
        <ele>1066.44</ele>
      </trkpt>
      <trkpt lat="4.67307" lon="101.27959">
        <ele>1067.48</ele>
      </trkpt>
      <trkpt lat="4.67323" lon="101.27961">
        <ele>1071.6</ele>
      </trkpt>
      <trkpt lat="4.67334" lon="101.27958">
        <ele>1073.54</ele>
      </trkpt>
      <trkpt lat="4.67353" lon="101.27948">
        <ele>1075.0</ele>
      </trkpt>
      <trkpt lat="4.67364" lon="101.27942">
        <ele>1075.9</ele>
      </trkpt>
      <trkpt lat="4.67374" lon="101.27943">
        <ele>1077.2</ele>
      </trkpt>
      <trkpt lat="4.67384" lon="101.27948">
        <ele>1078.96</ele>
      </trkpt>
      <trkpt lat="4.67394" lon="101.27951">
        <ele>1082.0</ele>
      </trkpt>
      <trkpt lat="4.67394" lon="101.27951">
        <ele>1082.0</ele>
      </trkpt>
      <trkpt lat="4.67409" lon="101.27956">
        <ele>1089.41</ele>
      </trkpt>
      <trkpt lat="4.6744" lon="101.2797">
        <ele>1112.06</ele>
      </trkpt>
      <trkpt lat="4.67459" lon="101.27973">
        <ele>1115.44</ele>
      </trkpt>
      <trkpt lat="4.67479" lon="101.2797">
        <ele>1116.54</ele>
      </trkpt>
      <trkpt lat="4.67498" lon="101.27963">
        <ele>1118.59</ele>
      </trkpt>
      <trkpt lat="4.67509" lon="101.2796">
        <ele>1118.76</ele>
      </trkpt>
      <trkpt lat="4.67519" lon="101.27962">
        <ele>1121.11</ele>
      </trkpt>
      <trkpt lat="4.67531" lon="101.27974">
        <ele>1126.49</ele>
      </trkpt>
      <trkpt lat="4.67554" lon="101.27991">
        <ele>1129.46</ele>
      </trkpt>
      <trkpt lat="4.67616" lon="101.28024">
        <ele>1134.39</ele>
      </trkpt>
      <trkpt lat="4.6763" lon="101.2803">
        <ele>1136.8</ele>
      </trkpt>
      <trkpt lat="4.67643" lon="101.28036">
        <ele>1138.93</ele>
      </trkpt>
      <trkpt lat="4.67667" lon="101.28035">
        <ele>1142.65</ele>
      </trkpt>
      <trkpt lat="4.67678" lon="101.28038">
        <ele>1147.22</ele>
      </trkpt>
      <trkpt lat="4.67686" lon="101.28043">
        <ele>1150.75</ele>
      </trkpt>
      <trkpt lat="4.67697" lon="101.2805">
        <ele>1155.15</ele>
      </trkpt>
      <trkpt lat="4.67709" lon="101.28052">
        <ele>1158.08</ele>
      </trkpt>
      <trkpt lat="4.67727" lon="101.28065">
        <ele>1162.36</ele>
      </trkpt>
      <trkpt lat="4.6775" lon="101.28074">
        <ele>1167.66</ele>
      </trkpt>
      <trkpt lat="4.67774" lon="101.28078">
        <ele>1174.69</ele>
      </trkpt>
      <trkpt lat="4.67796" lon="101.28091">
        <ele>1178.26</ele>
      </trkpt>
      <trkpt lat="4.67808" lon="101.28101">
        <ele>1182.35</ele>
      </trkpt>
      <trkpt lat="4.67825" lon="101.28109">
        <ele>1190.84</ele>
      </trkpt>
      <trkpt lat="4.67842" lon="101.28119">
        <ele>1198.31</ele>
      </trkpt>
      <trkpt lat="4.67858" lon="101.28118">
        <ele>1199.46</ele>
      </trkpt>
      <trkpt lat="4.67866" lon="101.2812">
        <ele>1200.89</ele>
      </trkpt>
      <trkpt lat="4.67871" lon="101.28126">
        <ele>1202.99</ele>
      </trkpt>
      <trkpt lat="4.6787" lon="101.28137">
        <ele>1205.51</ele>
      </trkpt>
      <trkpt lat="4.67872" lon="101.28159">
        <ele>1203.72</ele>
      </trkpt>
      <trkpt lat="4.67871" lon="101.28193">
        <ele>1215.29</ele>
      </trkpt>
      <trkpt lat="4.67879" lon="101.28216">
        <ele>1231.16</ele>
      </trkpt>
      <trkpt lat="4.6788" lon="101.28241">
        <ele>1240.95</ele>
      </trkpt>
      <trkpt lat="4.67879" lon="101.28269">
        <ele>1250.24</ele>
      </trkpt>
      <trkpt lat="4.6788" lon="101.28278">
        <ele>1253.86</ele>
      </trkpt>
      <trkpt lat="4.67891" lon="101.28287">
        <ele>1260.85</ele>
      </trkpt>
      <trkpt lat="4.67901" lon="101.28301">
        <ele>1271.0</ele>
      </trkpt>
      <trkpt lat="4.67924" lon="101.28328">
        <ele>1288.76</ele>
      </trkpt>
      <trkpt lat="4.67934" lon="101.2834">
        <ele>1295.9</ele>
      </trkpt>
      <trkpt lat="4.67945" lon="101.28346">
        <ele>1303.96</ele>
      </trkpt>
      <trkpt lat="4.67952" lon="101.28352">
        <ele>1310.14</ele>
      </trkpt>
      <trkpt lat="4.67955" lon="101.28365">
        <ele>1318.7</ele>
      </trkpt>
      <trkpt lat="4.67959" lon="101.2838">
        <ele>1329.37</ele>
      </trkpt>
      <trkpt lat="4.67966" lon="101.28393">
        <ele>1339.2</ele>
      </trkpt>
      <trkpt lat="4.67971" lon="101.28406">
        <ele>1342.79</ele>
      </trkpt>
      <trkpt lat="4.67976" lon="101.2842">
        <ele>1346.19</ele>
      </trkpt>
      <trkpt lat="4.67977" lon="101.28433">
        <ele>1353.35</ele>
      </trkpt>
      <trkpt lat="4.67985" lon="101.28442">
        <ele>1360.67</ele>
      </trkpt>
      <trkpt lat="4.67996" lon="101.2846">
        <ele>1379.86</ele>
      </trkpt>
      <trkpt lat="4.68003" lon="101.28476">
        <ele>1397.92</ele>
      </trkpt>
      <trkpt lat="4.68009" lon="101.28489">
        <ele>1409.04</ele>
      </trkpt>
      <trkpt lat="4.68012" lon="101.28507">
        <ele>1420.65</ele>
      </trkpt>
      <trkpt lat="4.68014" lon="101.28521">
        <ele>1427.99</ele>
      </trkpt>
      <trkpt lat="4.6801" lon="101.28538">
        <ele>1433.16</ele>
      </trkpt>
      <trkpt lat="4.68008" lon="101.28552">
        <ele>1437.27</ele>
      </trkpt>
      <trkpt lat="4.6801" lon="101.28567">
        <ele>1440.51</ele>
      </trkpt>
      <trkpt lat="4.68018" lon="101.28588">
        <ele>1446.06</ele>
      </trkpt>
      <trkpt lat="4.68024" lon="101.28605">
        <ele>1448.86</ele>
      </trkpt>
      <trkpt lat="4.6803" lon="101.28635">
        <ele>1450.21</ele>
      </trkpt>
      <trkpt lat="4.68036" lon="101.28674">
        <ele>1458.79</ele>
      </trkpt>
      <trkpt lat="4.68039" lon="101.28699">
        <ele>1470.78</ele>
      </trkpt>
      <trkpt lat="4.68045" lon="101.2871">
        <ele>1480.09</ele>
      </trkpt>
      <trkpt lat="4.68049" lon="101.28722">
        <ele>1489.2</ele>
      </trkpt>
      <trkpt lat="4.6805" lon="101.28744">
        <ele>1506.06</ele>
      </trkpt>
      <trkpt lat="4.68058" lon="101.2876">
        <ele>1518.36</ele>
      </trkpt>
      <trkpt lat="4.68066" lon="101.28771">
        <ele>1524.66</ele>
      </trkpt>
      <trkpt lat="4.68067" lon="101.28782">
        <ele>1527.97</ele>
      </trkpt>
      <trkpt lat="4.68075" lon="101.28788">
        <ele>1531.33</ele>
      </trkpt>
      <trkpt lat="4.68088" lon="101.28795">
        <ele>1536.26</ele>
      </trkpt>
      <trkpt lat="4.68093" lon="101.28804">
        <ele>1538.56</ele>
      </trkpt>
      <trkpt lat="4.68105" lon="101.28809">
        <ele>1541.38</ele>
      </trkpt>
      <trkpt lat="4.68116" lon="101.28816">
        <ele>1543.85</ele>
      </trkpt>
      <trkpt lat="4.68134" lon="101.28819">
        <ele>1547.12</ele>
      </trkpt>
      <trkpt lat="4.6816" lon="101.28824">
        <ele>1556.06</ele>
      </trkpt>
      <trkpt lat="4.68173" lon="101.28829">
        <ele>1563.67</ele>
      </trkpt>
      <trkpt lat="4.68185" lon="101.28827">
        <ele>1567.94</ele>
      </trkpt>
      <trkpt lat="4.6819" lon="101.28825">
        <ele>1568.96</ele>
      </trkpt>
      <trkpt lat="4.68198" lon="101.28825">
        <ele>1570.72</ele>
      </trkpt>
      <trkpt lat="4.68207" lon="101.28827">
        <ele>1571.43</ele>
      </trkpt>
      <trkpt lat="4.68216" lon="101.28836">
        <ele>1575.6</ele>
      </trkpt>
      <trkpt lat="4.68232" lon="101.28852">
        <ele>1587.98</ele>
      </trkpt>
      <trkpt lat="4.68247" lon="101.28868">
        <ele>1604.25</ele>
      </trkpt>
      <trkpt lat="4.6826" lon="101.28874">
        <ele>1610.97</ele>
      </trkpt>
      <trkpt lat="4.68272" lon="101.28883">
        <ele>1616.98</ele>
      </trkpt>
      <trkpt lat="4.68276" lon="101.28892">
        <ele>1620.9</ele>
      </trkpt>
      <trkpt lat="4.68281" lon="101.28903">
        <ele>1622.67</ele>
      </trkpt>
      <trkpt lat="4.68287" lon="101.28913">
        <ele>1622.96</ele>
      </trkpt>
      <trkpt lat="4.68292" lon="101.28929">
        <ele>1631.19</ele>
      </trkpt>
      <trkpt lat="4.68291" lon="101.28941">
        <ele>1640.64</ele>
      </trkpt>
      <trkpt lat="4.68289" lon="101.28956">
        <ele>1646.54</ele>
      </trkpt>
      <trkpt lat="4.68292" lon="101.28972">
        <ele>1649.36</ele>
      </trkpt>
      <trkpt lat="4.68298" lon="101.28987">
        <ele>1652.45</ele>
      </trkpt>
      <trkpt lat="4.68304" lon="101.28995">
        <ele>1653.04</ele>
      </trkpt>
      <trkpt lat="4.68308" lon="101.29003">
        <ele>1654.9</ele>
      </trkpt>
      <trkpt lat="4.68309" lon="101.2901">
        <ele>1657.5</ele>
      </trkpt>
      <trkpt lat="4.68308" lon="101.29018">
        <ele>1660.75</ele>
      </trkpt>
      <trkpt lat="4.68301" lon="101.29025">
        <ele>1665.23</ele>
      </trkpt>
      <trkpt lat="4.68289" lon="101.29034">
        <ele>1674.2</ele>
      </trkpt>
      <trkpt lat="4.6828" lon="101.29038">
        <ele>1680.59</ele>
      </trkpt>
      <trkpt lat="4.68275" lon="101.29042">
        <ele>1685.01</ele>
      </trkpt>
      <trkpt lat="4.68273" lon="101.29048">
        <ele>1689.59</ele>
      </trkpt>
      <trkpt lat="4.68272" lon="101.29054">
        <ele>1693.85</ele>
      </trkpt>
      <trkpt lat="4.68274" lon="101.29067">
        <ele>1700.6</ele>
      </trkpt>
      <trkpt lat="4.6828" lon="101.29078">
        <ele>1704.93</ele>
      </trkpt>
      <trkpt lat="4.68286" lon="101.29092">
        <ele>1711.84</ele>
      </trkpt>
      <trkpt lat="4.6829" lon="101.29109">
        <ele>1723.26</ele>
      </trkpt>
      <trkpt lat="4.68294" lon="101.29122">
        <ele>1730.65</ele>
      </trkpt>
      <trkpt lat="4.68293" lon="101.29138">
        <ele>1740.37</ele>
      </trkpt>
      <trkpt lat="4.68291" lon="101.29159">
        <ele>1748.18</ele>
      </trkpt>
      <trkpt lat="4.68288" lon="101.29176">
        <ele>1754.38</ele>
      </trkpt>
      <trkpt lat="4.68286" lon="101.29186">
        <ele>1758.33</ele>
      </trkpt>
      <trkpt lat="4.68288" lon="101.29204">
        <ele>1765.78</ele>
      </trkpt>
      <trkpt lat="4.68292" lon="101.29219">
        <ele>1770.84</ele>
      </trkpt>
      <trkpt lat="4.68297" lon="101.2923">
        <ele>1774.45</ele>
      </trkpt>
      <trkpt lat="4.68299" lon="101.29238">
        <ele>1777.47</ele>
      </trkpt>
      <trkpt lat="4.68298" lon="101.29245">
        <ele>1780.99</ele>
      </trkpt>
      <trkpt lat="4.68294" lon="101.29255">
        <ele>1786.27</ele>
      </trkpt>
      <trkpt lat="4.68285" lon="101.29267">
        <ele>1791.83</ele>
      </trkpt>
      <trkpt lat="4.68279" lon="101.2928">
        <ele>1795.82</ele>
      </trkpt>
      <trkpt lat="4.68275" lon="101.29291">
        <ele>1801.55</ele>
      </trkpt>
      <trkpt lat="4.68269" lon="101.29301">
        <ele>1806.44</ele>
      </trkpt>
      <trkpt lat="4.68259" lon="101.29313">
        <ele>1814.3</ele>
      </trkpt>
      <trkpt lat="4.68256" lon="101.29326">
        <ele>1824.24</ele>
      </trkpt>
      <trkpt lat="4.68248" lon="101.29334">
        <ele>1830.95</ele>
      </trkpt>
      <trkpt lat="4.6824" lon="101.29346">
        <ele>1837.84</ele>
      </trkpt>
      <trkpt lat="4.68237" lon="101.29359">
        <ele>1842.1</ele>
      </trkpt>
      <trkpt lat="4.68237" lon="101.29377">
        <ele>1847.56</ele>
      </trkpt>
      <trkpt lat="4.68236" lon="101.29386">
        <ele>1850.1</ele>
      </trkpt>
      <trkpt lat="4.68241" lon="101.29395">
        <ele>1850.16</ele>
      </trkpt>
      <trkpt lat="4.68253" lon="101.29404">
        <ele>1850.53</ele>
      </trkpt>
      <trkpt lat="4.68268" lon="101.2941">
        <ele>1856.8</ele>
      </trkpt>
      <trkpt lat="4.68275" lon="101.29414">
        <ele>1860.38</ele>
      </trkpt>
      <trkpt lat="4.68286" lon="101.29427">
        <ele>1861.22</ele>
      </trkpt>
      <trkpt lat="4.68297" lon="101.29432">
        <ele>1865.63</ele>
      </trkpt>
      <trkpt lat="4.6832" lon="101.29436">
        <ele>1873.51</ele>
      </trkpt>
      <trkpt lat="4.68347" lon="101.29447">
        <ele>1877.77</ele>
      </trkpt>
      <trkpt lat="4.68363" lon="101.29455">
        <ele>1878.32</ele>
      </trkpt>
      <trkpt lat="4.68379" lon="101.29456">
        <ele>1881.42</ele>
      </trkpt>
      <trkpt lat="4.6839" lon="101.29461">
        <ele>1884.69</ele>
      </trkpt>
      <trkpt lat="4.684" lon="101.29467">
        <ele>1887.25</ele>
      </trkpt>
      <trkpt lat="4.68413" lon="101.29479">
        <ele>1891.12</ele>
      </trkpt>
      <trkpt lat="4.68423" lon="101.29486">
        <ele>1895.16</ele>
      </trkpt>
      <trkpt lat="4.68432" lon="101.29495">
        <ele>1898.04</ele>
      </trkpt>
      <trkpt lat="4.68438" lon="101.29497">
        <ele>1898.95</ele>
      </trkpt>
      <trkpt lat="4.68448" lon="101.29508">
        <ele>1901.38</ele>
      </trkpt>
      <trkpt lat="4.68459" lon="101.29512">
        <ele>1907.76</ele>
      </trkpt>
      <trkpt lat="4.68474" lon="101.29515">
        <ele>1916.76</ele>
      </trkpt>
      <trkpt lat="4.68484" lon="101.2952">
        <ele>1921.09</ele>
      </trkpt>
      <trkpt lat="4.68495" lon="101.29526">
        <ele>1926.61</ele>
      </trkpt>
      <trkpt lat="4.68506" lon="101.29542">
        <ele>1930.58</ele>
      </trkpt>
      <trkpt lat="4.68523" lon="101.2957">
        <ele>1949.4</ele>
      </trkpt>
      <trkpt lat="4.68537" lon="101.29589">
        <ele>1964.65</ele>
      </trkpt>
      <trkpt lat="4.68553" lon="101.29604">
        <ele>1976.51</ele>
      </trkpt>
      <trkpt lat="4.68567" lon="101.29618">
        <ele>1986.87</ele>
      </trkpt>
      <trkpt lat="4.68586" lon="101.29627">
        <ele>2000.0</ele>
      </trkpt>
      <trkpt lat="4.68586" lon="101.29627">
        <ele>2000.0</ele>
      </trkpt>
      <trkpt lat="4.68593" lon="101.2963">
        <ele>2004.53</ele>
      </trkpt>
      <trkpt lat="4.68614" lon="101.29637">
        <ele>2016.83</ele>
      </trkpt>
      <trkpt lat="4.68632" lon="101.29639">
        <ele>2025.02</ele>
      </trkpt>
      <trkpt lat="4.6864" lon="101.29639">
        <ele>2028.68</ele>
      </trkpt>
      <trkpt lat="4.68646" lon="101.29642">
        <ele>2032.44</ele>
      </trkpt>
      <trkpt lat="4.68654" lon="101.29652">
        <ele>2037.46</ele>
      </trkpt>
      <trkpt lat="4.68666" lon="101.2966">
        <ele>2044.61</ele>
      </trkpt>
      <trkpt lat="4.68677" lon="101.29665">
        <ele>2045.35</ele>
      </trkpt>
      <trkpt lat="4.68686" lon="101.29667">
        <ele>2045.65</ele>
      </trkpt>
      <trkpt lat="4.687" lon="101.29667">
        <ele>2046.79</ele>
      </trkpt>
      <trkpt lat="4.68713" lon="101.2967">
        <ele>2048.71</ele>
      </trkpt>
      <trkpt lat="4.68723" lon="101.29673">
        <ele>2050.32</ele>
      </trkpt>
      <trkpt lat="4.68736" lon="101.29673">
        <ele>2051.83</ele>
      </trkpt>
      <trkpt lat="4.68745" lon="101.29667">
        <ele>2052.48</ele>
      </trkpt>
      <trkpt lat="4.68753" lon="101.29664">
        <ele>2053.34</ele>
      </trkpt>
      <trkpt lat="4.68763" lon="101.29658">
        <ele>2053.67</ele>
      </trkpt>
      <trkpt lat="4.68779" lon="101.29657">
        <ele>2053.55</ele>
      </trkpt>
      <trkpt lat="4.68803" lon="101.29661">
        <ele>2058.85</ele>
      </trkpt>
      <trkpt lat="4.68817" lon="101.29664">
        <ele>2063.42</ele>
      </trkpt>
      <trkpt lat="4.68831" lon="101.29664">
        <ele>2067.96</ele>
      </trkpt>
      <trkpt lat="4.68841" lon="101.29671">
        <ele>2070.03</ele>
      </trkpt>
      <trkpt lat="4.68856" lon="101.29676">
        <ele>2072.63</ele>
      </trkpt>
      <trkpt lat="4.68882" lon="101.29684">
        <ele>2090.45</ele>
      </trkpt>
      <trkpt lat="4.68912" lon="101.29691">
        <ele>2112.3</ele>
      </trkpt>
      <trkpt lat="4.68938" lon="101.29703">
        <ele>2140.67</ele>
      </trkpt>
      <trkpt lat="4.6896" lon="101.29713">
        <ele>2154.06</ele>
      </trkpt>
      <trkpt lat="4.68971" lon="101.29723">
        <ele>2160.38</ele>
      </trkpt>
      <trkpt lat="4.6896" lon="101.29713">
        <ele>2154.06</ele>
      </trkpt>
      <trkpt lat="4.68938" lon="101.29703">
        <ele>2140.67</ele>
      </trkpt>
      <trkpt lat="4.68912" lon="101.29691">
        <ele>2112.3</ele>
      </trkpt>
      <trkpt lat="4.68882" lon="101.29684">
        <ele>2090.45</ele>
      </trkpt>
      <trkpt lat="4.68856" lon="101.29676">
        <ele>2072.63</ele>
      </trkpt>
      <trkpt lat="4.68841" lon="101.29671">
        <ele>2070.03</ele>
      </trkpt>
      <trkpt lat="4.68831" lon="101.29664">
        <ele>2067.96</ele>
      </trkpt>
      <trkpt lat="4.68817" lon="101.29664">
        <ele>2063.42</ele>
      </trkpt>
      <trkpt lat="4.68803" lon="101.29661">
        <ele>2058.85</ele>
      </trkpt>
      <trkpt lat="4.68779" lon="101.29657">
        <ele>2053.55</ele>
      </trkpt>
      <trkpt lat="4.68763" lon="101.29658">
        <ele>2053.67</ele>
      </trkpt>
      <trkpt lat="4.68753" lon="101.29664">
        <ele>2053.34</ele>
      </trkpt>
      <trkpt lat="4.68745" lon="101.29667">
        <ele>2052.48</ele>
      </trkpt>
      <trkpt lat="4.68736" lon="101.29673">
        <ele>2051.83</ele>
      </trkpt>
      <trkpt lat="4.68723" lon="101.29673">
        <ele>2050.32</ele>
      </trkpt>
      <trkpt lat="4.68713" lon="101.2967">
        <ele>2048.71</ele>
      </trkpt>
      <trkpt lat="4.687" lon="101.29667">
        <ele>2046.79</ele>
      </trkpt>
      <trkpt lat="4.68686" lon="101.29667">
        <ele>2045.65</ele>
      </trkpt>
      <trkpt lat="4.68677" lon="101.29665">
        <ele>2045.35</ele>
      </trkpt>
      <trkpt lat="4.68666" lon="101.2966">
        <ele>2044.61</ele>
      </trkpt>
      <trkpt lat="4.68654" lon="101.29652">
        <ele>2037.46</ele>
      </trkpt>
      <trkpt lat="4.68646" lon="101.29642">
        <ele>2032.44</ele>
      </trkpt>
      <trkpt lat="4.6864" lon="101.29639">
        <ele>2028.68</ele>
      </trkpt>
      <trkpt lat="4.68632" lon="101.29639">
        <ele>2025.02</ele>
      </trkpt>
      <trkpt lat="4.68614" lon="101.29637">
        <ele>2016.83</ele>
      </trkpt>
      <trkpt lat="4.68593" lon="101.2963">
        <ele>2004.53</ele>
      </trkpt>
      <trkpt lat="4.68586" lon="101.29627">
        <ele>2000.0</ele>
      </trkpt>
      <trkpt lat="4.68586" lon="101.29627">
        <ele>2000.0</ele>
      </trkpt>
      <trkpt lat="4.68567" lon="101.29618">
        <ele>1986.87</ele>
      </trkpt>
      <trkpt lat="4.68553" lon="101.29604">
        <ele>1976.51</ele>
      </trkpt>
      <trkpt lat="4.68537" lon="101.29589">
        <ele>1964.65</ele>
      </trkpt>
      <trkpt lat="4.68523" lon="101.2957">
        <ele>1949.4</ele>
      </trkpt>
      <trkpt lat="4.68506" lon="101.29542">
        <ele>1930.58</ele>
      </trkpt>
      <trkpt lat="4.68495" lon="101.29526">
        <ele>1926.61</ele>
      </trkpt>
      <trkpt lat="4.68484" lon="101.2952">
        <ele>1921.09</ele>
      </trkpt>
      <trkpt lat="4.68474" lon="101.29515">
        <ele>1916.76</ele>
      </trkpt>
      <trkpt lat="4.68459" lon="101.29512">
        <ele>1907.76</ele>
      </trkpt>
      <trkpt lat="4.68448" lon="101.29508">
        <ele>1901.38</ele>
      </trkpt>
      <trkpt lat="4.68438" lon="101.29497">
        <ele>1898.95</ele>
      </trkpt>
      <trkpt lat="4.68432" lon="101.29495">
        <ele>1898.04</ele>
      </trkpt>
      <trkpt lat="4.68423" lon="101.29486">
        <ele>1895.16</ele>
      </trkpt>
      <trkpt lat="4.68413" lon="101.29479">
        <ele>1891.12</ele>
      </trkpt>
      <trkpt lat="4.684" lon="101.29467">
        <ele>1887.25</ele>
      </trkpt>
      <trkpt lat="4.6839" lon="101.29461">
        <ele>1884.69</ele>
      </trkpt>
      <trkpt lat="4.68379" lon="101.29456">
        <ele>1881.42</ele>
      </trkpt>
      <trkpt lat="4.68363" lon="101.29455">
        <ele>1878.32</ele>
      </trkpt>
      <trkpt lat="4.68347" lon="101.29447">
        <ele>1877.77</ele>
      </trkpt>
      <trkpt lat="4.6832" lon="101.29436">
        <ele>1873.51</ele>
      </trkpt>
      <trkpt lat="4.68297" lon="101.29432">
        <ele>1865.63</ele>
      </trkpt>
      <trkpt lat="4.68286" lon="101.29427">
        <ele>1861.22</ele>
      </trkpt>
      <trkpt lat="4.68275" lon="101.29414">
        <ele>1860.38</ele>
      </trkpt>
      <trkpt lat="4.68268" lon="101.2941">
        <ele>1856.8</ele>
      </trkpt>
      <trkpt lat="4.68253" lon="101.29404">
        <ele>1850.53</ele>
      </trkpt>
      <trkpt lat="4.68241" lon="101.29395">
        <ele>1850.16</ele>
      </trkpt>
      <trkpt lat="4.68236" lon="101.29386">
        <ele>1850.1</ele>
      </trkpt>
      <trkpt lat="4.68237" lon="101.29377">
        <ele>1847.56</ele>
      </trkpt>
      <trkpt lat="4.68237" lon="101.29359">
        <ele>1842.1</ele>
      </trkpt>
      <trkpt lat="4.6824" lon="101.29346">
        <ele>1837.84</ele>
      </trkpt>
      <trkpt lat="4.68248" lon="101.29334">
        <ele>1830.95</ele>
      </trkpt>
      <trkpt lat="4.68256" lon="101.29326">
        <ele>1824.24</ele>
      </trkpt>
      <trkpt lat="4.68259" lon="101.29313">
        <ele>1814.3</ele>
      </trkpt>
      <trkpt lat="4.68269" lon="101.29301">
        <ele>1806.44</ele>
      </trkpt>
      <trkpt lat="4.68275" lon="101.29291">
        <ele>1801.55</ele>
      </trkpt>
      <trkpt lat="4.68279" lon="101.2928">
        <ele>1795.82</ele>
      </trkpt>
      <trkpt lat="4.68285" lon="101.29267">
        <ele>1791.83</ele>
      </trkpt>
      <trkpt lat="4.68294" lon="101.29255">
        <ele>1786.27</ele>
      </trkpt>
      <trkpt lat="4.68298" lon="101.29245">
        <ele>1780.99</ele>
      </trkpt>
      <trkpt lat="4.68299" lon="101.29238">
        <ele>1777.47</ele>
      </trkpt>
      <trkpt lat="4.68297" lon="101.2923">
        <ele>1774.45</ele>
      </trkpt>
      <trkpt lat="4.68292" lon="101.29219">
        <ele>1770.84</ele>
      </trkpt>
      <trkpt lat="4.68288" lon="101.29204">
        <ele>1765.78</ele>
      </trkpt>
      <trkpt lat="4.68286" lon="101.29186">
        <ele>1758.33</ele>
      </trkpt>
      <trkpt lat="4.68288" lon="101.29176">
        <ele>1754.38</ele>
      </trkpt>
      <trkpt lat="4.68291" lon="101.29159">
        <ele>1748.18</ele>
      </trkpt>
      <trkpt lat="4.68293" lon="101.29138">
        <ele>1740.37</ele>
      </trkpt>
      <trkpt lat="4.68294" lon="101.29122">
        <ele>1730.65</ele>
      </trkpt>
      <trkpt lat="4.6829" lon="101.29109">
        <ele>1723.26</ele>
      </trkpt>
      <trkpt lat="4.68286" lon="101.29092">
        <ele>1711.84</ele>
      </trkpt>
      <trkpt lat="4.6828" lon="101.29078">
        <ele>1704.93</ele>
      </trkpt>
      <trkpt lat="4.68274" lon="101.29067">
        <ele>1700.6</ele>
      </trkpt>
      <trkpt lat="4.68272" lon="101.29054">
        <ele>1693.85</ele>
      </trkpt>
      <trkpt lat="4.68273" lon="101.29048">
        <ele>1689.59</ele>
      </trkpt>
      <trkpt lat="4.68275" lon="101.29042">
        <ele>1685.01</ele>
      </trkpt>
      <trkpt lat="4.6828" lon="101.29038">
        <ele>1680.59</ele>
      </trkpt>
      <trkpt lat="4.68289" lon="101.29034">
        <ele>1674.2</ele>
      </trkpt>
      <trkpt lat="4.68301" lon="101.29025">
        <ele>1665.23</ele>
      </trkpt>
      <trkpt lat="4.68308" lon="101.29018">
        <ele>1660.75</ele>
      </trkpt>
      <trkpt lat="4.68309" lon="101.2901">
        <ele>1657.5</ele>
      </trkpt>
      <trkpt lat="4.68308" lon="101.29003">
        <ele>1654.9</ele>
      </trkpt>
      <trkpt lat="4.68304" lon="101.28995">
        <ele>1653.04</ele>
      </trkpt>
      <trkpt lat="4.68298" lon="101.28987">
        <ele>1652.45</ele>
      </trkpt>
      <trkpt lat="4.68292" lon="101.28972">
        <ele>1649.36</ele>
      </trkpt>
      <trkpt lat="4.68289" lon="101.28956">
        <ele>1646.54</ele>
      </trkpt>
      <trkpt lat="4.68291" lon="101.28941">
        <ele>1640.64</ele>
      </trkpt>
      <trkpt lat="4.68292" lon="101.28929">
        <ele>1631.19</ele>
      </trkpt>
      <trkpt lat="4.68287" lon="101.28913">
        <ele>1622.96</ele>
      </trkpt>
      <trkpt lat="4.68281" lon="101.28903">
        <ele>1622.67</ele>
      </trkpt>
      <trkpt lat="4.68276" lon="101.28892">
        <ele>1620.9</ele>
      </trkpt>
      <trkpt lat="4.68272" lon="101.28883">
        <ele>1616.98</ele>
      </trkpt>
      <trkpt lat="4.6826" lon="101.28874">
        <ele>1610.97</ele>
      </trkpt>
      <trkpt lat="4.68247" lon="101.28868">
        <ele>1604.25</ele>
      </trkpt>
      <trkpt lat="4.68232" lon="101.28852">
        <ele>1587.98</ele>
      </trkpt>
      <trkpt lat="4.68216" lon="101.28836">
        <ele>1575.6</ele>
      </trkpt>
      <trkpt lat="4.68207" lon="101.28827">
        <ele>1571.43</ele>
      </trkpt>
      <trkpt lat="4.68198" lon="101.28825">
        <ele>1570.72</ele>
      </trkpt>
      <trkpt lat="4.6819" lon="101.28825">
        <ele>1568.96</ele>
      </trkpt>
      <trkpt lat="4.68185" lon="101.28827">
        <ele>1567.94</ele>
      </trkpt>
      <trkpt lat="4.68173" lon="101.28829">
        <ele>1563.67</ele>
      </trkpt>
      <trkpt lat="4.6816" lon="101.28824">
        <ele>1556.06</ele>
      </trkpt>
      <trkpt lat="4.68134" lon="101.28819">
        <ele>1547.12</ele>
      </trkpt>
      <trkpt lat="4.68116" lon="101.28816">
        <ele>1543.85</ele>
      </trkpt>
      <trkpt lat="4.68105" lon="101.28809">
        <ele>1541.38</ele>
      </trkpt>
      <trkpt lat="4.68093" lon="101.28804">
        <ele>1538.56</ele>
      </trkpt>
      <trkpt lat="4.68088" lon="101.28795">
        <ele>1536.26</ele>
      </trkpt>
      <trkpt lat="4.68075" lon="101.28788">
        <ele>1531.33</ele>
      </trkpt>
      <trkpt lat="4.68067" lon="101.28782">
        <ele>1527.97</ele>
      </trkpt>
      <trkpt lat="4.68066" lon="101.28771">
        <ele>1524.66</ele>
      </trkpt>
      <trkpt lat="4.68058" lon="101.2876">
        <ele>1518.36</ele>
      </trkpt>
      <trkpt lat="4.6805" lon="101.28744">
        <ele>1506.06</ele>
      </trkpt>
      <trkpt lat="4.68049" lon="101.28722">
        <ele>1489.2</ele>
      </trkpt>
      <trkpt lat="4.68045" lon="101.2871">
        <ele>1480.09</ele>
      </trkpt>
      <trkpt lat="4.68039" lon="101.28699">
        <ele>1470.78</ele>
      </trkpt>
      <trkpt lat="4.68036" lon="101.28674">
        <ele>1458.79</ele>
      </trkpt>
      <trkpt lat="4.6803" lon="101.28635">
        <ele>1450.21</ele>
      </trkpt>
      <trkpt lat="4.68024" lon="101.28605">
        <ele>1448.86</ele>
      </trkpt>
      <trkpt lat="4.68018" lon="101.28588">
        <ele>1446.06</ele>
      </trkpt>
      <trkpt lat="4.6801" lon="101.28567">
        <ele>1440.51</ele>
      </trkpt>
      <trkpt lat="4.68008" lon="101.28552">
        <ele>1437.27</ele>
      </trkpt>
      <trkpt lat="4.6801" lon="101.28538">
        <ele>1433.16</ele>
      </trkpt>
      <trkpt lat="4.68014" lon="101.28521">
        <ele>1427.99</ele>
      </trkpt>
      <trkpt lat="4.68012" lon="101.28507">
        <ele>1420.65</ele>
      </trkpt>
      <trkpt lat="4.68009" lon="101.28489">
        <ele>1409.04</ele>
      </trkpt>
      <trkpt lat="4.68003" lon="101.28476">
        <ele>1397.92</ele>
      </trkpt>
      <trkpt lat="4.67996" lon="101.2846">
        <ele>1379.86</ele>
      </trkpt>
      <trkpt lat="4.67985" lon="101.28442">
        <ele>1360.67</ele>
      </trkpt>
      <trkpt lat="4.67977" lon="101.28433">
        <ele>1353.35</ele>
      </trkpt>
      <trkpt lat="4.67976" lon="101.2842">
        <ele>1346.19</ele>
      </trkpt>
      <trkpt lat="4.67971" lon="101.28406">
        <ele>1342.79</ele>
      </trkpt>
      <trkpt lat="4.67966" lon="101.28393">
        <ele>1339.2</ele>
      </trkpt>
      <trkpt lat="4.67959" lon="101.2838">
        <ele>1329.37</ele>
      </trkpt>
      <trkpt lat="4.67955" lon="101.28365">
        <ele>1318.7</ele>
      </trkpt>
      <trkpt lat="4.67952" lon="101.28352">
        <ele>1310.14</ele>
      </trkpt>
      <trkpt lat="4.67945" lon="101.28346">
        <ele>1303.96</ele>
      </trkpt>
      <trkpt lat="4.67934" lon="101.2834">
        <ele>1295.9</ele>
      </trkpt>
      <trkpt lat="4.67924" lon="101.28328">
        <ele>1288.76</ele>
      </trkpt>
      <trkpt lat="4.67901" lon="101.28301">
        <ele>1271.0</ele>
      </trkpt>
      <trkpt lat="4.67891" lon="101.28287">
        <ele>1260.85</ele>
      </trkpt>
      <trkpt lat="4.6788" lon="101.28278">
        <ele>1253.86</ele>
      </trkpt>
      <trkpt lat="4.67879" lon="101.28269">
        <ele>1250.24</ele>
      </trkpt>
      <trkpt lat="4.6788" lon="101.28241">
        <ele>1240.95</ele>
      </trkpt>
      <trkpt lat="4.67879" lon="101.28216">
        <ele>1231.16</ele>
      </trkpt>
      <trkpt lat="4.67871" lon="101.28193">
        <ele>1215.29</ele>
      </trkpt>
      <trkpt lat="4.67872" lon="101.28159">
        <ele>1203.72</ele>
      </trkpt>
      <trkpt lat="4.6787" lon="101.28137">
        <ele>1205.51</ele>
      </trkpt>
      <trkpt lat="4.67871" lon="101.28126">
        <ele>1202.99</ele>
      </trkpt>
      <trkpt lat="4.67866" lon="101.2812">
        <ele>1200.89</ele>
      </trkpt>
      <trkpt lat="4.67858" lon="101.28118">
        <ele>1199.46</ele>
      </trkpt>
      <trkpt lat="4.67842" lon="101.28119">
        <ele>1198.31</ele>
      </trkpt>
      <trkpt lat="4.67825" lon="101.28109">
        <ele>1190.84</ele>
      </trkpt>
      <trkpt lat="4.67808" lon="101.28101">
        <ele>1182.35</ele>
      </trkpt>
      <trkpt lat="4.67796" lon="101.28091">
        <ele>1178.26</ele>
      </trkpt>
      <trkpt lat="4.67774" lon="101.28078">
        <ele>1174.69</ele>
      </trkpt>
      <trkpt lat="4.6775" lon="101.28074">
        <ele>1167.66</ele>
      </trkpt>
      <trkpt lat="4.67727" lon="101.28065">
        <ele>1162.36</ele>
      </trkpt>
      <trkpt lat="4.67709" lon="101.28052">
        <ele>1158.08</ele>
      </trkpt>
      <trkpt lat="4.67697" lon="101.2805">
        <ele>1155.15</ele>
      </trkpt>
      <trkpt lat="4.67686" lon="101.28043">
        <ele>1150.75</ele>
      </trkpt>
      <trkpt lat="4.67678" lon="101.28038">
        <ele>1147.22</ele>
      </trkpt>
      <trkpt lat="4.67667" lon="101.28035">
        <ele>1142.65</ele>
      </trkpt>
      <trkpt lat="4.67643" lon="101.28036">
        <ele>1138.93</ele>
      </trkpt>
      <trkpt lat="4.6763" lon="101.2803">
        <ele>1136.8</ele>
      </trkpt>
      <trkpt lat="4.67616" lon="101.28024">
        <ele>1134.39</ele>
      </trkpt>
      <trkpt lat="4.67554" lon="101.27991">
        <ele>1129.46</ele>
      </trkpt>
      <trkpt lat="4.67531" lon="101.27974">
        <ele>1126.49</ele>
      </trkpt>
      <trkpt lat="4.67519" lon="101.27962">
        <ele>1121.11</ele>
      </trkpt>
      <trkpt lat="4.67509" lon="101.2796">
        <ele>1118.76</ele>
      </trkpt>
      <trkpt lat="4.67498" lon="101.27963">
        <ele>1118.59</ele>
      </trkpt>
      <trkpt lat="4.67479" lon="101.2797">
        <ele>1116.54</ele>
      </trkpt>
      <trkpt lat="4.67459" lon="101.27973">
        <ele>1115.44</ele>
      </trkpt>
      <trkpt lat="4.6744" lon="101.2797">
        <ele>1112.06</ele>
      </trkpt>
      <trkpt lat="4.67409" lon="101.27956">
        <ele>1089.41</ele>
      </trkpt>
      <trkpt lat="4.67394" lon="101.27951">
        <ele>1082.0</ele>
      </trkpt>
      <trkpt lat="4.67394" lon="101.27951">
        <ele>1082.0</ele>
      </trkpt>
      <trkpt lat="4.67384" lon="101.27948">
        <ele>1078.96</ele>
      </trkpt>
      <trkpt lat="4.67374" lon="101.27943">
        <ele>1077.2</ele>
      </trkpt>
      <trkpt lat="4.67364" lon="101.27942">
        <ele>1075.9</ele>
      </trkpt>
      <trkpt lat="4.67353" lon="101.27948">
        <ele>1075.0</ele>
      </trkpt>
      <trkpt lat="4.67334" lon="101.27958">
        <ele>1073.54</ele>
      </trkpt>
      <trkpt lat="4.67323" lon="101.27961">
        <ele>1071.6</ele>
      </trkpt>
      <trkpt lat="4.67307" lon="101.27959">
        <ele>1067.48</ele>
      </trkpt>
      <trkpt lat="4.67291" lon="101.2796">
        <ele>1066.44</ele>
      </trkpt>
      <trkpt lat="4.67269" lon="101.27967">
        <ele>1068.04</ele>
      </trkpt>
      <trkpt lat="4.67253" lon="101.27973">
        <ele>1069.37</ele>
      </trkpt>
      <trkpt lat="4.6724" lon="101.27976">
        <ele>1072.16</ele>
      </trkpt>
      <trkpt lat="4.67235" lon="101.2798">
        <ele>1074.5</ele>
      </trkpt>
      <trkpt lat="4.67229" lon="101.27991">
        <ele>1079.54</ele>
      </trkpt>
      <trkpt lat="4.6722" lon="101.28004">
        <ele>1086.28</ele>
      </trkpt>
      <trkpt lat="4.67209" lon="101.28011">
        <ele>1090.51</ele>
      </trkpt>
      <trkpt lat="4.67183" lon="101.28009">
        <ele>1091.9</ele>
      </trkpt>
      <trkpt lat="4.67142" lon="101.28003">
        <ele>1088.98</ele>
      </trkpt>
      <trkpt lat="4.67096" lon="101.28006">
        <ele>1084.07</ele>
      </trkpt>
      <trkpt lat="4.67065" lon="101.28003">
        <ele>1077.29</ele>
      </trkpt>
      <trkpt lat="4.67042" lon="101.27989">
        <ele>1062.91</ele>
      </trkpt>
      <trkpt lat="4.67026" lon="101.27966">
        <ele>1042.69</ele>
      </trkpt>
      <trkpt lat="4.67012" lon="101.27957">
        <ele>1029.54</ele>
      </trkpt>
      <trkpt lat="4.66995" lon="101.2795">
        <ele>1017.02</ele>
      </trkpt>
      <trkpt lat="4.66976" lon="101.27948">
        <ele>1002.92</ele>
      </trkpt>
      <trkpt lat="4.66951" lon="101.27928">
        <ele>975.26</ele>
      </trkpt>
      <trkpt lat="4.66911" lon="101.27919">
        <ele>953.96</ele>
      </trkpt>
      <trkpt lat="4.66895" lon="101.27907">
        <ele>944.26</ele>
      </trkpt>
      <trkpt lat="4.66878" lon="101.27903">
        <ele>936.34</ele>
      </trkpt>
      <trkpt lat="4.66866" lon="101.27896">
        <ele>929.65</ele>
      </trkpt>
      <trkpt lat="4.66862" lon="101.2789">
        <ele>926.62</ele>
      </trkpt>
      <trkpt lat="4.66863" lon="101.27884">
        <ele>926.1</ele>
      </trkpt>
      <trkpt lat="4.66863" lon="101.27875">
        <ele>924.78</ele>
      </trkpt>
      <trkpt lat="4.66858" lon="101.27871">
        <ele>922.42</ele>
      </trkpt>
      <trkpt lat="4.66839" lon="101.27868">
        <ele>915.62</ele>
      </trkpt>
      <trkpt lat="4.66814" lon="101.2786">
        <ele>908.36</ele>
      </trkpt>
      <trkpt lat="4.66801" lon="101.27848">
        <ele>904.82</ele>
      </trkpt>
      <trkpt lat="4.66786" lon="101.27837">
        <ele>902.33</ele>
      </trkpt>
      <trkpt lat="4.66737" lon="101.27803">
        <ele>905.36</ele>
      </trkpt>
      <trkpt lat="4.66716" lon="101.27781">
        <ele>907.79</ele>
      </trkpt>
      <trkpt lat="4.667" lon="101.27765">
        <ele>910.66</ele>
      </trkpt>
      <trkpt lat="4.66665" lon="101.2774">
        <ele>909.32</ele>
      </trkpt>
      <trkpt lat="4.6665" lon="101.2772">
        <ele>905.35</ele>
      </trkpt>
      <trkpt lat="4.6664" lon="101.27713">
        <ele>903.7</ele>
      </trkpt>
      <trkpt lat="4.66627" lon="101.2771">
        <ele>901.58</ele>
      </trkpt>
      <trkpt lat="4.66618" lon="101.27704">
        <ele>899.13</ele>
      </trkpt>
      <trkpt lat="4.66617" lon="101.27693">
        <ele>896.53</ele>
      </trkpt>
      <trkpt lat="4.66622" lon="101.27669">
        <ele>888.44</ele>
      </trkpt>
      <trkpt lat="4.6663" lon="101.27644">
        <ele>889.24</ele>
      </trkpt>
      <trkpt lat="4.66631" lon="101.27635">
        <ele>889.29</ele>
      </trkpt>
      <trkpt lat="4.66624" lon="101.27629">
        <ele>887.95</ele>
      </trkpt>
      <trkpt lat="4.6662" lon="101.27621">
        <ele>886.22</ele>
      </trkpt>
      <trkpt lat="4.66609" lon="101.27616">
        <ele>882.65</ele>
      </trkpt>
      <trkpt lat="4.66597" lon="101.27606">
        <ele>879.23</ele>
      </trkpt>
      <trkpt lat="4.66593" lon="101.27591">
        <ele>879.06</ele>
      </trkpt>
      <trkpt lat="4.66571" lon="101.27573">
        <ele>873.43</ele>
      </trkpt>
      <trkpt lat="4.66568" lon="101.27558">
        <ele>872.24</ele>
      </trkpt>
      <trkpt lat="4.66561" lon="101.27548">
        <ele>872.06</ele>
      </trkpt>
      <trkpt lat="4.66557" lon="101.27529">
        <ele>870.28</ele>
      </trkpt>
      <trkpt lat="4.66553" lon="101.27504">
        <ele>863.01</ele>
      </trkpt>
      <trkpt lat="4.66543" lon="101.27481">
        <ele>857.43</ele>
      </trkpt>
      <trkpt lat="4.66534" lon="101.27464">
        <ele>852.47</ele>
      </trkpt>
      <trkpt lat="4.66517" lon="101.27448">
        <ele>851.75</ele>
      </trkpt>
      <trkpt lat="4.66492" lon="101.27426">
        <ele>842.92</ele>
      </trkpt>
      <trkpt lat="4.66484" lon="101.27411">
        <ele>836.61</ele>
      </trkpt>
      <trkpt lat="4.66479" lon="101.27385">
        <ele>826.35</ele>
      </trkpt>
      <trkpt lat="4.66473" lon="101.27377">
        <ele>824.13</ele>
      </trkpt>
      <trkpt lat="4.66471" lon="101.27357">
        <ele>817.97</ele>
      </trkpt>
      <trkpt lat="4.66465" lon="101.27347">
        <ele>816.11</ele>
      </trkpt>
      <trkpt lat="4.66461" lon="101.27337">
        <ele>814.32</ele>
      </trkpt>
      <trkpt lat="4.66451" lon="101.27333">
        <ele>815.61</ele>
      </trkpt>
      <trkpt lat="4.66437" lon="101.27335">
        <ele>815.47</ele>
      </trkpt>
      <trkpt lat="4.66427" lon="101.27333">
        <ele>812.63</ele>
      </trkpt>
      <trkpt lat="4.66419" lon="101.27329">
        <ele>810.9</ele>
      </trkpt>
      <trkpt lat="4.66411" lon="101.27332">
        <ele>809.67</ele>
      </trkpt>
      <trkpt lat="4.66404" lon="101.27336">
        <ele>809.64</ele>
      </trkpt>
      <trkpt lat="4.66393" lon="101.27336">
        <ele>808.66</ele>
      </trkpt>
      <trkpt lat="4.6637" lon="101.27324">
        <ele>807.55</ele>
      </trkpt>
      <trkpt lat="4.6636" lon="101.27306">
        <ele>809.86</ele>
      </trkpt>
      <trkpt lat="4.66339" lon="101.27293">
        <ele>807.87</ele>
      </trkpt>
      <trkpt lat="4.66336" lon="101.27284">
        <ele>806.94</ele>
      </trkpt>
      <trkpt lat="4.66333" lon="101.27282">
        <ele>806.26</ele>
      </trkpt>
      <trkpt lat="4.66328" lon="101.27287">
        <ele>805.96</ele>
      </trkpt>
      <trkpt lat="4.66324" lon="101.27288">
        <ele>805.48</ele>
      </trkpt>
      <trkpt lat="4.6632" lon="101.27287">
        <ele>804.91</ele>
      </trkpt>
      <trkpt lat="4.66316" lon="101.27278">
        <ele>804.13</ele>
      </trkpt>
      <trkpt lat="4.66305" lon="101.27271">
        <ele>803.0</ele>
      </trkpt>
      <trkpt lat="4.66287" lon="101.27268">
        <ele>803.24</ele>
      </trkpt>
      <trkpt lat="4.66273" lon="101.27256">
        <ele>804.07</ele>
      </trkpt>
      <trkpt lat="4.66262" lon="101.27251">
        <ele>804.59</ele>
      </trkpt>
      <trkpt lat="4.66241" lon="101.27244">
        <ele>805.86</ele>
      </trkpt>
      <trkpt lat="4.66232" lon="101.27236">
        <ele>807.02</ele>
      </trkpt>
      <trkpt lat="4.66221" lon="101.27228">
        <ele>808.03</ele>
      </trkpt>
      <trkpt lat="4.66212" lon="101.27223">
        <ele>808.1</ele>
      </trkpt>
      <trkpt lat="4.66205" lon="101.27216">
        <ele>807.37</ele>
      </trkpt>
      <trkpt lat="4.66199" lon="101.27214">
        <ele>806.44</ele>
      </trkpt>
      <trkpt lat="4.66187" lon="101.27216">
        <ele>804.38</ele>
      </trkpt>
      <trkpt lat="4.66177" lon="101.27213">
        <ele>802.11</ele>
      </trkpt>
      <trkpt lat="4.66162" lon="101.27214">
        <ele>799.94</ele>
      </trkpt>
      <trkpt lat="4.66142" lon="101.27218">
        <ele>800.91</ele>
      </trkpt>
      <trkpt lat="4.66131" lon="101.27218">
        <ele>802.29</ele>
      </trkpt>
      <trkpt lat="4.66111" lon="101.27226">
        <ele>804.74</ele>
      </trkpt>
      <trkpt lat="4.66092" lon="101.27225">
        <ele>806.38</ele>
      </trkpt>
      <trkpt lat="4.66078" lon="101.2723">
        <ele>806.32</ele>
      </trkpt>
      <trkpt lat="4.66064" lon="101.2723">
        <ele>803.8</ele>
      </trkpt>
      <trkpt lat="4.66053" lon="101.27238">
        <ele>802.69</ele>
      </trkpt>
      <trkpt lat="4.66039" lon="101.2724">
        <ele>803.28</ele>
      </trkpt>
      <trkpt lat="4.66029" lon="101.27236">
        <ele>803.94</ele>
      </trkpt>
      <trkpt lat="4.66025" lon="101.27229">
        <ele>803.59</ele>
      </trkpt>
      <trkpt lat="4.66007" lon="101.27224">
        <ele>798.09</ele>
      </trkpt>
      <trkpt lat="4.65994" lon="101.27215">
        <ele>796.64</ele>
      </trkpt>
      <trkpt lat="4.65978" lon="101.2721">
        <ele>792.57</ele>
      </trkpt>
      <trkpt lat="4.65969" lon="101.27201">
        <ele>793.09</ele>
      </trkpt>
      <trkpt lat="4.65958" lon="101.27199">
        <ele>791.88</ele>
      </trkpt>
      <trkpt lat="4.65958" lon="101.27198">
        <ele>792.23</ele>
      </trkpt>
      <trkpt lat="4.65949" lon="101.272">
        <ele>789.99</ele>
      </trkpt>
      <trkpt lat="4.6594" lon="101.27206">
        <ele>785.3</ele>
      </trkpt>
      <trkpt lat="4.65927" lon="101.27211">
        <ele>778.96</ele>
      </trkpt>
      <trkpt lat="4.65912" lon="101.27214">
        <ele>774.63</ele>
      </trkpt>
      <trkpt lat="4.659" lon="101.27213">
        <ele>773.6</ele>
      </trkpt>
      <trkpt lat="4.65884" lon="101.2722">
        <ele>772.31</ele>
      </trkpt>
      <trkpt lat="4.6588" lon="101.27215">
        <ele>770.65</ele>
      </trkpt>
      <trkpt lat="4.6585" lon="101.27222">
        <ele>766.79</ele>
      </trkpt>
      <trkpt lat="4.6584" lon="101.27228">
        <ele>767.57</ele>
      </trkpt>
      <trkpt lat="4.65829" lon="101.27224">
        <ele>769.43</ele>
      </trkpt>
      <trkpt lat="4.65802" lon="101.27222">
        <ele>779.24</ele>
      </trkpt>
      <trkpt lat="4.65771" lon="101.27208">
        <ele>790.97</ele>
      </trkpt>
      <trkpt lat="4.65758" lon="101.27195">
        <ele>791.24</ele>
      </trkpt>
      <trkpt lat="4.65749" lon="101.27187">
        <ele>788.48</ele>
      </trkpt>
      <trkpt lat="4.65729" lon="101.2719">
        <ele>786.99</ele>
      </trkpt>
      <trkpt lat="4.6571" lon="101.27189">
        <ele>785.43</ele>
      </trkpt>
      <trkpt lat="4.6569" lon="101.27197">
        <ele>788.39</ele>
      </trkpt>
      <trkpt lat="4.65681" lon="101.27196">
        <ele>788.57</ele>
      </trkpt>
      <trkpt lat="4.65672" lon="101.27187">
        <ele>785.81</ele>
      </trkpt>
      <trkpt lat="4.65665" lon="101.27169">
        <ele>779.15</ele>
      </trkpt>
      <trkpt lat="4.65648" lon="101.27157">
        <ele>776.64</ele>
      </trkpt>
      <trkpt lat="4.65619" lon="101.27154">
        <ele>785.06</ele>
      </trkpt>
      <trkpt lat="4.65598" lon="101.27143">
        <ele>790.83</ele>
      </trkpt>
      <trkpt lat="4.65585" lon="101.27127">
        <ele>788.74</ele>
      </trkpt>
      <trkpt lat="4.65575" lon="101.27111">
        <ele>785.74</ele>
      </trkpt>
      <trkpt lat="4.65562" lon="101.27106">
        <ele>785.51</ele>
      </trkpt>
      <trkpt lat="4.65507" lon="101.27103">
        <ele>789.56</ele>
      </trkpt>
      <trkpt lat="4.6548" lon="101.271">
        <ele>782.44</ele>
      </trkpt>
      <trkpt lat="4.65461" lon="101.27095">
        <ele>775.68</ele>
      </trkpt>
      <trkpt lat="4.65451" lon="101.27089">
        <ele>772.52</ele>
      </trkpt>
      <trkpt lat="4.6545" lon="101.27078">
        <ele>769.57</ele>
      </trkpt>
      <trkpt lat="4.65444" lon="101.27071">
        <ele>768.43</ele>
      </trkpt>
      <trkpt lat="4.65436" lon="101.27063">
        <ele>768.71</ele>
      </trkpt>
      <trkpt lat="4.65433" lon="101.27054">
        <ele>767.88</ele>
      </trkpt>
      <trkpt lat="4.65426" lon="101.27042">
        <ele>765.93</ele>
      </trkpt>
      <trkpt lat="4.65414" lon="101.27035">
        <ele>765.08</ele>
      </trkpt>
      <trkpt lat="4.65384" lon="101.27031">
        <ele>765.97</ele>
      </trkpt>
      <trkpt lat="4.65359" lon="101.2704">
        <ele>770.67</ele>
      </trkpt>
      <trkpt lat="4.65334" lon="101.27041">
        <ele>771.32</ele>
      </trkpt>
      <trkpt lat="4.65307" lon="101.2705">
        <ele>772.08</ele>
      </trkpt>
      <trkpt lat="4.65264" lon="101.27047">
        <ele>766.51</ele>
      </trkpt>
      <trkpt lat="4.65248" lon="101.2704">
        <ele>763.57</ele>
      </trkpt>
      <trkpt lat="4.65208" lon="101.27006">
        <ele>738.87</ele>
      </trkpt>
      <trkpt lat="4.65207" lon="101.26996">
        <ele>734.1</ele>
      </trkpt>
      <trkpt lat="4.6521" lon="101.26989">
        <ele>733.04</ele>
      </trkpt>
      <trkpt lat="4.65208" lon="101.26981">
        <ele>729.76</ele>
      </trkpt>
      <trkpt lat="4.65186" lon="101.26962">
        <ele>717.03</ele>
      </trkpt>
      <trkpt lat="4.65188" lon="101.26943">
        <ele>713.61</ele>
      </trkpt>
      <trkpt lat="4.65183" lon="101.2692">
        <ele>704.29</ele>
      </trkpt>
      <trkpt lat="4.65188" lon="101.26883">
        <ele>693.98</ele>
      </trkpt>
      <trkpt lat="4.65186" lon="101.26847">
        <ele>676.56</ele>
      </trkpt>
      <trkpt lat="4.652" lon="101.26823">
        <ele>660.06</ele>
      </trkpt>
      <trkpt lat="4.65202" lon="101.26792">
        <ele>646.24</ele>
      </trkpt>
      <trkpt lat="4.65207" lon="101.26785">
        <ele>641.57</ele>
      </trkpt>
      <trkpt lat="4.65208" lon="101.26767">
        <ele>633.73</ele>
      </trkpt>
      <trkpt lat="4.65211" lon="101.26746">
        <ele>625.79</ele>
      </trkpt>
      <trkpt lat="4.6524" lon="101.26681">
        <ele>621.17</ele>
      </trkpt>
      <trkpt lat="4.65243" lon="101.26652">
        <ele>615.96</ele>
      </trkpt>
      <trkpt lat="4.65208" lon="101.26617">
        <ele>613.6</ele>
      </trkpt>
      <trkpt lat="4.65181" lon="101.2659">
        <ele>611.59</ele>
      </trkpt>
      <trkpt lat="4.65143" lon="101.26507">
        <ele>591.89</ele>
      </trkpt>
      <trkpt lat="4.65122" lon="101.26463">
        <ele>598.75</ele>
      </trkpt>
      <trkpt lat="4.65094" lon="101.26425">
        <ele>600.99</ele>
      </trkpt>
      <trkpt lat="4.65094" lon="101.264">
        <ele>603.23</ele>
      </trkpt>
      <trkpt lat="4.65104" lon="101.26352">
        <ele>599.4</ele>
      </trkpt>
      <trkpt lat="4.65098" lon="101.26236">
        <ele>582.93</ele>
      </trkpt>
      <trkpt lat="4.65089" lon="101.26158">
        <ele>572.01</ele>
      </trkpt>
      <trkpt lat="4.65072" lon="101.26049">
        <ele>565.64</ele>
      </trkpt>
      <trkpt lat="4.65072" lon="101.26049">
        <ele>565.64</ele>
      </trkpt>
      <trkpt lat="4.65071" lon="101.26041">
        <ele>564.11</ele>
      </trkpt>
      <trkpt lat="4.65058" lon="101.25918">
        <ele>550.19</ele>
      </trkpt>
      <trkpt lat="4.65061" lon="101.25813">
        <ele>543.56</ele>
      </trkpt>
      <trkpt lat="4.65058" lon="101.25741">
        <ele>539.16</ele>
      </trkpt>
      <trkpt lat="4.65029" lon="101.2569">
        <ele>525.71</ele>
      </trkpt>
      <trkpt lat="4.65016" lon="101.25506">
        <ele>496.41</ele>
      </trkpt>
      <trkpt lat="4.6501" lon="101.25433">
        <ele>491.02</ele>
      </trkpt>
      <trkpt lat="4.64995" lon="101.25347">
        <ele>477.82</ele>
      </trkpt>
      <trkpt lat="4.64998" lon="101.25268">
        <ele>457.05</ele>
      </trkpt>
      <trkpt lat="4.65003" lon="101.25252">
        <ele>457.81</ele>
      </trkpt>
      <trkpt lat="4.65007" lon="101.25233">
        <ele>458.85</ele>
      </trkpt>
      <trkpt lat="4.65009" lon="101.25213">
        <ele>458.47</ele>
      </trkpt>
      <trkpt lat="4.65013" lon="101.25186">
        <ele>455.82</ele>
      </trkpt>
      <trkpt lat="4.65012" lon="101.25157">
        <ele>446.8</ele>
      </trkpt>
      <trkpt lat="4.65018" lon="101.25141">
        <ele>447.33</ele>
      </trkpt>
      <trkpt lat="4.65026" lon="101.25113">
        <ele>454.96</ele>
      </trkpt>
      <trkpt lat="4.65024" lon="101.25101">
        <ele>454.74</ele>
      </trkpt>
      <trkpt lat="4.65031" lon="101.25084">
        <ele>459.71</ele>
      </trkpt>
      <trkpt lat="4.65024" lon="101.25055">
        <ele>449.89</ele>
      </trkpt>
      <trkpt lat="4.65027" lon="101.2504">
        <ele>452.93</ele>
      </trkpt>
      <trkpt lat="4.65025" lon="101.25024">
        <ele>451.53</ele>
      </trkpt>
      <trkpt lat="4.65015" lon="101.2501">
        <ele>444.9</ele>
      </trkpt>
      <trkpt lat="4.65002" lon="101.25003">
        <ele>439.19</ele>
      </trkpt>
      <trkpt lat="4.65002" lon="101.25003">
        <ele>439.19</ele>
      </trkpt>
      <trkpt lat="4.64985" lon="101.24997">
        <ele>428.69</ele>
      </trkpt>
      <trkpt lat="4.64967" lon="101.24986">
        <ele>418.68</ele>
      </trkpt>
      <trkpt lat="4.64941" lon="101.24979">
        <ele>412.54</ele>
      </trkpt>
      <trkpt lat="4.64904" lon="101.24967">
        <ele>411.53</ele>
      </trkpt>
      <trkpt lat="4.64879" lon="101.24967">
        <ele>409.64</ele>
      </trkpt>
      <trkpt lat="4.64855" lon="101.24962">
        <ele>405.53</ele>
      </trkpt>
      <trkpt lat="4.6483" lon="101.24947">
        <ele>402.09</ele>
      </trkpt>
      <trkpt lat="4.64816" lon="101.24934">
        <ele>401.44</ele>
      </trkpt>
      <trkpt lat="4.64809" lon="101.24919">
        <ele>397.7</ele>
      </trkpt>
      <trkpt lat="4.64794" lon="101.24904">
        <ele>393.92</ele>
      </trkpt>
      <trkpt lat="4.64788" lon="101.24884">
        <ele>390.48</ele>
      </trkpt>
      <trkpt lat="4.6478" lon="101.24869">
        <ele>390.27</ele>
      </trkpt>
      <trkpt lat="4.64777" lon="101.24854">
        <ele>390.04</ele>
      </trkpt>
      <trkpt lat="4.64759" lon="101.24831">
        <ele>391.83</ele>
      </trkpt>
      <trkpt lat="4.64731" lon="101.24817">
        <ele>393.57</ele>
      </trkpt>
      <trkpt lat="4.64708" lon="101.24806">
        <ele>394.54</ele>
      </trkpt>
      <trkpt lat="4.64692" lon="101.24786">
        <ele>390.74</ele>
      </trkpt>
      <trkpt lat="4.6468" lon="101.24777">
        <ele>387.81</ele>
      </trkpt>
      <trkpt lat="4.64666" lon="101.24748">
        <ele>385.75</ele>
      </trkpt>
      <trkpt lat="4.64662" lon="101.24728">
        <ele>384.22</ele>
      </trkpt>
      <trkpt lat="4.64665" lon="101.24717">
        <ele>383.11</ele>
      </trkpt>
      <trkpt lat="4.64672" lon="101.2471">
        <ele>380.83</ele>
      </trkpt>
      <trkpt lat="4.64697" lon="101.24687">
        <ele>370.96</ele>
      </trkpt>
      <trkpt lat="4.64701" lon="101.24676">
        <ele>367.67</ele>
      </trkpt>
      <trkpt lat="4.64703" lon="101.24666">
        <ele>365.07</ele>
      </trkpt>
      <trkpt lat="4.64702" lon="101.24608">
        <ele>346.34</ele>
      </trkpt>
      <trkpt lat="4.64704" lon="101.24582">
        <ele>333.34</ele>
      </trkpt>
      <trkpt lat="4.64715" lon="101.24563">
        <ele>322.1</ele>
      </trkpt>
      <trkpt lat="4.64717" lon="101.24553">
        <ele>317.81</ele>
      </trkpt>
      <trkpt lat="4.6471" lon="101.24541">
        <ele>315.53</ele>
      </trkpt>
      <trkpt lat="4.64692" lon="101.24537">
        <ele>315.65</ele>
      </trkpt>
      <trkpt lat="4.64672" lon="101.24539">
        <ele>316.83</ele>
      </trkpt>
      <trkpt lat="4.64663" lon="101.24533">
        <ele>313.34</ele>
      </trkpt>
      <trkpt lat="4.64665" lon="101.24511">
        <ele>306.5</ele>
      </trkpt>
      <trkpt lat="4.64674" lon="101.2449">
        <ele>301.14</ele>
      </trkpt>
      <trkpt lat="4.64666" lon="101.24468">
        <ele>296.21</ele>
      </trkpt>
      <trkpt lat="4.64671" lon="101.24444">
        <ele>290.94</ele>
      </trkpt>
      <trkpt lat="4.64669" lon="101.24423">
        <ele>288.04</ele>
      </trkpt>
      <trkpt lat="4.64679" lon="101.24412">
        <ele>287.87</ele>
      </trkpt>
      <trkpt lat="4.64716" lon="101.24381">
        <ele>292.6</ele>
      </trkpt>
      <trkpt lat="4.64749" lon="101.24343">
        <ele>295.51</ele>
      </trkpt>
      <trkpt lat="4.64774" lon="101.2432">
        <ele>300.47</ele>
      </trkpt>
      <trkpt lat="4.64797" lon="101.24312">
        <ele>300.8</ele>
      </trkpt>
      <trkpt lat="4.64797" lon="101.24312">
        <ele>300.8</ele>
      </trkpt>
      <trkpt lat="4.64823" lon="101.2428">
        <ele>293.53</ele>
      </trkpt>
      <trkpt lat="4.64839" lon="101.24221">
        <ele>284.97</ele>
      </trkpt>
      <trkpt lat="4.64868" lon="101.24191">
        <ele>289.47</ele>
      </trkpt>
      <trkpt lat="4.64921" lon="101.24157">
        <ele>289.58</ele>
      </trkpt>
      <trkpt lat="4.64948" lon="101.24129">
        <ele>286.78</ele>
      </trkpt>
      <trkpt lat="4.6496" lon="101.24097">
        <ele>287.4</ele>
      </trkpt>
      <trkpt lat="4.64963" lon="101.2409">
        <ele>288.22</ele>
      </trkpt>
      <trkpt lat="4.64963" lon="101.2409">
        <ele>288.22</ele>
      </trkpt>
    </trkseg>
  </trk>
</gpx>
