<?xml version="1.0"?>
<gpx xmlns="http://www.topografix.com/GPX/1/1" xmlns:xsi="http://www.w3.org/2001/XMLSchema-instance" version="1.1" creator="AllTrails.com" xsi:schemaLocation="http://www.topografix.com/GPX/1/1 http://www.topografix.com/GPX/1/1/gpx.xsd">
  <metadata>
    <name><![CDATA[Gunung Batu Putih [CLOSED]]]></name>
    <desc><![CDATA[]]></desc>
    <link href="http://www.alltrails.com">
      <text>AllTrails, LLC</text>
    </link>
    <bounds minlat="4.2124" minlon="101.3636" maxlat="4.2231" maxlon="101.44095"/>
  </metadata>
  <wpt lat="4.213418" lon="101.378443">
    <name><![CDATA[Lintasan Sungai]]></name>
    <desc><![CDATA[]]></desc>
  </wpt>
  <wpt lat="4.218364" lon="101.397862">
    <name><![CDATA[Kem Balak 1]]></name>
    <desc><![CDATA[]]></desc>
  </wpt>
  <wpt lat="4.2168819" lon="101.4032742">
    <name><![CDATA[Kem Balak 2]]></name>
    <desc><![CDATA[]]></desc>
  </wpt>
  <wpt lat="4.221692" lon="101.418458">
    <name><![CDATA[Kem Gunung Lintang]]></name>
    <desc><![CDATA[]]></desc>
  </wpt>
  <wpt lat="4.221692" lon="101.418458">
    <name><![CDATA[Kem Anaconda]]></name>
    <desc><![CDATA[]]></desc>
  </wpt>
  <trk>
    <name><![CDATA[Gunung Batu Putih [CLOSED]]]></name>
    <src>AllTrails</src>
    <trkseg>
      <trkpt lat="4.21701" lon="101.3636">
        <ele>270.07</ele>
      </trkpt>
      <trkpt lat="4.21701" lon="101.3636">
        <ele>270.07</ele>
      </trkpt>
      <trkpt lat="4.21697" lon="101.36368">
        <ele>269.73</ele>
      </trkpt>
      <trkpt lat="4.21696" lon="101.36381">
        <ele>272.38</ele>
      </trkpt>
      <trkpt lat="4.21696" lon="101.36394">
        <ele>276.09</ele>
      </trkpt>
      <trkpt lat="4.21694" lon="101.364">
        <ele>277.44</ele>
      </trkpt>
      <trkpt lat="4.21691" lon="101.36404">
        <ele>277.65</ele>
      </trkpt>
      <trkpt lat="4.2168" lon="101.36412">
        <ele>275.94</ele>
      </trkpt>
      <trkpt lat="4.21667" lon="101.36431">
        <ele>280.39</ele>
      </trkpt>
      <trkpt lat="4.21656" lon="101.36448">
        <ele>283.21</ele>
      </trkpt>
      <trkpt lat="4.21647" lon="101.36463">
        <ele>280.96</ele>
      </trkpt>
      <trkpt lat="4.21636" lon="101.36484">
        <ele>271.26</ele>
      </trkpt>
      <trkpt lat="4.21631" lon="101.36501">
        <ele>264.39</ele>
      </trkpt>
      <trkpt lat="4.21629" lon="101.36516">
        <ele>264.41</ele>
      </trkpt>
      <trkpt lat="4.21627" lon="101.36529">
        <ele>264.84</ele>
      </trkpt>
      <trkpt lat="4.21626" lon="101.36545">
        <ele>268.44</ele>
      </trkpt>
      <trkpt lat="4.21625" lon="101.36561">
        <ele>270.79</ele>
      </trkpt>
      <trkpt lat="4.21625" lon="101.36575">
        <ele>271.55</ele>
      </trkpt>
      <trkpt lat="4.21629" lon="101.36596">
        <ele>275.13</ele>
      </trkpt>
      <trkpt lat="4.21631" lon="101.36603">
        <ele>276.69</ele>
      </trkpt>
      <trkpt lat="4.21641" lon="101.36616">
        <ele>281.04</ele>
      </trkpt>
      <trkpt lat="4.21646" lon="101.3663">
        <ele>283.48</ele>
      </trkpt>
      <trkpt lat="4.21648" lon="101.36641">
        <ele>284.23</ele>
      </trkpt>
      <trkpt lat="4.21647" lon="101.36654">
        <ele>281.55</ele>
      </trkpt>
      <trkpt lat="4.21651" lon="101.36671">
        <ele>281.39</ele>
      </trkpt>
      <trkpt lat="4.21651" lon="101.36684">
        <ele>288.57</ele>
      </trkpt>
      <trkpt lat="4.2165" lon="101.36689">
        <ele>290.58</ele>
      </trkpt>
      <trkpt lat="4.21637" lon="101.36711">
        <ele>285.75</ele>
      </trkpt>
      <trkpt lat="4.2163" lon="101.36729">
        <ele>286.18</ele>
      </trkpt>
      <trkpt lat="4.21625" lon="101.36741">
        <ele>285.18</ele>
      </trkpt>
      <trkpt lat="4.21623" lon="101.36752">
        <ele>285.14</ele>
      </trkpt>
      <trkpt lat="4.21614" lon="101.36759">
        <ele>283.09</ele>
      </trkpt>
      <trkpt lat="4.21605" lon="101.36772">
        <ele>283.26</ele>
      </trkpt>
      <trkpt lat="4.21601" lon="101.36783">
        <ele>284.32</ele>
      </trkpt>
      <trkpt lat="4.21594" lon="101.36797">
        <ele>284.72</ele>
      </trkpt>
      <trkpt lat="4.21581" lon="101.36813">
        <ele>282.34</ele>
      </trkpt>
      <trkpt lat="4.21574" lon="101.36829">
        <ele>282.26</ele>
      </trkpt>
      <trkpt lat="4.21572" lon="101.36849">
        <ele>286.83</ele>
      </trkpt>
      <trkpt lat="4.21573" lon="101.36873">
        <ele>291.48</ele>
      </trkpt>
      <trkpt lat="4.21572" lon="101.36904">
        <ele>298.6</ele>
      </trkpt>
      <trkpt lat="4.21578" lon="101.36917">
        <ele>304.27</ele>
      </trkpt>
      <trkpt lat="4.21571" lon="101.36948">
        <ele>305.27</ele>
      </trkpt>
      <trkpt lat="4.21573" lon="101.36979">
        <ele>302.26</ele>
      </trkpt>
      <trkpt lat="4.21575" lon="101.36985">
        <ele>302.87</ele>
      </trkpt>
      <trkpt lat="4.2158" lon="101.36993">
        <ele>304.54</ele>
      </trkpt>
      <trkpt lat="4.2158" lon="101.37">
        <ele>304.92</ele>
      </trkpt>
      <trkpt lat="4.21577" lon="101.37009">
        <ele>305.99</ele>
      </trkpt>
      <trkpt lat="4.21543" lon="101.37062">
        <ele>308.77</ele>
      </trkpt>
      <trkpt lat="4.21535" lon="101.37081">
        <ele>311.98</ele>
      </trkpt>
      <trkpt lat="4.21534" lon="101.37114">
        <ele>312.56</ele>
      </trkpt>
      <trkpt lat="4.2153" lon="101.37125">
        <ele>310.24</ele>
      </trkpt>
      <trkpt lat="4.21512" lon="101.37145">
        <ele>305.4</ele>
      </trkpt>
      <trkpt lat="4.21499" lon="101.37163">
        <ele>303.46</ele>
      </trkpt>
      <trkpt lat="4.21479" lon="101.37188">
        <ele>306.35</ele>
      </trkpt>
      <trkpt lat="4.21469" lon="101.37201">
        <ele>305.54</ele>
      </trkpt>
      <trkpt lat="4.21455" lon="101.37217">
        <ele>299.84</ele>
      </trkpt>
      <trkpt lat="4.21454" lon="101.37223">
        <ele>298.74</ele>
      </trkpt>
      <trkpt lat="4.21451" lon="101.37242">
        <ele>297.51</ele>
      </trkpt>
      <trkpt lat="4.21442" lon="101.373">
        <ele>306.97</ele>
      </trkpt>
      <trkpt lat="4.21435" lon="101.3732">
        <ele>314.22</ele>
      </trkpt>
      <trkpt lat="4.21421" lon="101.37353">
        <ele>314.54</ele>
      </trkpt>
      <trkpt lat="4.21412" lon="101.3739">
        <ele>310.77</ele>
      </trkpt>
      <trkpt lat="4.21411" lon="101.37405">
        <ele>312.1</ele>
      </trkpt>
      <trkpt lat="4.21407" lon="101.37422">
        <ele>312.91</ele>
      </trkpt>
      <trkpt lat="4.21405" lon="101.37436">
        <ele>313.06</ele>
      </trkpt>
      <trkpt lat="4.21398" lon="101.37458">
        <ele>314.18</ele>
      </trkpt>
      <trkpt lat="4.21398" lon="101.37479">
        <ele>319.64</ele>
      </trkpt>
      <trkpt lat="4.21394" lon="101.37494">
        <ele>320.99</ele>
      </trkpt>
      <trkpt lat="4.21384" lon="101.37519">
        <ele>321.61</ele>
      </trkpt>
      <trkpt lat="4.2138" lon="101.37538">
        <ele>322.72</ele>
      </trkpt>
      <trkpt lat="4.21374" lon="101.37557">
        <ele>322.78</ele>
      </trkpt>
      <trkpt lat="4.21372" lon="101.37566">
        <ele>326.43</ele>
      </trkpt>
      <trkpt lat="4.21372" lon="101.37583">
        <ele>335.1</ele>
      </trkpt>
      <trkpt lat="4.21369" lon="101.37592">
        <ele>337.11</ele>
      </trkpt>
      <trkpt lat="4.2136" lon="101.37604">
        <ele>337.44</ele>
      </trkpt>
      <trkpt lat="4.21343" lon="101.37631">
        <ele>335.05</ele>
      </trkpt>
      <trkpt lat="4.21331" lon="101.37641">
        <ele>330.54</ele>
      </trkpt>
      <trkpt lat="4.21308" lon="101.37673">
        <ele>328.64</ele>
      </trkpt>
      <trkpt lat="4.21291" lon="101.37686">
        <ele>330.23</ele>
      </trkpt>
      <trkpt lat="4.21284" lon="101.37695">
        <ele>330.28</ele>
      </trkpt>
      <trkpt lat="4.21277" lon="101.37713">
        <ele>336.5</ele>
      </trkpt>
      <trkpt lat="4.21276" lon="101.37741">
        <ele>344.59</ele>
      </trkpt>
      <trkpt lat="4.21276" lon="101.3776">
        <ele>344.4</ele>
      </trkpt>
      <trkpt lat="4.21284" lon="101.3779">
        <ele>339.69</ele>
      </trkpt>
      <trkpt lat="4.2129" lon="101.37803">
        <ele>337.05</ele>
      </trkpt>
      <trkpt lat="4.21292" lon="101.37806">
        <ele>335.86</ele>
      </trkpt>
      <trkpt lat="4.21302" lon="101.37867">
        <ele>330.98</ele>
      </trkpt>
      <trkpt lat="4.213" lon="101.37883">
        <ele>329.04</ele>
      </trkpt>
      <trkpt lat="4.2132" lon="101.37896">
        <ele>328.48</ele>
      </trkpt>
      <trkpt lat="4.21324" lon="101.37909">
        <ele>328.34</ele>
      </trkpt>
      <trkpt lat="4.21355" lon="101.37882">
        <ele>326.34</ele>
      </trkpt>
      <trkpt lat="4.21367" lon="101.37914">
        <ele>333.5</ele>
      </trkpt>
      <trkpt lat="4.21369" lon="101.37919">
        <ele>334.61</ele>
      </trkpt>
      <trkpt lat="4.2136" lon="101.37936">
        <ele>335.82</ele>
      </trkpt>
      <trkpt lat="4.2136" lon="101.37949">
        <ele>337.36</ele>
      </trkpt>
      <trkpt lat="4.21365" lon="101.37962">
        <ele>340.26</ele>
      </trkpt>
      <trkpt lat="4.21361" lon="101.37978">
        <ele>342.63</ele>
      </trkpt>
      <trkpt lat="4.2136" lon="101.37988">
        <ele>345.12</ele>
      </trkpt>
      <trkpt lat="4.21363" lon="101.38012">
        <ele>350.67</ele>
      </trkpt>
      <trkpt lat="4.21362" lon="101.38019">
        <ele>351.23</ele>
      </trkpt>
      <trkpt lat="4.21357" lon="101.3803">
        <ele>350.52</ele>
      </trkpt>
      <trkpt lat="4.21347" lon="101.38045">
        <ele>348.92</ele>
      </trkpt>
      <trkpt lat="4.21337" lon="101.38062">
        <ele>351.32</ele>
      </trkpt>
      <trkpt lat="4.21305" lon="101.381">
        <ele>364.01</ele>
      </trkpt>
      <trkpt lat="4.21299" lon="101.38111">
        <ele>368.11</ele>
      </trkpt>
      <trkpt lat="4.21294" lon="101.38124">
        <ele>374.55</ele>
      </trkpt>
      <trkpt lat="4.21288" lon="101.38148">
        <ele>386.88</ele>
      </trkpt>
      <trkpt lat="4.21272" lon="101.38177">
        <ele>392.22</ele>
      </trkpt>
      <trkpt lat="4.21269" lon="101.38209">
        <ele>400.05</ele>
      </trkpt>
      <trkpt lat="4.21267" lon="101.38215">
        <ele>400.58</ele>
      </trkpt>
      <trkpt lat="4.21263" lon="101.3822">
        <ele>400.05</ele>
      </trkpt>
      <trkpt lat="4.21251" lon="101.38233">
        <ele>401.22</ele>
      </trkpt>
      <trkpt lat="4.21248" lon="101.38239">
        <ele>403.69</ele>
      </trkpt>
      <trkpt lat="4.21245" lon="101.38257">
        <ele>411.6</ele>
      </trkpt>
      <trkpt lat="4.21245" lon="101.38287">
        <ele>423.18</ele>
      </trkpt>
      <trkpt lat="4.2124" lon="101.38331">
        <ele>444.06</ele>
      </trkpt>
      <trkpt lat="4.2124" lon="101.38339">
        <ele>449.31</ele>
      </trkpt>
      <trkpt lat="4.21244" lon="101.38355">
        <ele>460.2</ele>
      </trkpt>
      <trkpt lat="4.21243" lon="101.38379">
        <ele>470.13</ele>
      </trkpt>
      <trkpt lat="4.21248" lon="101.38391">
        <ele>473.7</ele>
      </trkpt>
      <trkpt lat="4.21258" lon="101.38407">
        <ele>473.05</ele>
      </trkpt>
      <trkpt lat="4.21265" lon="101.38425">
        <ele>468.64</ele>
      </trkpt>
      <trkpt lat="4.21264" lon="101.38459">
        <ele>452.47</ele>
      </trkpt>
      <trkpt lat="4.21264" lon="101.38468">
        <ele>448.75</ele>
      </trkpt>
      <trkpt lat="4.21291" lon="101.38501">
        <ele>448.81</ele>
      </trkpt>
      <trkpt lat="4.21296" lon="101.38505">
        <ele>449.12</ele>
      </trkpt>
      <trkpt lat="4.21306" lon="101.38509">
        <ele>448.61</ele>
      </trkpt>
      <trkpt lat="4.21313" lon="101.38515">
        <ele>449.24</ele>
      </trkpt>
      <trkpt lat="4.21313" lon="101.38515">
        <ele>449.24</ele>
      </trkpt>
      <trkpt lat="4.21315" lon="101.38519">
        <ele>449.6</ele>
      </trkpt>
      <trkpt lat="4.21312" lon="101.38531">
        <ele>451.27</ele>
      </trkpt>
      <trkpt lat="4.21312" lon="101.38543">
        <ele>452.0</ele>
      </trkpt>
      <trkpt lat="4.21317" lon="101.38551">
        <ele>452.22</ele>
      </trkpt>
      <trkpt lat="4.21331" lon="101.38569">
        <ele>452.0</ele>
      </trkpt>
      <trkpt lat="4.21343" lon="101.38576">
        <ele>453.88</ele>
      </trkpt>
      <trkpt lat="4.21368" lon="101.38587">
        <ele>459.78</ele>
      </trkpt>
      <trkpt lat="4.21374" lon="101.38593">
        <ele>460.26</ele>
      </trkpt>
      <trkpt lat="4.21375" lon="101.386">
        <ele>460.2</ele>
      </trkpt>
      <trkpt lat="4.21371" lon="101.3861">
        <ele>460.0</ele>
      </trkpt>
      <trkpt lat="4.21373" lon="101.3862">
        <ele>460.69</ele>
      </trkpt>
      <trkpt lat="4.21377" lon="101.38628">
        <ele>461.13</ele>
      </trkpt>
      <trkpt lat="4.21379" lon="101.38644">
        <ele>461.7</ele>
      </trkpt>
      <trkpt lat="4.21383" lon="101.38655">
        <ele>461.64</ele>
      </trkpt>
      <trkpt lat="4.21395" lon="101.38679">
        <ele>466.71</ele>
      </trkpt>
      <trkpt lat="4.214" lon="101.38712">
        <ele>470.63</ele>
      </trkpt>
      <trkpt lat="4.21411" lon="101.38738">
        <ele>472.98</ele>
      </trkpt>
      <trkpt lat="4.21414" lon="101.38759">
        <ele>474.62</ele>
      </trkpt>
      <trkpt lat="4.21428" lon="101.38796">
        <ele>483.7</ele>
      </trkpt>
      <trkpt lat="4.21431" lon="101.38815">
        <ele>488.36</ele>
      </trkpt>
      <trkpt lat="4.21442" lon="101.38829">
        <ele>495.26</ele>
      </trkpt>
      <trkpt lat="4.2145" lon="101.38835">
        <ele>497.88</ele>
      </trkpt>
      <trkpt lat="4.21464" lon="101.38845">
        <ele>498.71</ele>
      </trkpt>
      <trkpt lat="4.21479" lon="101.38852">
        <ele>499.68</ele>
      </trkpt>
      <trkpt lat="4.21512" lon="101.38873">
        <ele>506.07</ele>
      </trkpt>
      <trkpt lat="4.21514" lon="101.38878">
        <ele>505.79</ele>
      </trkpt>
      <trkpt lat="4.21517" lon="101.38897">
        <ele>505.06</ele>
      </trkpt>
      <trkpt lat="4.2153" lon="101.38924">
        <ele>507.09</ele>
      </trkpt>
      <trkpt lat="4.21543" lon="101.38944">
        <ele>509.57</ele>
      </trkpt>
      <trkpt lat="4.21559" lon="101.38965">
        <ele>517.82</ele>
      </trkpt>
      <trkpt lat="4.21581" lon="101.38981">
        <ele>520.13</ele>
      </trkpt>
      <trkpt lat="4.21592" lon="101.38993">
        <ele>521.79</ele>
      </trkpt>
      <trkpt lat="4.21613" lon="101.3901">
        <ele>529.22</ele>
      </trkpt>
      <trkpt lat="4.2162" lon="101.3902">
        <ele>533.36</ele>
      </trkpt>
      <trkpt lat="4.21629" lon="101.39054">
        <ele>550.04</ele>
      </trkpt>
      <trkpt lat="4.21631" lon="101.39073">
        <ele>563.64</ele>
      </trkpt>
      <trkpt lat="4.21642" lon="101.39092">
        <ele>577.97</ele>
      </trkpt>
      <trkpt lat="4.21646" lon="101.39105">
        <ele>587.26</ele>
      </trkpt>
      <trkpt lat="4.21652" lon="101.39117">
        <ele>595.91</ele>
      </trkpt>
      <trkpt lat="4.2166" lon="101.39126">
        <ele>602.26</ele>
      </trkpt>
      <trkpt lat="4.21678" lon="101.39139">
        <ele>610.88</ele>
      </trkpt>
      <trkpt lat="4.21683" lon="101.39142">
        <ele>612.81</ele>
      </trkpt>
      <trkpt lat="4.21698" lon="101.39147">
        <ele>618.22</ele>
      </trkpt>
      <trkpt lat="4.21703" lon="101.3915">
        <ele>620.76</ele>
      </trkpt>
      <trkpt lat="4.21707" lon="101.39155">
        <ele>623.72</ele>
      </trkpt>
      <trkpt lat="4.21716" lon="101.39172">
        <ele>632.34</ele>
      </trkpt>
      <trkpt lat="4.21725" lon="101.39198">
        <ele>640.45</ele>
      </trkpt>
      <trkpt lat="4.2173" lon="101.39208">
        <ele>646.38</ele>
      </trkpt>
      <trkpt lat="4.21739" lon="101.39218">
        <ele>652.56</ele>
      </trkpt>
      <trkpt lat="4.21763" lon="101.39242">
        <ele>676.08</ele>
      </trkpt>
      <trkpt lat="4.21788" lon="101.39262">
        <ele>693.87</ele>
      </trkpt>
      <trkpt lat="4.21801" lon="101.3927">
        <ele>696.68</ele>
      </trkpt>
      <trkpt lat="4.21816" lon="101.39273">
        <ele>698.21</ele>
      </trkpt>
      <trkpt lat="4.21839" lon="101.39287">
        <ele>698.8</ele>
      </trkpt>
      <trkpt lat="4.21843" lon="101.39294">
        <ele>698.31</ele>
      </trkpt>
      <trkpt lat="4.21842" lon="101.39306">
        <ele>701.27</ele>
      </trkpt>
      <trkpt lat="4.21842" lon="101.39325">
        <ele>701.87</ele>
      </trkpt>
      <trkpt lat="4.2184" lon="101.39348">
        <ele>712.0</ele>
      </trkpt>
      <trkpt lat="4.21832" lon="101.39374">
        <ele>731.07</ele>
      </trkpt>
      <trkpt lat="4.21833" lon="101.39398">
        <ele>740.33</ele>
      </trkpt>
      <trkpt lat="4.21831" lon="101.39414">
        <ele>744.5</ele>
      </trkpt>
      <trkpt lat="4.21826" lon="101.39432">
        <ele>748.61</ele>
      </trkpt>
      <trkpt lat="4.21817" lon="101.39467">
        <ele>757.76</ele>
      </trkpt>
      <trkpt lat="4.21804" lon="101.39499">
        <ele>778.34</ele>
      </trkpt>
      <trkpt lat="4.21804" lon="101.3953">
        <ele>781.8</ele>
      </trkpt>
      <trkpt lat="4.21802" lon="101.39542">
        <ele>781.04</ele>
      </trkpt>
      <trkpt lat="4.21789" lon="101.39567">
        <ele>790.91</ele>
      </trkpt>
      <trkpt lat="4.21784" lon="101.39581">
        <ele>803.33</ele>
      </trkpt>
      <trkpt lat="4.2178" lon="101.39592">
        <ele>813.27</ele>
      </trkpt>
      <trkpt lat="4.21774" lon="101.39599">
        <ele>818.83</ele>
      </trkpt>
      <trkpt lat="4.21765" lon="101.39604">
        <ele>820.55</ele>
      </trkpt>
      <trkpt lat="4.21756" lon="101.39613">
        <ele>823.18</ele>
      </trkpt>
      <trkpt lat="4.21751" lon="101.39628">
        <ele>831.0</ele>
      </trkpt>
      <trkpt lat="4.21749" lon="101.39641">
        <ele>838.26</ele>
      </trkpt>
      <trkpt lat="4.21745" lon="101.39657">
        <ele>841.83</ele>
      </trkpt>
      <trkpt lat="4.21746" lon="101.39673">
        <ele>844.61</ele>
      </trkpt>
      <trkpt lat="4.21753" lon="101.39694">
        <ele>845.42</ele>
      </trkpt>
      <trkpt lat="4.21766" lon="101.39706">
        <ele>853.18</ele>
      </trkpt>
      <trkpt lat="4.21783" lon="101.39724">
        <ele>864.6</ele>
      </trkpt>
      <trkpt lat="4.21814" lon="101.39752">
        <ele>879.43</ele>
      </trkpt>
      <trkpt lat="4.21826" lon="101.39764">
        <ele>880.37</ele>
      </trkpt>
      <trkpt lat="4.21834" lon="101.39777">
        <ele>880.83</ele>
      </trkpt>
      <trkpt lat="4.21836" lon="101.39787">
        <ele>882.37</ele>
      </trkpt>
      <trkpt lat="4.21835" lon="101.39814">
        <ele>890.11</ele>
      </trkpt>
      <trkpt lat="4.21826" lon="101.39834">
        <ele>901.34</ele>
      </trkpt>
      <trkpt lat="4.21827" lon="101.39855">
        <ele>906.44</ele>
      </trkpt>
      <trkpt lat="4.21834" lon="101.39881">
        <ele>909.98</ele>
      </trkpt>
      <trkpt lat="4.21834" lon="101.3989">
        <ele>912.29</ele>
      </trkpt>
      <trkpt lat="4.21832" lon="101.39905">
        <ele>921.25</ele>
      </trkpt>
      <trkpt lat="4.21831" lon="101.39918">
        <ele>928.62</ele>
      </trkpt>
      <trkpt lat="4.21824" lon="101.3994">
        <ele>941.32</ele>
      </trkpt>
      <trkpt lat="4.21823" lon="101.39965">
        <ele>945.78</ele>
      </trkpt>
      <trkpt lat="4.21819" lon="101.39983">
        <ele>951.86</ele>
      </trkpt>
      <trkpt lat="4.21818" lon="101.4">
        <ele>957.38</ele>
      </trkpt>
      <trkpt lat="4.21811" lon="101.40025">
        <ele>972.64</ele>
      </trkpt>
      <trkpt lat="4.2181" lon="101.40048">
        <ele>981.08</ele>
      </trkpt>
      <trkpt lat="4.21808" lon="101.40061">
        <ele>986.47</ele>
      </trkpt>
      <trkpt lat="4.21807" lon="101.40092">
        <ele>996.8</ele>
      </trkpt>
      <trkpt lat="4.21804" lon="101.40109">
        <ele>999.15</ele>
      </trkpt>
      <trkpt lat="4.21801" lon="101.40117">
        <ele>1000.26</ele>
      </trkpt>
      <trkpt lat="4.21773" lon="101.4016">
        <ele>1008.07</ele>
      </trkpt>
      <trkpt lat="4.2177" lon="101.40185">
        <ele>1019.5</ele>
      </trkpt>
      <trkpt lat="4.21772" lon="101.40201">
        <ele>1024.5</ele>
      </trkpt>
      <trkpt lat="4.21782" lon="101.40215">
        <ele>1024.13</ele>
      </trkpt>
      <trkpt lat="4.21783" lon="101.40226">
        <ele>1024.98</ele>
      </trkpt>
      <trkpt lat="4.21781" lon="101.40231">
        <ele>1025.92</ele>
      </trkpt>
      <trkpt lat="4.21775" lon="101.40236">
        <ele>1027.03</ele>
      </trkpt>
      <trkpt lat="4.21772" lon="101.40244">
        <ele>1028.42</ele>
      </trkpt>
      <trkpt lat="4.21759" lon="101.40263">
        <ele>1036.92</ele>
      </trkpt>
      <trkpt lat="4.21746" lon="101.40274">
        <ele>1044.44</ele>
      </trkpt>
      <trkpt lat="4.21738" lon="101.40278">
        <ele>1046.87</ele>
      </trkpt>
      <trkpt lat="4.21723" lon="101.40289">
        <ele>1047.96</ele>
      </trkpt>
      <trkpt lat="4.21718" lon="101.40294">
        <ele>1049.55</ele>
      </trkpt>
      <trkpt lat="4.21701" lon="101.40308">
        <ele>1056.39</ele>
      </trkpt>
      <trkpt lat="4.217" lon="101.40319">
        <ele>1056.61</ele>
      </trkpt>
      <trkpt lat="4.21696" lon="101.40327">
        <ele>1057.19</ele>
      </trkpt>
      <trkpt lat="4.21692" lon="101.40331">
        <ele>1057.04</ele>
      </trkpt>
      <trkpt lat="4.21691" lon="101.40341">
        <ele>1057.03</ele>
      </trkpt>
      <trkpt lat="4.21697" lon="101.40347">
        <ele>1057.98</ele>
      </trkpt>
      <trkpt lat="4.21704" lon="101.40352">
        <ele>1058.7</ele>
      </trkpt>
      <trkpt lat="4.21719" lon="101.40356">
        <ele>1060.31</ele>
      </trkpt>
      <trkpt lat="4.21753" lon="101.40367">
        <ele>1067.66</ele>
      </trkpt>
      <trkpt lat="4.21769" lon="101.4038">
        <ele>1078.55</ele>
      </trkpt>
      <trkpt lat="4.21773" lon="101.40382">
        <ele>1080.74</ele>
      </trkpt>
      <trkpt lat="4.21786" lon="101.40373">
        <ele>1078.03</ele>
      </trkpt>
      <trkpt lat="4.21793" lon="101.40372">
        <ele>1078.6</ele>
      </trkpt>
      <trkpt lat="4.21799" lon="101.40372">
        <ele>1079.52</ele>
      </trkpt>
      <trkpt lat="4.21822" lon="101.40381">
        <ele>1082.93</ele>
      </trkpt>
      <trkpt lat="4.21832" lon="101.40385">
        <ele>1083.37</ele>
      </trkpt>
      <trkpt lat="4.21835" lon="101.40391">
        <ele>1083.99</ele>
      </trkpt>
      <trkpt lat="4.21839" lon="101.40399">
        <ele>1084.14</ele>
      </trkpt>
      <trkpt lat="4.21841" lon="101.40405">
        <ele>1084.3</ele>
      </trkpt>
      <trkpt lat="4.21841" lon="101.40412">
        <ele>1085.03</ele>
      </trkpt>
      <trkpt lat="4.21839" lon="101.40417">
        <ele>1086.25</ele>
      </trkpt>
      <trkpt lat="4.21829" lon="101.40431">
        <ele>1091.85</ele>
      </trkpt>
      <trkpt lat="4.21827" lon="101.40437">
        <ele>1093.52</ele>
      </trkpt>
      <trkpt lat="4.21824" lon="101.4047">
        <ele>1098.73</ele>
      </trkpt>
      <trkpt lat="4.21821" lon="101.40484">
        <ele>1099.38</ele>
      </trkpt>
      <trkpt lat="4.21819" lon="101.40506">
        <ele>1100.99</ele>
      </trkpt>
      <trkpt lat="4.21819" lon="101.4055">
        <ele>1113.72</ele>
      </trkpt>
      <trkpt lat="4.21816" lon="101.4057">
        <ele>1121.19</ele>
      </trkpt>
      <trkpt lat="4.21816" lon="101.40584">
        <ele>1125.92</ele>
      </trkpt>
      <trkpt lat="4.21821" lon="101.40596">
        <ele>1129.53</ele>
      </trkpt>
      <trkpt lat="4.21844" lon="101.40631">
        <ele>1128.08</ele>
      </trkpt>
      <trkpt lat="4.21848" lon="101.40643">
        <ele>1128.04</ele>
      </trkpt>
      <trkpt lat="4.21849" lon="101.40692">
        <ele>1140.7</ele>
      </trkpt>
      <trkpt lat="4.21854" lon="101.40723">
        <ele>1147.27</ele>
      </trkpt>
      <trkpt lat="4.21862" lon="101.40752">
        <ele>1152.28</ele>
      </trkpt>
      <trkpt lat="4.21879" lon="101.40774">
        <ele>1158.47</ele>
      </trkpt>
      <trkpt lat="4.21899" lon="101.40789">
        <ele>1163.37</ele>
      </trkpt>
      <trkpt lat="4.21933" lon="101.40808">
        <ele>1164.68</ele>
      </trkpt>
      <trkpt lat="4.21952" lon="101.40813">
        <ele>1168.34</ele>
      </trkpt>
      <trkpt lat="4.21985" lon="101.40826">
        <ele>1176.31</ele>
      </trkpt>
      <trkpt lat="4.22005" lon="101.40837">
        <ele>1174.9</ele>
      </trkpt>
      <trkpt lat="4.22019" lon="101.40847">
        <ele>1167.85</ele>
      </trkpt>
      <trkpt lat="4.22059" lon="101.40889">
        <ele>1163.63</ele>
      </trkpt>
      <trkpt lat="4.2207" lon="101.40909">
        <ele>1167.05</ele>
      </trkpt>
      <trkpt lat="4.2208" lon="101.4093">
        <ele>1172.22</ele>
      </trkpt>
      <trkpt lat="4.22082" lon="101.40938">
        <ele>1174.33</ele>
      </trkpt>
      <trkpt lat="4.22084" lon="101.40957">
        <ele>1176.65</ele>
      </trkpt>
      <trkpt lat="4.22091" lon="101.40974">
        <ele>1174.87</ele>
      </trkpt>
      <trkpt lat="4.22091" lon="101.40981">
        <ele>1174.51</ele>
      </trkpt>
      <trkpt lat="4.22088" lon="101.40992">
        <ele>1174.97</ele>
      </trkpt>
      <trkpt lat="4.22079" lon="101.41007">
        <ele>1175.28</ele>
      </trkpt>
      <trkpt lat="4.22082" lon="101.41021">
        <ele>1173.67</ele>
      </trkpt>
      <trkpt lat="4.22084" lon="101.4104">
        <ele>1175.57</ele>
      </trkpt>
      <trkpt lat="4.22087" lon="101.41055">
        <ele>1178.61</ele>
      </trkpt>
      <trkpt lat="4.22087" lon="101.41068">
        <ele>1184.56</ele>
      </trkpt>
      <trkpt lat="4.22076" lon="101.41109">
        <ele>1198.7</ele>
      </trkpt>
      <trkpt lat="4.22064" lon="101.41137">
        <ele>1213.19</ele>
      </trkpt>
      <trkpt lat="4.22056" lon="101.41185">
        <ele>1229.58</ele>
      </trkpt>
      <trkpt lat="4.22048" lon="101.41215">
        <ele>1232.26</ele>
      </trkpt>
      <trkpt lat="4.2205" lon="101.41223">
        <ele>1233.33</ele>
      </trkpt>
      <trkpt lat="4.22054" lon="101.41228">
        <ele>1233.54</ele>
      </trkpt>
      <trkpt lat="4.22077" lon="101.4124">
        <ele>1230.98</ele>
      </trkpt>
      <trkpt lat="4.22086" lon="101.4125">
        <ele>1231.1</ele>
      </trkpt>
      <trkpt lat="4.22096" lon="101.41269">
        <ele>1228.22</ele>
      </trkpt>
      <trkpt lat="4.22098" lon="101.41279">
        <ele>1226.27</ele>
      </trkpt>
      <trkpt lat="4.22096" lon="101.41299">
        <ele>1225.19</ele>
      </trkpt>
      <trkpt lat="4.22093" lon="101.41314">
        <ele>1225.06</ele>
      </trkpt>
      <trkpt lat="4.22085" lon="101.41343">
        <ele>1225.68</ele>
      </trkpt>
      <trkpt lat="4.22079" lon="101.41353">
        <ele>1225.64</ele>
      </trkpt>
      <trkpt lat="4.22071" lon="101.41365">
        <ele>1224.85</ele>
      </trkpt>
      <trkpt lat="4.2207" lon="101.41385">
        <ele>1223.63</ele>
      </trkpt>
      <trkpt lat="4.22072" lon="101.41399">
        <ele>1227.74</ele>
      </trkpt>
      <trkpt lat="4.22084" lon="101.41427">
        <ele>1242.36</ele>
      </trkpt>
      <trkpt lat="4.22091" lon="101.4145">
        <ele>1250.39</ele>
      </trkpt>
      <trkpt lat="4.22093" lon="101.41466">
        <ele>1255.28</ele>
      </trkpt>
      <trkpt lat="4.221" lon="101.41483">
        <ele>1261.53</ele>
      </trkpt>
      <trkpt lat="4.22114" lon="101.41506">
        <ele>1274.66</ele>
      </trkpt>
      <trkpt lat="4.22117" lon="101.41516">
        <ele>1287.13</ele>
      </trkpt>
      <trkpt lat="4.22117" lon="101.41531">
        <ele>1303.8</ele>
      </trkpt>
      <trkpt lat="4.2212" lon="101.41544">
        <ele>1309.88</ele>
      </trkpt>
      <trkpt lat="4.22126" lon="101.4156">
        <ele>1313.62</ele>
      </trkpt>
      <trkpt lat="4.22126" lon="101.41569">
        <ele>1317.28</ele>
      </trkpt>
      <trkpt lat="4.22123" lon="101.4158">
        <ele>1323.04</ele>
      </trkpt>
      <trkpt lat="4.22118" lon="101.41616">
        <ele>1341.46</ele>
      </trkpt>
      <trkpt lat="4.22115" lon="101.41624">
        <ele>1345.7</ele>
      </trkpt>
      <trkpt lat="4.22105" lon="101.41636">
        <ele>1352.19</ele>
      </trkpt>
      <trkpt lat="4.221" lon="101.41645">
        <ele>1355.6</ele>
      </trkpt>
      <trkpt lat="4.221" lon="101.41652">
        <ele>1358.12</ele>
      </trkpt>
      <trkpt lat="4.22104" lon="101.41666">
        <ele>1363.02</ele>
      </trkpt>
      <trkpt lat="4.22123" lon="101.41694">
        <ele>1374.0</ele>
      </trkpt>
      <trkpt lat="4.22126" lon="101.41708">
        <ele>1379.03</ele>
      </trkpt>
      <trkpt lat="4.22126" lon="101.4173">
        <ele>1388.87</ele>
      </trkpt>
      <trkpt lat="4.22123" lon="101.41741">
        <ele>1393.67</ele>
      </trkpt>
      <trkpt lat="4.22116" lon="101.4176">
        <ele>1400.9</ele>
      </trkpt>
      <trkpt lat="4.22117" lon="101.41769">
        <ele>1406.93</ele>
      </trkpt>
      <trkpt lat="4.22122" lon="101.41776">
        <ele>1414.1</ele>
      </trkpt>
      <trkpt lat="4.22124" lon="101.41778">
        <ele>1416.5</ele>
      </trkpt>
      <trkpt lat="4.22148" lon="101.41797">
        <ele>1434.66</ele>
      </trkpt>
      <trkpt lat="4.22156" lon="101.41811">
        <ele>1439.19</ele>
      </trkpt>
      <trkpt lat="4.22142" lon="101.41829">
        <ele>1433.03</ele>
      </trkpt>
      <trkpt lat="4.2217" lon="101.41844">
        <ele>1443.67</ele>
      </trkpt>
      <trkpt lat="4.22176" lon="101.41849">
        <ele>1443.84</ele>
      </trkpt>
      <trkpt lat="4.22182" lon="101.41852">
        <ele>1445.01</ele>
      </trkpt>
      <trkpt lat="4.22198" lon="101.41856">
        <ele>1448.83</ele>
      </trkpt>
      <trkpt lat="4.22204" lon="101.41858">
        <ele>1449.21</ele>
      </trkpt>
      <trkpt lat="4.2221" lon="101.41864">
        <ele>1449.27</ele>
      </trkpt>
      <trkpt lat="4.22228" lon="101.41886">
        <ele>1450.6</ele>
      </trkpt>
      <trkpt lat="4.22249" lon="101.41919">
        <ele>1458.78</ele>
      </trkpt>
      <trkpt lat="4.22258" lon="101.4193">
        <ele>1463.04</ele>
      </trkpt>
      <trkpt lat="4.22283" lon="101.41953">
        <ele>1473.5</ele>
      </trkpt>
      <trkpt lat="4.2229" lon="101.41964">
        <ele>1474.9</ele>
      </trkpt>
      <trkpt lat="4.22296" lon="101.4198">
        <ele>1478.82</ele>
      </trkpt>
      <trkpt lat="4.22307" lon="101.42002">
        <ele>1485.16</ele>
      </trkpt>
      <trkpt lat="4.2231" lon="101.42012">
        <ele>1486.14</ele>
      </trkpt>
      <trkpt lat="4.2231" lon="101.42025">
        <ele>1487.54</ele>
      </trkpt>
      <trkpt lat="4.22308" lon="101.42038">
        <ele>1486.33</ele>
      </trkpt>
      <trkpt lat="4.22292" lon="101.42069">
        <ele>1483.65</ele>
      </trkpt>
      <trkpt lat="4.2228" lon="101.42104">
        <ele>1503.34</ele>
      </trkpt>
      <trkpt lat="4.2228" lon="101.42112">
        <ele>1508.47</ele>
      </trkpt>
      <trkpt lat="4.22292" lon="101.42154">
        <ele>1513.4</ele>
      </trkpt>
      <trkpt lat="4.22293" lon="101.4218">
        <ele>1517.4</ele>
      </trkpt>
      <trkpt lat="4.22297" lon="101.42196">
        <ele>1518.68</ele>
      </trkpt>
      <trkpt lat="4.22301" lon="101.42233">
        <ele>1514.33</ele>
      </trkpt>
      <trkpt lat="4.22306" lon="101.42253">
        <ele>1511.38</ele>
      </trkpt>
      <trkpt lat="4.22306" lon="101.42272">
        <ele>1509.47</ele>
      </trkpt>
      <trkpt lat="4.22297" lon="101.42306">
        <ele>1512.45</ele>
      </trkpt>
      <trkpt lat="4.22297" lon="101.42321">
        <ele>1514.69</ele>
      </trkpt>
      <trkpt lat="4.22306" lon="101.42349">
        <ele>1520.68</ele>
      </trkpt>
      <trkpt lat="4.22304" lon="101.42363">
        <ele>1521.87</ele>
      </trkpt>
      <trkpt lat="4.22297" lon="101.42381">
        <ele>1522.55</ele>
      </trkpt>
      <trkpt lat="4.2229" lon="101.42404">
        <ele>1520.23</ele>
      </trkpt>
      <trkpt lat="4.22291" lon="101.42412">
        <ele>1518.83</ele>
      </trkpt>
      <trkpt lat="4.22301" lon="101.42451">
        <ele>1514.09</ele>
      </trkpt>
      <trkpt lat="4.22302" lon="101.42492">
        <ele>1519.93</ele>
      </trkpt>
      <trkpt lat="4.22301" lon="101.425">
        <ele>1522.31</ele>
      </trkpt>
      <trkpt lat="4.22294" lon="101.42525">
        <ele>1539.25</ele>
      </trkpt>
      <trkpt lat="4.22292" lon="101.42543">
        <ele>1551.37</ele>
      </trkpt>
      <trkpt lat="4.22289" lon="101.4256">
        <ele>1561.85</ele>
      </trkpt>
      <trkpt lat="4.22289" lon="101.4258">
        <ele>1570.35</ele>
      </trkpt>
      <trkpt lat="4.22292" lon="101.42599">
        <ele>1575.4</ele>
      </trkpt>
      <trkpt lat="4.22287" lon="101.42621">
        <ele>1584.72</ele>
      </trkpt>
      <trkpt lat="4.22282" lon="101.42634">
        <ele>1593.46</ele>
      </trkpt>
      <trkpt lat="4.22262" lon="101.42665">
        <ele>1599.09</ele>
      </trkpt>
      <trkpt lat="4.2226" lon="101.42675">
        <ele>1599.81</ele>
      </trkpt>
      <trkpt lat="4.22256" lon="101.42699">
        <ele>1602.68</ele>
      </trkpt>
      <trkpt lat="4.22246" lon="101.42718">
        <ele>1605.78</ele>
      </trkpt>
      <trkpt lat="4.22232" lon="101.4273">
        <ele>1606.41</ele>
      </trkpt>
      <trkpt lat="4.22228" lon="101.42741">
        <ele>1607.97</ele>
      </trkpt>
      <trkpt lat="4.22226" lon="101.4276">
        <ele>1612.9</ele>
      </trkpt>
      <trkpt lat="4.22222" lon="101.42779">
        <ele>1621.69</ele>
      </trkpt>
      <trkpt lat="4.22218" lon="101.42792">
        <ele>1629.52</ele>
      </trkpt>
      <trkpt lat="4.22205" lon="101.42808">
        <ele>1641.14</ele>
      </trkpt>
      <trkpt lat="4.22203" lon="101.4282">
        <ele>1645.25</ele>
      </trkpt>
      <trkpt lat="4.22207" lon="101.42837">
        <ele>1649.61</ele>
      </trkpt>
      <trkpt lat="4.22217" lon="101.42857">
        <ele>1652.95</ele>
      </trkpt>
      <trkpt lat="4.22223" lon="101.42889">
        <ele>1651.89</ele>
      </trkpt>
      <trkpt lat="4.22226" lon="101.42946">
        <ele>1643.09</ele>
      </trkpt>
      <trkpt lat="4.22223" lon="101.42971">
        <ele>1642.0</ele>
      </trkpt>
      <trkpt lat="4.22224" lon="101.42992">
        <ele>1641.76</ele>
      </trkpt>
      <trkpt lat="4.22227" lon="101.43002">
        <ele>1641.28</ele>
      </trkpt>
      <trkpt lat="4.22235" lon="101.43016">
        <ele>1641.39</ele>
      </trkpt>
      <trkpt lat="4.22237" lon="101.43026">
        <ele>1642.48</ele>
      </trkpt>
      <trkpt lat="4.22237" lon="101.43036">
        <ele>1643.81</ele>
      </trkpt>
      <trkpt lat="4.22235" lon="101.43047">
        <ele>1645.18</ele>
      </trkpt>
      <trkpt lat="4.22233" lon="101.43067">
        <ele>1645.5</ele>
      </trkpt>
      <trkpt lat="4.22231" lon="101.43079">
        <ele>1644.67</ele>
      </trkpt>
      <trkpt lat="4.22221" lon="101.43113">
        <ele>1654.1</ele>
      </trkpt>
      <trkpt lat="4.22214" lon="101.43132">
        <ele>1663.25</ele>
      </trkpt>
      <trkpt lat="4.22208" lon="101.43152">
        <ele>1678.06</ele>
      </trkpt>
      <trkpt lat="4.22201" lon="101.4318">
        <ele>1706.65</ele>
      </trkpt>
      <trkpt lat="4.22203" lon="101.43192">
        <ele>1719.16</ele>
      </trkpt>
      <trkpt lat="4.22208" lon="101.43207">
        <ele>1727.17</ele>
      </trkpt>
      <trkpt lat="4.2221" lon="101.43219">
        <ele>1732.63</ele>
      </trkpt>
      <trkpt lat="4.22217" lon="101.43235">
        <ele>1738.33</ele>
      </trkpt>
      <trkpt lat="4.2222" lon="101.43244">
        <ele>1743.19</ele>
      </trkpt>
      <trkpt lat="4.2222" lon="101.43251">
        <ele>1747.31</ele>
      </trkpt>
      <trkpt lat="4.22217" lon="101.43259">
        <ele>1750.84</ele>
      </trkpt>
      <trkpt lat="4.22218" lon="101.43272">
        <ele>1756.99</ele>
      </trkpt>
      <trkpt lat="4.22234" lon="101.43303">
        <ele>1771.96</ele>
      </trkpt>
      <trkpt lat="4.22237" lon="101.43313">
        <ele>1775.97</ele>
      </trkpt>
      <trkpt lat="4.22235" lon="101.43323">
        <ele>1782.03</ele>
      </trkpt>
      <trkpt lat="4.22213" lon="101.43365">
        <ele>1790.43</ele>
      </trkpt>
      <trkpt lat="4.22195" lon="101.43393">
        <ele>1797.52</ele>
      </trkpt>
      <trkpt lat="4.22182" lon="101.43407">
        <ele>1804.52</ele>
      </trkpt>
      <trkpt lat="4.22177" lon="101.43419">
        <ele>1810.59</ele>
      </trkpt>
      <trkpt lat="4.22173" lon="101.43431">
        <ele>1814.45</ele>
      </trkpt>
      <trkpt lat="4.22173" lon="101.43496">
        <ele>1846.84</ele>
      </trkpt>
      <trkpt lat="4.2217" lon="101.43506">
        <ele>1854.56</ele>
      </trkpt>
      <trkpt lat="4.22161" lon="101.43527">
        <ele>1870.48</ele>
      </trkpt>
      <trkpt lat="4.22137" lon="101.4356">
        <ele>1893.66</ele>
      </trkpt>
      <trkpt lat="4.22132" lon="101.43572">
        <ele>1898.56</ele>
      </trkpt>
      <trkpt lat="4.22128" lon="101.43594">
        <ele>1910.36</ele>
      </trkpt>
      <trkpt lat="4.2212" lon="101.43609">
        <ele>1923.08</ele>
      </trkpt>
      <trkpt lat="4.22111" lon="101.43632">
        <ele>1937.06</ele>
      </trkpt>
      <trkpt lat="4.22105" lon="101.43652">
        <ele>1950.22</ele>
      </trkpt>
      <trkpt lat="4.2209" lon="101.43678">
        <ele>1969.06</ele>
      </trkpt>
      <trkpt lat="4.22082" lon="101.43699">
        <ele>1982.3</ele>
      </trkpt>
      <trkpt lat="4.22079" lon="101.43711">
        <ele>1988.44</ele>
      </trkpt>
      <trkpt lat="4.22076" lon="101.43733">
        <ele>2001.5</ele>
      </trkpt>
      <trkpt lat="4.22077" lon="101.43741">
        <ele>2006.59</ele>
      </trkpt>
      <trkpt lat="4.22083" lon="101.43758">
        <ele>2013.58</ele>
      </trkpt>
      <trkpt lat="4.22083" lon="101.43771">
        <ele>2019.19</ele>
      </trkpt>
      <trkpt lat="4.22072" lon="101.4379">
        <ele>2030.98</ele>
      </trkpt>
      <trkpt lat="4.2207" lon="101.43797">
        <ele>2034.16</ele>
      </trkpt>
      <trkpt lat="4.22071" lon="101.43823">
        <ele>2046.26</ele>
      </trkpt>
      <trkpt lat="4.22074" lon="101.43842">
        <ele>2052.92</ele>
      </trkpt>
      <trkpt lat="4.22071" lon="101.43857">
        <ele>2055.81</ele>
      </trkpt>
      <trkpt lat="4.22072" lon="101.43862">
        <ele>2056.46</ele>
      </trkpt>
      <trkpt lat="4.22083" lon="101.43879">
        <ele>2056.96</ele>
      </trkpt>
      <trkpt lat="4.22087" lon="101.4389">
        <ele>2058.03</ele>
      </trkpt>
      <trkpt lat="4.22088" lon="101.4391">
        <ele>2059.17</ele>
      </trkpt>
      <trkpt lat="4.22096" lon="101.43926">
        <ele>2058.64</ele>
      </trkpt>
      <trkpt lat="4.22096" lon="101.43936">
        <ele>2061.88</ele>
      </trkpt>
      <trkpt lat="4.22085" lon="101.43945">
        <ele>2070.54</ele>
      </trkpt>
      <trkpt lat="4.22078" lon="101.43959">
        <ele>2081.71</ele>
      </trkpt>
      <trkpt lat="4.22082" lon="101.43974">
        <ele>2090.7</ele>
      </trkpt>
      <trkpt lat="4.22086" lon="101.43989">
        <ele>2094.98</ele>
      </trkpt>
      <trkpt lat="4.22088" lon="101.44011">
        <ele>2102.1</ele>
      </trkpt>
      <trkpt lat="4.22091" lon="101.44021">
        <ele>2105.34</ele>
      </trkpt>
      <trkpt lat="4.22095" lon="101.44029">
        <ele>2108.13</ele>
      </trkpt>
      <trkpt lat="4.22103" lon="101.44039">
        <ele>2109.49</ele>
      </trkpt>
      <trkpt lat="4.2212" lon="101.44051">
        <ele>2112.08</ele>
      </trkpt>
      <trkpt lat="4.22135" lon="101.4407">
        <ele>2117.54</ele>
      </trkpt>
      <trkpt lat="4.22141" lon="101.44074">
        <ele>2119.6</ele>
      </trkpt>
      <trkpt lat="4.22152" lon="101.44075">
        <ele>2121.15</ele>
      </trkpt>
      <trkpt lat="4.22174" lon="101.44072">
        <ele>2124.44</ele>
      </trkpt>
      <trkpt lat="4.22195" lon="101.44095">
        <ele>2122.77</ele>
      </trkpt>
      <trkpt lat="4.22174" lon="101.44072">
        <ele>2124.44</ele>
      </trkpt>
      <trkpt lat="4.22152" lon="101.44075">
        <ele>2121.15</ele>
      </trkpt>
      <trkpt lat="4.22141" lon="101.44074">
        <ele>2119.6</ele>
      </trkpt>
      <trkpt lat="4.22135" lon="101.4407">
        <ele>2117.54</ele>
      </trkpt>
      <trkpt lat="4.2212" lon="101.44051">
        <ele>2112.08</ele>
      </trkpt>
      <trkpt lat="4.22103" lon="101.44039">
        <ele>2109.49</ele>
      </trkpt>
      <trkpt lat="4.22095" lon="101.44029">
        <ele>2108.13</ele>
      </trkpt>
      <trkpt lat="4.22091" lon="101.44021">
        <ele>2105.34</ele>
      </trkpt>
      <trkpt lat="4.22088" lon="101.44011">
        <ele>2102.1</ele>
      </trkpt>
      <trkpt lat="4.22086" lon="101.43989">
        <ele>2094.98</ele>
      </trkpt>
      <trkpt lat="4.22082" lon="101.43974">
        <ele>2090.7</ele>
      </trkpt>
      <trkpt lat="4.22078" lon="101.43959">
        <ele>2081.71</ele>
      </trkpt>
      <trkpt lat="4.22085" lon="101.43945">
        <ele>2070.54</ele>
      </trkpt>
      <trkpt lat="4.22096" lon="101.43936">
        <ele>2061.88</ele>
      </trkpt>
      <trkpt lat="4.22096" lon="101.43926">
        <ele>2058.64</ele>
      </trkpt>
      <trkpt lat="4.22088" lon="101.4391">
        <ele>2059.17</ele>
      </trkpt>
      <trkpt lat="4.22087" lon="101.4389">
        <ele>2058.03</ele>
      </trkpt>
      <trkpt lat="4.22083" lon="101.43879">
        <ele>2056.96</ele>
      </trkpt>
      <trkpt lat="4.22072" lon="101.43862">
        <ele>2056.46</ele>
      </trkpt>
      <trkpt lat="4.22071" lon="101.43857">
        <ele>2055.81</ele>
      </trkpt>
      <trkpt lat="4.22074" lon="101.43842">
        <ele>2052.92</ele>
      </trkpt>
      <trkpt lat="4.22071" lon="101.43823">
        <ele>2046.26</ele>
      </trkpt>
      <trkpt lat="4.2207" lon="101.43797">
        <ele>2034.16</ele>
      </trkpt>
      <trkpt lat="4.22072" lon="101.4379">
        <ele>2030.98</ele>
      </trkpt>
      <trkpt lat="4.22083" lon="101.43771">
        <ele>2019.19</ele>
      </trkpt>
      <trkpt lat="4.22083" lon="101.43758">
        <ele>2013.58</ele>
      </trkpt>
      <trkpt lat="4.22077" lon="101.43741">
        <ele>2006.59</ele>
      </trkpt>
      <trkpt lat="4.22076" lon="101.43733">
        <ele>2001.5</ele>
      </trkpt>
      <trkpt lat="4.22079" lon="101.43711">
        <ele>1988.44</ele>
      </trkpt>
      <trkpt lat="4.22082" lon="101.43699">
        <ele>1982.3</ele>
      </trkpt>
      <trkpt lat="4.2209" lon="101.43678">
        <ele>1969.06</ele>
      </trkpt>
      <trkpt lat="4.22105" lon="101.43652">
        <ele>1950.22</ele>
      </trkpt>
      <trkpt lat="4.22111" lon="101.43632">
        <ele>1937.06</ele>
      </trkpt>
      <trkpt lat="4.2212" lon="101.43609">
        <ele>1923.08</ele>
      </trkpt>
      <trkpt lat="4.22128" lon="101.43594">
        <ele>1910.36</ele>
      </trkpt>
      <trkpt lat="4.22132" lon="101.43572">
        <ele>1898.56</ele>
      </trkpt>
      <trkpt lat="4.22137" lon="101.4356">
        <ele>1893.66</ele>
      </trkpt>
      <trkpt lat="4.22161" lon="101.43527">
        <ele>1870.48</ele>
      </trkpt>
      <trkpt lat="4.2217" lon="101.43506">
        <ele>1854.56</ele>
      </trkpt>
      <trkpt lat="4.22173" lon="101.43496">
        <ele>1846.84</ele>
      </trkpt>
      <trkpt lat="4.22173" lon="101.43431">
        <ele>1814.45</ele>
      </trkpt>
      <trkpt lat="4.22177" lon="101.43419">
        <ele>1810.59</ele>
      </trkpt>
      <trkpt lat="4.22182" lon="101.43407">
        <ele>1804.52</ele>
      </trkpt>
      <trkpt lat="4.22195" lon="101.43393">
        <ele>1797.52</ele>
      </trkpt>
      <trkpt lat="4.22213" lon="101.43365">
        <ele>1790.43</ele>
      </trkpt>
      <trkpt lat="4.22235" lon="101.43323">
        <ele>1782.03</ele>
      </trkpt>
      <trkpt lat="4.22237" lon="101.43313">
        <ele>1775.97</ele>
      </trkpt>
      <trkpt lat="4.22234" lon="101.43303">
        <ele>1771.96</ele>
      </trkpt>
      <trkpt lat="4.22218" lon="101.43272">
        <ele>1756.99</ele>
      </trkpt>
      <trkpt lat="4.22217" lon="101.43259">
        <ele>1750.84</ele>
      </trkpt>
      <trkpt lat="4.2222" lon="101.43251">
        <ele>1747.31</ele>
      </trkpt>
      <trkpt lat="4.2222" lon="101.43244">
        <ele>1743.19</ele>
      </trkpt>
      <trkpt lat="4.22217" lon="101.43235">
        <ele>1738.33</ele>
      </trkpt>
      <trkpt lat="4.2221" lon="101.43219">
        <ele>1732.63</ele>
      </trkpt>
      <trkpt lat="4.22208" lon="101.43207">
        <ele>1727.17</ele>
      </trkpt>
      <trkpt lat="4.22203" lon="101.43192">
        <ele>1719.16</ele>
      </trkpt>
      <trkpt lat="4.22201" lon="101.4318">
        <ele>1706.65</ele>
      </trkpt>
      <trkpt lat="4.22208" lon="101.43152">
        <ele>1678.06</ele>
      </trkpt>
      <trkpt lat="4.22214" lon="101.43132">
        <ele>1663.25</ele>
      </trkpt>
      <trkpt lat="4.22221" lon="101.43113">
        <ele>1654.1</ele>
      </trkpt>
      <trkpt lat="4.22231" lon="101.43079">
        <ele>1644.67</ele>
      </trkpt>
      <trkpt lat="4.22233" lon="101.43067">
        <ele>1645.5</ele>
      </trkpt>
      <trkpt lat="4.22235" lon="101.43047">
        <ele>1645.18</ele>
      </trkpt>
      <trkpt lat="4.22237" lon="101.43036">
        <ele>1643.81</ele>
      </trkpt>
      <trkpt lat="4.22237" lon="101.43026">
        <ele>1642.48</ele>
      </trkpt>
      <trkpt lat="4.22235" lon="101.43016">
        <ele>1641.39</ele>
      </trkpt>
      <trkpt lat="4.22227" lon="101.43002">
        <ele>1641.28</ele>
      </trkpt>
      <trkpt lat="4.22224" lon="101.42992">
        <ele>1641.76</ele>
      </trkpt>
      <trkpt lat="4.22223" lon="101.42971">
        <ele>1642.0</ele>
      </trkpt>
      <trkpt lat="4.22226" lon="101.42946">
        <ele>1643.09</ele>
      </trkpt>
      <trkpt lat="4.22223" lon="101.42889">
        <ele>1651.89</ele>
      </trkpt>
      <trkpt lat="4.22217" lon="101.42857">
        <ele>1652.95</ele>
      </trkpt>
      <trkpt lat="4.22207" lon="101.42837">
        <ele>1649.61</ele>
      </trkpt>
      <trkpt lat="4.22203" lon="101.4282">
        <ele>1645.25</ele>
      </trkpt>
      <trkpt lat="4.22205" lon="101.42808">
        <ele>1641.14</ele>
      </trkpt>
      <trkpt lat="4.22218" lon="101.42792">
        <ele>1629.52</ele>
      </trkpt>
      <trkpt lat="4.22222" lon="101.42779">
        <ele>1621.69</ele>
      </trkpt>
      <trkpt lat="4.22226" lon="101.4276">
        <ele>1612.9</ele>
      </trkpt>
      <trkpt lat="4.22228" lon="101.42741">
        <ele>1607.97</ele>
      </trkpt>
      <trkpt lat="4.22232" lon="101.4273">
        <ele>1606.41</ele>
      </trkpt>
      <trkpt lat="4.22246" lon="101.42718">
        <ele>1605.78</ele>
      </trkpt>
      <trkpt lat="4.22256" lon="101.42699">
        <ele>1602.68</ele>
      </trkpt>
      <trkpt lat="4.2226" lon="101.42675">
        <ele>1599.81</ele>
      </trkpt>
      <trkpt lat="4.22262" lon="101.42665">
        <ele>1599.09</ele>
      </trkpt>
      <trkpt lat="4.22282" lon="101.42634">
        <ele>1593.46</ele>
      </trkpt>
      <trkpt lat="4.22287" lon="101.42621">
        <ele>1584.72</ele>
      </trkpt>
      <trkpt lat="4.22292" lon="101.42599">
        <ele>1575.4</ele>
      </trkpt>
      <trkpt lat="4.22289" lon="101.4258">
        <ele>1570.35</ele>
      </trkpt>
      <trkpt lat="4.22289" lon="101.4256">
        <ele>1561.85</ele>
      </trkpt>
      <trkpt lat="4.22292" lon="101.42543">
        <ele>1551.37</ele>
      </trkpt>
      <trkpt lat="4.22294" lon="101.42525">
        <ele>1539.25</ele>
      </trkpt>
      <trkpt lat="4.22301" lon="101.425">
        <ele>1522.31</ele>
      </trkpt>
      <trkpt lat="4.22302" lon="101.42492">
        <ele>1519.93</ele>
      </trkpt>
      <trkpt lat="4.22301" lon="101.42451">
        <ele>1514.09</ele>
      </trkpt>
      <trkpt lat="4.22291" lon="101.42412">
        <ele>1518.83</ele>
      </trkpt>
      <trkpt lat="4.2229" lon="101.42404">
        <ele>1520.23</ele>
      </trkpt>
      <trkpt lat="4.22297" lon="101.42381">
        <ele>1522.55</ele>
      </trkpt>
      <trkpt lat="4.22304" lon="101.42363">
        <ele>1521.87</ele>
      </trkpt>
      <trkpt lat="4.22306" lon="101.42349">
        <ele>1520.68</ele>
      </trkpt>
      <trkpt lat="4.22297" lon="101.42321">
        <ele>1514.69</ele>
      </trkpt>
      <trkpt lat="4.22297" lon="101.42306">
        <ele>1512.45</ele>
      </trkpt>
      <trkpt lat="4.22306" lon="101.42272">
        <ele>1509.47</ele>
      </trkpt>
      <trkpt lat="4.22306" lon="101.42253">
        <ele>1511.38</ele>
      </trkpt>
      <trkpt lat="4.22301" lon="101.42233">
        <ele>1514.33</ele>
      </trkpt>
      <trkpt lat="4.22297" lon="101.42196">
        <ele>1518.68</ele>
      </trkpt>
      <trkpt lat="4.22293" lon="101.4218">
        <ele>1517.4</ele>
      </trkpt>
      <trkpt lat="4.22292" lon="101.42154">
        <ele>1513.4</ele>
      </trkpt>
      <trkpt lat="4.2228" lon="101.42112">
        <ele>1508.47</ele>
      </trkpt>
      <trkpt lat="4.2228" lon="101.42104">
        <ele>1503.34</ele>
      </trkpt>
      <trkpt lat="4.22292" lon="101.42069">
        <ele>1483.65</ele>
      </trkpt>
      <trkpt lat="4.22308" lon="101.42038">
        <ele>1486.33</ele>
      </trkpt>
      <trkpt lat="4.2231" lon="101.42025">
        <ele>1487.54</ele>
      </trkpt>
      <trkpt lat="4.2231" lon="101.42012">
        <ele>1486.14</ele>
      </trkpt>
      <trkpt lat="4.22307" lon="101.42002">
        <ele>1485.16</ele>
      </trkpt>
      <trkpt lat="4.22296" lon="101.4198">
        <ele>1478.82</ele>
      </trkpt>
      <trkpt lat="4.2229" lon="101.41964">
        <ele>1474.9</ele>
      </trkpt>
      <trkpt lat="4.22283" lon="101.41953">
        <ele>1473.5</ele>
      </trkpt>
      <trkpt lat="4.22258" lon="101.4193">
        <ele>1463.04</ele>
      </trkpt>
      <trkpt lat="4.22249" lon="101.41919">
        <ele>1458.78</ele>
      </trkpt>
      <trkpt lat="4.22228" lon="101.41886">
        <ele>1450.6</ele>
      </trkpt>
      <trkpt lat="4.2221" lon="101.41864">
        <ele>1449.27</ele>
      </trkpt>
      <trkpt lat="4.22204" lon="101.41858">
        <ele>1449.21</ele>
      </trkpt>
      <trkpt lat="4.22198" lon="101.41856">
        <ele>1448.83</ele>
      </trkpt>
      <trkpt lat="4.22182" lon="101.41852">
        <ele>1445.01</ele>
      </trkpt>
      <trkpt lat="4.22176" lon="101.41849">
        <ele>1443.84</ele>
      </trkpt>
      <trkpt lat="4.2217" lon="101.41844">
        <ele>1443.67</ele>
      </trkpt>
      <trkpt lat="4.22142" lon="101.41829">
        <ele>1433.03</ele>
      </trkpt>
      <trkpt lat="4.22156" lon="101.41811">
        <ele>1439.19</ele>
      </trkpt>
      <trkpt lat="4.22148" lon="101.41797">
        <ele>1434.66</ele>
      </trkpt>
      <trkpt lat="4.22124" lon="101.41778">
        <ele>1416.5</ele>
      </trkpt>
      <trkpt lat="4.22122" lon="101.41776">
        <ele>1414.1</ele>
      </trkpt>
      <trkpt lat="4.22117" lon="101.41769">
        <ele>1406.93</ele>
      </trkpt>
      <trkpt lat="4.22116" lon="101.4176">
        <ele>1400.9</ele>
      </trkpt>
      <trkpt lat="4.22123" lon="101.41741">
        <ele>1393.67</ele>
      </trkpt>
      <trkpt lat="4.22126" lon="101.4173">
        <ele>1388.87</ele>
      </trkpt>
      <trkpt lat="4.22126" lon="101.41708">
        <ele>1379.03</ele>
      </trkpt>
      <trkpt lat="4.22123" lon="101.41694">
        <ele>1374.0</ele>
      </trkpt>
      <trkpt lat="4.22104" lon="101.41666">
        <ele>1363.02</ele>
      </trkpt>
      <trkpt lat="4.221" lon="101.41652">
        <ele>1358.12</ele>
      </trkpt>
      <trkpt lat="4.221" lon="101.41645">
        <ele>1355.6</ele>
      </trkpt>
      <trkpt lat="4.22105" lon="101.41636">
        <ele>1352.19</ele>
      </trkpt>
      <trkpt lat="4.22115" lon="101.41624">
        <ele>1345.7</ele>
      </trkpt>
      <trkpt lat="4.22118" lon="101.41616">
        <ele>1341.46</ele>
      </trkpt>
      <trkpt lat="4.22123" lon="101.4158">
        <ele>1323.04</ele>
      </trkpt>
      <trkpt lat="4.22126" lon="101.41569">
        <ele>1317.28</ele>
      </trkpt>
      <trkpt lat="4.22126" lon="101.4156">
        <ele>1313.62</ele>
      </trkpt>
      <trkpt lat="4.2212" lon="101.41544">
        <ele>1309.88</ele>
      </trkpt>
      <trkpt lat="4.22117" lon="101.41531">
        <ele>1303.8</ele>
      </trkpt>
      <trkpt lat="4.22117" lon="101.41516">
        <ele>1287.13</ele>
      </trkpt>
      <trkpt lat="4.22114" lon="101.41506">
        <ele>1274.66</ele>
      </trkpt>
      <trkpt lat="4.221" lon="101.41483">
        <ele>1261.53</ele>
      </trkpt>
      <trkpt lat="4.22093" lon="101.41466">
        <ele>1255.28</ele>
      </trkpt>
      <trkpt lat="4.22091" lon="101.4145">
        <ele>1250.39</ele>
      </trkpt>
      <trkpt lat="4.22084" lon="101.41427">
        <ele>1242.36</ele>
      </trkpt>
      <trkpt lat="4.22072" lon="101.41399">
        <ele>1227.74</ele>
      </trkpt>
      <trkpt lat="4.2207" lon="101.41385">
        <ele>1223.63</ele>
      </trkpt>
      <trkpt lat="4.22071" lon="101.41365">
        <ele>1224.85</ele>
      </trkpt>
      <trkpt lat="4.22079" lon="101.41353">
        <ele>1225.64</ele>
      </trkpt>
      <trkpt lat="4.22085" lon="101.41343">
        <ele>1225.68</ele>
      </trkpt>
      <trkpt lat="4.22093" lon="101.41314">
        <ele>1225.06</ele>
      </trkpt>
      <trkpt lat="4.22096" lon="101.41299">
        <ele>1225.19</ele>
      </trkpt>
      <trkpt lat="4.22098" lon="101.41279">
        <ele>1226.27</ele>
      </trkpt>
      <trkpt lat="4.22096" lon="101.41269">
        <ele>1228.22</ele>
      </trkpt>
      <trkpt lat="4.22086" lon="101.4125">
        <ele>1231.1</ele>
      </trkpt>
      <trkpt lat="4.22077" lon="101.4124">
        <ele>1230.98</ele>
      </trkpt>
      <trkpt lat="4.22054" lon="101.41228">
        <ele>1233.54</ele>
      </trkpt>
      <trkpt lat="4.2205" lon="101.41223">
        <ele>1233.33</ele>
      </trkpt>
      <trkpt lat="4.22048" lon="101.41215">
        <ele>1232.26</ele>
      </trkpt>
      <trkpt lat="4.22056" lon="101.41185">
        <ele>1229.58</ele>
      </trkpt>
      <trkpt lat="4.22064" lon="101.41137">
        <ele>1213.19</ele>
      </trkpt>
      <trkpt lat="4.22076" lon="101.41109">
        <ele>1198.7</ele>
      </trkpt>
      <trkpt lat="4.22087" lon="101.41068">
        <ele>1184.56</ele>
      </trkpt>
      <trkpt lat="4.22087" lon="101.41055">
        <ele>1178.61</ele>
      </trkpt>
      <trkpt lat="4.22084" lon="101.4104">
        <ele>1175.57</ele>
      </trkpt>
      <trkpt lat="4.22082" lon="101.41021">
        <ele>1173.67</ele>
      </trkpt>
      <trkpt lat="4.22079" lon="101.41007">
        <ele>1175.28</ele>
      </trkpt>
      <trkpt lat="4.22088" lon="101.40992">
        <ele>1174.97</ele>
      </trkpt>
      <trkpt lat="4.22091" lon="101.40981">
        <ele>1174.51</ele>
      </trkpt>
      <trkpt lat="4.22091" lon="101.40974">
        <ele>1174.87</ele>
      </trkpt>
      <trkpt lat="4.22084" lon="101.40957">
        <ele>1176.65</ele>
      </trkpt>
      <trkpt lat="4.22082" lon="101.40938">
        <ele>1174.33</ele>
      </trkpt>
      <trkpt lat="4.2208" lon="101.4093">
        <ele>1172.22</ele>
      </trkpt>
      <trkpt lat="4.2207" lon="101.40909">
        <ele>1167.05</ele>
      </trkpt>
      <trkpt lat="4.22059" lon="101.40889">
        <ele>1163.63</ele>
      </trkpt>
      <trkpt lat="4.22019" lon="101.40847">
        <ele>1167.85</ele>
      </trkpt>
      <trkpt lat="4.22005" lon="101.40837">
        <ele>1174.9</ele>
      </trkpt>
      <trkpt lat="4.21985" lon="101.40826">
        <ele>1176.31</ele>
      </trkpt>
      <trkpt lat="4.21952" lon="101.40813">
        <ele>1168.34</ele>
      </trkpt>
      <trkpt lat="4.21933" lon="101.40808">
        <ele>1164.68</ele>
      </trkpt>
      <trkpt lat="4.21899" lon="101.40789">
        <ele>1163.37</ele>
      </trkpt>
      <trkpt lat="4.21879" lon="101.40774">
        <ele>1158.47</ele>
      </trkpt>
      <trkpt lat="4.21862" lon="101.40752">
        <ele>1152.28</ele>
      </trkpt>
      <trkpt lat="4.21854" lon="101.40723">
        <ele>1147.27</ele>
      </trkpt>
      <trkpt lat="4.21849" lon="101.40692">
        <ele>1140.7</ele>
      </trkpt>
      <trkpt lat="4.21848" lon="101.40643">
        <ele>1128.04</ele>
      </trkpt>
      <trkpt lat="4.21844" lon="101.40631">
        <ele>1128.08</ele>
      </trkpt>
      <trkpt lat="4.21821" lon="101.40596">
        <ele>1129.53</ele>
      </trkpt>
      <trkpt lat="4.21816" lon="101.40584">
        <ele>1125.92</ele>
      </trkpt>
      <trkpt lat="4.21816" lon="101.4057">
        <ele>1121.19</ele>
      </trkpt>
      <trkpt lat="4.21819" lon="101.4055">
        <ele>1113.72</ele>
      </trkpt>
      <trkpt lat="4.21819" lon="101.40506">
        <ele>1100.99</ele>
      </trkpt>
      <trkpt lat="4.21821" lon="101.40484">
        <ele>1099.38</ele>
      </trkpt>
      <trkpt lat="4.21824" lon="101.4047">
        <ele>1098.73</ele>
      </trkpt>
      <trkpt lat="4.21827" lon="101.40437">
        <ele>1093.52</ele>
      </trkpt>
      <trkpt lat="4.21829" lon="101.40431">
        <ele>1091.85</ele>
      </trkpt>
      <trkpt lat="4.21839" lon="101.40417">
        <ele>1086.25</ele>
      </trkpt>
      <trkpt lat="4.21841" lon="101.40412">
        <ele>1085.03</ele>
      </trkpt>
      <trkpt lat="4.21841" lon="101.40405">
        <ele>1084.3</ele>
      </trkpt>
      <trkpt lat="4.21839" lon="101.40399">
        <ele>1084.14</ele>
      </trkpt>
      <trkpt lat="4.21835" lon="101.40391">
        <ele>1083.99</ele>
      </trkpt>
      <trkpt lat="4.21832" lon="101.40385">
        <ele>1083.37</ele>
      </trkpt>
      <trkpt lat="4.21822" lon="101.40381">
        <ele>1082.93</ele>
      </trkpt>
      <trkpt lat="4.21799" lon="101.40372">
        <ele>1079.52</ele>
      </trkpt>
      <trkpt lat="4.21793" lon="101.40372">
        <ele>1078.6</ele>
      </trkpt>
      <trkpt lat="4.21786" lon="101.40373">
        <ele>1078.03</ele>
      </trkpt>
      <trkpt lat="4.21773" lon="101.40382">
        <ele>1080.74</ele>
      </trkpt>
      <trkpt lat="4.21769" lon="101.4038">
        <ele>1078.55</ele>
      </trkpt>
      <trkpt lat="4.21753" lon="101.40367">
        <ele>1067.66</ele>
      </trkpt>
      <trkpt lat="4.21719" lon="101.40356">
        <ele>1060.31</ele>
      </trkpt>
      <trkpt lat="4.21704" lon="101.40352">
        <ele>1058.7</ele>
      </trkpt>
      <trkpt lat="4.21697" lon="101.40347">
        <ele>1057.98</ele>
      </trkpt>
      <trkpt lat="4.21691" lon="101.40341">
        <ele>1057.03</ele>
      </trkpt>
      <trkpt lat="4.21692" lon="101.40331">
        <ele>1057.04</ele>
      </trkpt>
      <trkpt lat="4.21696" lon="101.40327">
        <ele>1057.19</ele>
      </trkpt>
      <trkpt lat="4.217" lon="101.40319">
        <ele>1056.61</ele>
      </trkpt>
      <trkpt lat="4.21701" lon="101.40308">
        <ele>1056.39</ele>
      </trkpt>
      <trkpt lat="4.21718" lon="101.40294">
        <ele>1049.55</ele>
      </trkpt>
      <trkpt lat="4.21723" lon="101.40289">
        <ele>1047.96</ele>
      </trkpt>
      <trkpt lat="4.21738" lon="101.40278">
        <ele>1046.87</ele>
      </trkpt>
      <trkpt lat="4.21746" lon="101.40274">
        <ele>1044.44</ele>
      </trkpt>
      <trkpt lat="4.21759" lon="101.40263">
        <ele>1036.92</ele>
      </trkpt>
      <trkpt lat="4.21772" lon="101.40244">
        <ele>1028.42</ele>
      </trkpt>
      <trkpt lat="4.21775" lon="101.40236">
        <ele>1027.03</ele>
      </trkpt>
      <trkpt lat="4.21781" lon="101.40231">
        <ele>1025.92</ele>
      </trkpt>
      <trkpt lat="4.21783" lon="101.40226">
        <ele>1024.98</ele>
      </trkpt>
      <trkpt lat="4.21782" lon="101.40215">
        <ele>1024.13</ele>
      </trkpt>
      <trkpt lat="4.21772" lon="101.40201">
        <ele>1024.5</ele>
      </trkpt>
      <trkpt lat="4.2177" lon="101.40185">
        <ele>1019.5</ele>
      </trkpt>
      <trkpt lat="4.21773" lon="101.4016">
        <ele>1008.07</ele>
      </trkpt>
      <trkpt lat="4.21801" lon="101.40117">
        <ele>1000.26</ele>
      </trkpt>
      <trkpt lat="4.21804" lon="101.40109">
        <ele>999.15</ele>
      </trkpt>
      <trkpt lat="4.21807" lon="101.40092">
        <ele>996.8</ele>
      </trkpt>
      <trkpt lat="4.21808" lon="101.40061">
        <ele>986.47</ele>
      </trkpt>
      <trkpt lat="4.2181" lon="101.40048">
        <ele>981.08</ele>
      </trkpt>
      <trkpt lat="4.21811" lon="101.40025">
        <ele>972.64</ele>
      </trkpt>
      <trkpt lat="4.21818" lon="101.4">
        <ele>957.38</ele>
      </trkpt>
      <trkpt lat="4.21819" lon="101.39983">
        <ele>951.86</ele>
      </trkpt>
      <trkpt lat="4.21823" lon="101.39965">
        <ele>945.78</ele>
      </trkpt>
      <trkpt lat="4.21824" lon="101.3994">
        <ele>941.32</ele>
      </trkpt>
      <trkpt lat="4.21831" lon="101.39918">
        <ele>928.62</ele>
      </trkpt>
      <trkpt lat="4.21832" lon="101.39905">
        <ele>921.25</ele>
      </trkpt>
      <trkpt lat="4.21834" lon="101.3989">
        <ele>912.29</ele>
      </trkpt>
      <trkpt lat="4.21834" lon="101.39881">
        <ele>909.98</ele>
      </trkpt>
      <trkpt lat="4.21827" lon="101.39855">
        <ele>906.44</ele>
      </trkpt>
      <trkpt lat="4.21826" lon="101.39834">
        <ele>901.34</ele>
      </trkpt>
      <trkpt lat="4.21835" lon="101.39814">
        <ele>890.11</ele>
      </trkpt>
      <trkpt lat="4.21836" lon="101.39787">
        <ele>882.37</ele>
      </trkpt>
      <trkpt lat="4.21834" lon="101.39777">
        <ele>880.83</ele>
      </trkpt>
      <trkpt lat="4.21826" lon="101.39764">
        <ele>880.37</ele>
      </trkpt>
      <trkpt lat="4.21814" lon="101.39752">
        <ele>879.43</ele>
      </trkpt>
      <trkpt lat="4.21783" lon="101.39724">
        <ele>864.6</ele>
      </trkpt>
      <trkpt lat="4.21766" lon="101.39706">
        <ele>853.18</ele>
      </trkpt>
      <trkpt lat="4.21753" lon="101.39694">
        <ele>845.42</ele>
      </trkpt>
      <trkpt lat="4.21746" lon="101.39673">
        <ele>844.61</ele>
      </trkpt>
      <trkpt lat="4.21745" lon="101.39657">
        <ele>841.83</ele>
      </trkpt>
      <trkpt lat="4.21749" lon="101.39641">
        <ele>838.26</ele>
      </trkpt>
      <trkpt lat="4.21751" lon="101.39628">
        <ele>831.0</ele>
      </trkpt>
      <trkpt lat="4.21756" lon="101.39613">
        <ele>823.18</ele>
      </trkpt>
      <trkpt lat="4.21765" lon="101.39604">
        <ele>820.55</ele>
      </trkpt>
      <trkpt lat="4.21774" lon="101.39599">
        <ele>818.83</ele>
      </trkpt>
      <trkpt lat="4.2178" lon="101.39592">
        <ele>813.27</ele>
      </trkpt>
      <trkpt lat="4.21784" lon="101.39581">
        <ele>803.33</ele>
      </trkpt>
      <trkpt lat="4.21789" lon="101.39567">
        <ele>790.91</ele>
      </trkpt>
      <trkpt lat="4.21802" lon="101.39542">
        <ele>781.04</ele>
      </trkpt>
      <trkpt lat="4.21804" lon="101.3953">
        <ele>781.8</ele>
      </trkpt>
      <trkpt lat="4.21804" lon="101.39499">
        <ele>778.34</ele>
      </trkpt>
      <trkpt lat="4.21817" lon="101.39467">
        <ele>757.76</ele>
      </trkpt>
      <trkpt lat="4.21826" lon="101.39432">
        <ele>748.61</ele>
      </trkpt>
      <trkpt lat="4.21831" lon="101.39414">
        <ele>744.5</ele>
      </trkpt>
      <trkpt lat="4.21833" lon="101.39398">
        <ele>740.33</ele>
      </trkpt>
      <trkpt lat="4.21832" lon="101.39374">
        <ele>731.07</ele>
      </trkpt>
      <trkpt lat="4.2184" lon="101.39348">
        <ele>712.0</ele>
      </trkpt>
      <trkpt lat="4.21842" lon="101.39325">
        <ele>701.87</ele>
      </trkpt>
      <trkpt lat="4.21842" lon="101.39306">
        <ele>701.27</ele>
      </trkpt>
      <trkpt lat="4.21843" lon="101.39294">
        <ele>698.31</ele>
      </trkpt>
      <trkpt lat="4.21839" lon="101.39287">
        <ele>698.8</ele>
      </trkpt>
      <trkpt lat="4.21816" lon="101.39273">
        <ele>698.21</ele>
      </trkpt>
      <trkpt lat="4.21801" lon="101.3927">
        <ele>696.68</ele>
      </trkpt>
      <trkpt lat="4.21788" lon="101.39262">
        <ele>693.87</ele>
      </trkpt>
      <trkpt lat="4.21763" lon="101.39242">
        <ele>676.08</ele>
      </trkpt>
      <trkpt lat="4.21739" lon="101.39218">
        <ele>652.56</ele>
      </trkpt>
      <trkpt lat="4.2173" lon="101.39208">
        <ele>646.38</ele>
      </trkpt>
      <trkpt lat="4.21725" lon="101.39198">
        <ele>640.45</ele>
      </trkpt>
      <trkpt lat="4.21716" lon="101.39172">
        <ele>632.34</ele>
      </trkpt>
      <trkpt lat="4.21707" lon="101.39155">
        <ele>623.72</ele>
      </trkpt>
      <trkpt lat="4.21703" lon="101.3915">
        <ele>620.76</ele>
      </trkpt>
      <trkpt lat="4.21698" lon="101.39147">
        <ele>618.22</ele>
      </trkpt>
      <trkpt lat="4.21683" lon="101.39142">
        <ele>612.81</ele>
      </trkpt>
      <trkpt lat="4.21678" lon="101.39139">
        <ele>610.88</ele>
      </trkpt>
      <trkpt lat="4.2166" lon="101.39126">
        <ele>602.26</ele>
      </trkpt>
      <trkpt lat="4.21652" lon="101.39117">
        <ele>595.91</ele>
      </trkpt>
      <trkpt lat="4.21646" lon="101.39105">
        <ele>587.26</ele>
      </trkpt>
      <trkpt lat="4.21642" lon="101.39092">
        <ele>577.97</ele>
      </trkpt>
      <trkpt lat="4.21631" lon="101.39073">
        <ele>563.64</ele>
      </trkpt>
      <trkpt lat="4.21629" lon="101.39054">
        <ele>550.04</ele>
      </trkpt>
      <trkpt lat="4.2162" lon="101.3902">
        <ele>533.36</ele>
      </trkpt>
      <trkpt lat="4.21613" lon="101.3901">
        <ele>529.22</ele>
      </trkpt>
      <trkpt lat="4.21592" lon="101.38993">
        <ele>521.79</ele>
      </trkpt>
      <trkpt lat="4.21581" lon="101.38981">
        <ele>520.13</ele>
      </trkpt>
      <trkpt lat="4.21559" lon="101.38965">
        <ele>517.82</ele>
      </trkpt>
      <trkpt lat="4.21543" lon="101.38944">
        <ele>509.57</ele>
      </trkpt>
      <trkpt lat="4.2153" lon="101.38924">
        <ele>507.09</ele>
      </trkpt>
      <trkpt lat="4.21517" lon="101.38897">
        <ele>505.06</ele>
      </trkpt>
      <trkpt lat="4.21514" lon="101.38878">
        <ele>505.79</ele>
      </trkpt>
      <trkpt lat="4.21512" lon="101.38873">
        <ele>506.07</ele>
      </trkpt>
      <trkpt lat="4.21479" lon="101.38852">
        <ele>499.68</ele>
      </trkpt>
      <trkpt lat="4.21464" lon="101.38845">
        <ele>498.71</ele>
      </trkpt>
      <trkpt lat="4.2145" lon="101.38835">
        <ele>497.88</ele>
      </trkpt>
      <trkpt lat="4.21442" lon="101.38829">
        <ele>495.26</ele>
      </trkpt>
      <trkpt lat="4.21431" lon="101.38815">
        <ele>488.36</ele>
      </trkpt>
      <trkpt lat="4.21428" lon="101.38796">
        <ele>483.7</ele>
      </trkpt>
      <trkpt lat="4.21414" lon="101.38759">
        <ele>474.62</ele>
      </trkpt>
      <trkpt lat="4.21411" lon="101.38738">
        <ele>472.98</ele>
      </trkpt>
      <trkpt lat="4.214" lon="101.38712">
        <ele>470.63</ele>
      </trkpt>
      <trkpt lat="4.21395" lon="101.38679">
        <ele>466.71</ele>
      </trkpt>
      <trkpt lat="4.21383" lon="101.38655">
        <ele>461.64</ele>
      </trkpt>
      <trkpt lat="4.21379" lon="101.38644">
        <ele>461.7</ele>
      </trkpt>
      <trkpt lat="4.21377" lon="101.38628">
        <ele>461.13</ele>
      </trkpt>
      <trkpt lat="4.21373" lon="101.3862">
        <ele>460.69</ele>
      </trkpt>
      <trkpt lat="4.21371" lon="101.3861">
        <ele>460.0</ele>
      </trkpt>
      <trkpt lat="4.21375" lon="101.386">
        <ele>460.2</ele>
      </trkpt>
      <trkpt lat="4.21374" lon="101.38593">
        <ele>460.26</ele>
      </trkpt>
      <trkpt lat="4.21368" lon="101.38587">
        <ele>459.78</ele>
      </trkpt>
      <trkpt lat="4.21343" lon="101.38576">
        <ele>453.88</ele>
      </trkpt>
      <trkpt lat="4.21331" lon="101.38569">
        <ele>452.0</ele>
      </trkpt>
      <trkpt lat="4.21317" lon="101.38551">
        <ele>452.22</ele>
      </trkpt>
      <trkpt lat="4.21312" lon="101.38543">
        <ele>452.0</ele>
      </trkpt>
      <trkpt lat="4.21312" lon="101.38531">
        <ele>451.27</ele>
      </trkpt>
      <trkpt lat="4.21315" lon="101.38519">
        <ele>449.6</ele>
      </trkpt>
      <trkpt lat="4.21313" lon="101.38515">
        <ele>449.24</ele>
      </trkpt>
      <trkpt lat="4.21313" lon="101.38515">
        <ele>449.24</ele>
      </trkpt>
      <trkpt lat="4.21306" lon="101.38509">
        <ele>448.61</ele>
      </trkpt>
      <trkpt lat="4.21296" lon="101.38505">
        <ele>449.12</ele>
      </trkpt>
      <trkpt lat="4.21291" lon="101.38501">
        <ele>448.81</ele>
      </trkpt>
      <trkpt lat="4.21264" lon="101.38468">
        <ele>448.75</ele>
      </trkpt>
      <trkpt lat="4.21264" lon="101.38459">
        <ele>452.47</ele>
      </trkpt>
      <trkpt lat="4.21265" lon="101.38425">
        <ele>468.64</ele>
      </trkpt>
      <trkpt lat="4.21258" lon="101.38407">
        <ele>473.05</ele>
      </trkpt>
      <trkpt lat="4.21248" lon="101.38391">
        <ele>473.7</ele>
      </trkpt>
      <trkpt lat="4.21243" lon="101.38379">
        <ele>470.13</ele>
      </trkpt>
      <trkpt lat="4.21244" lon="101.38355">
        <ele>460.2</ele>
      </trkpt>
      <trkpt lat="4.2124" lon="101.38339">
        <ele>449.31</ele>
      </trkpt>
      <trkpt lat="4.2124" lon="101.38331">
        <ele>444.06</ele>
      </trkpt>
      <trkpt lat="4.21245" lon="101.38287">
        <ele>423.18</ele>
      </trkpt>
      <trkpt lat="4.21245" lon="101.38257">
        <ele>411.6</ele>
      </trkpt>
      <trkpt lat="4.21248" lon="101.38239">
        <ele>403.69</ele>
      </trkpt>
      <trkpt lat="4.21251" lon="101.38233">
        <ele>401.22</ele>
      </trkpt>
      <trkpt lat="4.21263" lon="101.3822">
        <ele>400.05</ele>
      </trkpt>
      <trkpt lat="4.21267" lon="101.38215">
        <ele>400.58</ele>
      </trkpt>
      <trkpt lat="4.21269" lon="101.38209">
        <ele>400.05</ele>
      </trkpt>
      <trkpt lat="4.21272" lon="101.38177">
        <ele>392.22</ele>
      </trkpt>
      <trkpt lat="4.21288" lon="101.38148">
        <ele>386.88</ele>
      </trkpt>
      <trkpt lat="4.21294" lon="101.38124">
        <ele>374.55</ele>
      </trkpt>
      <trkpt lat="4.21299" lon="101.38111">
        <ele>368.11</ele>
      </trkpt>
      <trkpt lat="4.21305" lon="101.381">
        <ele>364.01</ele>
      </trkpt>
      <trkpt lat="4.21337" lon="101.38062">
        <ele>351.32</ele>
      </trkpt>
      <trkpt lat="4.21347" lon="101.38045">
        <ele>348.92</ele>
      </trkpt>
      <trkpt lat="4.21357" lon="101.3803">
        <ele>350.52</ele>
      </trkpt>
      <trkpt lat="4.21362" lon="101.38019">
        <ele>351.23</ele>
      </trkpt>
      <trkpt lat="4.21363" lon="101.38012">
        <ele>350.67</ele>
      </trkpt>
      <trkpt lat="4.2136" lon="101.37988">
        <ele>345.12</ele>
      </trkpt>
      <trkpt lat="4.21361" lon="101.37978">
        <ele>342.63</ele>
      </trkpt>
      <trkpt lat="4.21365" lon="101.37962">
        <ele>340.26</ele>
      </trkpt>
      <trkpt lat="4.2136" lon="101.37949">
        <ele>337.36</ele>
      </trkpt>
      <trkpt lat="4.2136" lon="101.37936">
        <ele>335.82</ele>
      </trkpt>
      <trkpt lat="4.21369" lon="101.37919">
        <ele>334.61</ele>
      </trkpt>
      <trkpt lat="4.21367" lon="101.37914">
        <ele>333.5</ele>
      </trkpt>
      <trkpt lat="4.21355" lon="101.37882">
        <ele>326.34</ele>
      </trkpt>
      <trkpt lat="4.21324" lon="101.37909">
        <ele>328.34</ele>
      </trkpt>
      <trkpt lat="4.2132" lon="101.37896">
        <ele>328.48</ele>
      </trkpt>
      <trkpt lat="4.213" lon="101.37883">
        <ele>329.04</ele>
      </trkpt>
      <trkpt lat="4.21302" lon="101.37867">
        <ele>330.98</ele>
      </trkpt>
      <trkpt lat="4.21292" lon="101.37806">
        <ele>335.86</ele>
      </trkpt>
      <trkpt lat="4.2129" lon="101.37803">
        <ele>337.05</ele>
      </trkpt>
      <trkpt lat="4.21284" lon="101.3779">
        <ele>339.69</ele>
      </trkpt>
      <trkpt lat="4.21276" lon="101.3776">
        <ele>344.4</ele>
      </trkpt>
      <trkpt lat="4.21276" lon="101.37741">
        <ele>344.59</ele>
      </trkpt>
      <trkpt lat="4.21277" lon="101.37713">
        <ele>336.5</ele>
      </trkpt>
      <trkpt lat="4.21284" lon="101.37695">
        <ele>330.28</ele>
      </trkpt>
      <trkpt lat="4.21291" lon="101.37686">
        <ele>330.23</ele>
      </trkpt>
      <trkpt lat="4.21308" lon="101.37673">
        <ele>328.64</ele>
      </trkpt>
      <trkpt lat="4.21331" lon="101.37641">
        <ele>330.54</ele>
      </trkpt>
      <trkpt lat="4.21343" lon="101.37631">
        <ele>335.05</ele>
      </trkpt>
      <trkpt lat="4.2136" lon="101.37604">
        <ele>337.44</ele>
      </trkpt>
      <trkpt lat="4.21369" lon="101.37592">
        <ele>337.11</ele>
      </trkpt>
      <trkpt lat="4.21372" lon="101.37583">
        <ele>335.1</ele>
      </trkpt>
      <trkpt lat="4.21372" lon="101.37566">
        <ele>326.43</ele>
      </trkpt>
      <trkpt lat="4.21374" lon="101.37557">
        <ele>322.78</ele>
      </trkpt>
      <trkpt lat="4.2138" lon="101.37538">
        <ele>322.72</ele>
      </trkpt>
      <trkpt lat="4.21384" lon="101.37519">
        <ele>321.61</ele>
      </trkpt>
      <trkpt lat="4.21394" lon="101.37494">
        <ele>320.99</ele>
      </trkpt>
      <trkpt lat="4.21398" lon="101.37479">
        <ele>319.64</ele>
      </trkpt>
      <trkpt lat="4.21398" lon="101.37458">
        <ele>314.18</ele>
      </trkpt>
      <trkpt lat="4.21405" lon="101.37436">
        <ele>313.06</ele>
      </trkpt>
      <trkpt lat="4.21407" lon="101.37422">
        <ele>312.91</ele>
      </trkpt>
      <trkpt lat="4.21411" lon="101.37405">
        <ele>312.1</ele>
      </trkpt>
      <trkpt lat="4.21412" lon="101.3739">
        <ele>310.77</ele>
      </trkpt>
      <trkpt lat="4.21421" lon="101.37353">
        <ele>314.54</ele>
      </trkpt>
      <trkpt lat="4.21435" lon="101.3732">
        <ele>314.22</ele>
      </trkpt>
      <trkpt lat="4.21442" lon="101.373">
        <ele>306.97</ele>
      </trkpt>
      <trkpt lat="4.21451" lon="101.37242">
        <ele>297.51</ele>
      </trkpt>
      <trkpt lat="4.21454" lon="101.37223">
        <ele>298.74</ele>
      </trkpt>
      <trkpt lat="4.21455" lon="101.37217">
        <ele>299.84</ele>
      </trkpt>
      <trkpt lat="4.21469" lon="101.37201">
        <ele>305.54</ele>
      </trkpt>
      <trkpt lat="4.21479" lon="101.37188">
        <ele>306.35</ele>
      </trkpt>
      <trkpt lat="4.21499" lon="101.37163">
        <ele>303.46</ele>
      </trkpt>
      <trkpt lat="4.21512" lon="101.37145">
        <ele>305.4</ele>
      </trkpt>
      <trkpt lat="4.2153" lon="101.37125">
        <ele>310.24</ele>
      </trkpt>
      <trkpt lat="4.21534" lon="101.37114">
        <ele>312.56</ele>
      </trkpt>
      <trkpt lat="4.21535" lon="101.37081">
        <ele>311.98</ele>
      </trkpt>
      <trkpt lat="4.21543" lon="101.37062">
        <ele>308.77</ele>
      </trkpt>
      <trkpt lat="4.21577" lon="101.37009">
        <ele>305.99</ele>
      </trkpt>
      <trkpt lat="4.2158" lon="101.37">
        <ele>304.92</ele>
      </trkpt>
      <trkpt lat="4.2158" lon="101.36993">
        <ele>304.54</ele>
      </trkpt>
      <trkpt lat="4.21575" lon="101.36985">
        <ele>302.87</ele>
      </trkpt>
      <trkpt lat="4.21573" lon="101.36979">
        <ele>302.26</ele>
      </trkpt>
      <trkpt lat="4.21571" lon="101.36948">
        <ele>305.27</ele>
      </trkpt>
      <trkpt lat="4.21578" lon="101.36917">
        <ele>304.27</ele>
      </trkpt>
      <trkpt lat="4.21572" lon="101.36904">
        <ele>298.6</ele>
      </trkpt>
      <trkpt lat="4.21573" lon="101.36873">
        <ele>291.48</ele>
      </trkpt>
      <trkpt lat="4.21572" lon="101.36849">
        <ele>286.83</ele>
      </trkpt>
      <trkpt lat="4.21574" lon="101.36829">
        <ele>282.26</ele>
      </trkpt>
      <trkpt lat="4.21581" lon="101.36813">
        <ele>282.34</ele>
      </trkpt>
      <trkpt lat="4.21594" lon="101.36797">
        <ele>284.72</ele>
      </trkpt>
      <trkpt lat="4.21601" lon="101.36783">
        <ele>284.32</ele>
      </trkpt>
      <trkpt lat="4.21605" lon="101.36772">
        <ele>283.26</ele>
      </trkpt>
      <trkpt lat="4.21614" lon="101.36759">
        <ele>283.09</ele>
      </trkpt>
      <trkpt lat="4.21623" lon="101.36752">
        <ele>285.14</ele>
      </trkpt>
      <trkpt lat="4.21625" lon="101.36741">
        <ele>285.18</ele>
      </trkpt>
      <trkpt lat="4.2163" lon="101.36729">
        <ele>286.18</ele>
      </trkpt>
      <trkpt lat="4.21637" lon="101.36711">
        <ele>285.75</ele>
      </trkpt>
      <trkpt lat="4.2165" lon="101.36689">
        <ele>290.58</ele>
      </trkpt>
      <trkpt lat="4.21651" lon="101.36684">
        <ele>288.57</ele>
      </trkpt>
      <trkpt lat="4.21651" lon="101.36671">
        <ele>281.39</ele>
      </trkpt>
      <trkpt lat="4.21647" lon="101.36654">
        <ele>281.55</ele>
      </trkpt>
      <trkpt lat="4.21648" lon="101.36641">
        <ele>284.23</ele>
      </trkpt>
      <trkpt lat="4.21646" lon="101.3663">
        <ele>283.48</ele>
      </trkpt>
      <trkpt lat="4.21641" lon="101.36616">
        <ele>281.04</ele>
      </trkpt>
      <trkpt lat="4.21631" lon="101.36603">
        <ele>276.69</ele>
      </trkpt>
      <trkpt lat="4.21629" lon="101.36596">
        <ele>275.13</ele>
      </trkpt>
      <trkpt lat="4.21625" lon="101.36575">
        <ele>271.55</ele>
      </trkpt>
      <trkpt lat="4.21625" lon="101.36561">
        <ele>270.79</ele>
      </trkpt>
      <trkpt lat="4.21626" lon="101.36545">
        <ele>268.44</ele>
      </trkpt>
      <trkpt lat="4.21627" lon="101.36529">
        <ele>264.84</ele>
      </trkpt>
      <trkpt lat="4.21629" lon="101.36516">
        <ele>264.41</ele>
      </trkpt>
      <trkpt lat="4.21631" lon="101.36501">
        <ele>264.39</ele>
      </trkpt>
      <trkpt lat="4.21636" lon="101.36484">
        <ele>271.26</ele>
      </trkpt>
      <trkpt lat="4.21647" lon="101.36463">
        <ele>280.96</ele>
      </trkpt>
      <trkpt lat="4.21656" lon="101.36448">
        <ele>283.21</ele>
      </trkpt>
      <trkpt lat="4.21667" lon="101.36431">
        <ele>280.39</ele>
      </trkpt>
      <trkpt lat="4.2168" lon="101.36412">
        <ele>275.94</ele>
      </trkpt>
      <trkpt lat="4.21691" lon="101.36404">
        <ele>277.65</ele>
      </trkpt>
      <trkpt lat="4.21694" lon="101.364">
        <ele>277.44</ele>
      </trkpt>
      <trkpt lat="4.21696" lon="101.36394">
        <ele>276.09</ele>
      </trkpt>
      <trkpt lat="4.21696" lon="101.36381">
        <ele>272.38</ele>
      </trkpt>
      <trkpt lat="4.21697" lon="101.36368">
        <ele>269.73</ele>
      </trkpt>
      <trkpt lat="4.21701" lon="101.3636">
        <ele>270.07</ele>
      </trkpt>
      <trkpt lat="4.21701" lon="101.3636">
        <ele>270.07</ele>
      </trkpt>
    </trkseg>
  </trk>
</gpx>
